{
"type": "FeatureCollection",
"name": "U_3",
"crs": { "type": "name", "properties": { "name": "urn:ogc:def:crs:OGC:1.3:CRS84" } },
"features": [
{ "type": "Feature", "properties": { "LocationID": "b0", "c_1": 0.16059604265249977, "c_2": 0.61048628291134854, "c_3": 0.2289176744361518 }, "geometry": { "type": "Polygon", "coordinates": [ [ [ 0.881398688433988, 4.954015490504821 ], [ 0.665879871131595, 4.602737154839122 ], [ 0.0, 5.205938872073739 ], [ 0.0, 5.609742030934316 ], [ 0.678132752693894, 5.744758466087752 ], [ 0.881398688433988, 4.954015490504821 ] ] ] } },
{ "type": "Feature", "properties": { "LocationID": "c1", "c_1": 0.2586514886791047, "c_2": 0.73168935311084426, "c_3": 0.0096591582100510019 }, "geometry": { "type": "Polygon", "coordinates": [ [ [ 9.519463219792678, 9.481044546015086 ], [ 9.076815309758851, 9.636733381189291 ], [ 8.941574023693416, 9.814066319619021 ], [ 9.080768799683067, 10.0 ], [ 9.402111401604492, 10.0 ], [ 9.519463219792678, 9.481044546015086 ] ] ] } },
{ "type": "Feature", "properties": { "LocationID": "c2", "c_1": 0.97533243264255265, "c_2": 0.0023947430215047073, "c_3": 0.022272824335942683 }, "geometry": { "type": "Polygon", "coordinates": [ [ [ 9.076815309758851, 9.636733381189291 ], [ 9.519463219792678, 9.481044546015086 ], [ 9.605103280142623, 9.222091055046704 ], [ 9.209926243024158, 9.234134573674428 ], [ 9.076815309758851, 9.636733381189291 ] ] ] } },
{ "type": "Feature", "properties": { "LocationID": "c3", "c_1": 0.97638522043871445, "c_2": 0.007297019217699781, "c_3": 0.016317760343585768 }, "geometry": { "type": "Polygon", "coordinates": [ [ [ 9.209926243024158, 9.234134573674428 ], [ 9.605103280142623, 9.222091055046704 ], [ 10.0, 8.941727005883902 ], [ 10.0, 8.65315826884405 ], [ 9.607173672765246, 8.467900543958963 ], [ 8.783809639907171, 9.150394882782084 ], [ 8.781718664902872, 9.170402173967187 ], [ 9.209926243024158, 9.234134573674428 ] ] ] } },
{ "type": "Feature", "properties": { "LocationID": "c4", "c_1": 0.16445673853235707, "c_2": 0.82624070258987581, "c_3": 0.0093025588777672294 }, "geometry": { "type": "Polygon", "coordinates": [ [ [ 9.318612313658402, 7.395221865223254 ], [ 9.227688948594013, 8.186185694753563 ], [ 9.421679124102955, 8.366437186342907 ], [ 9.607173672765246, 8.467900543958963 ], [ 10.0, 8.65315826884405 ], [ 10.0, 7.100228016168309 ], [ 9.318612313658402, 7.395221865223254 ] ] ] } },
{ "type": "Feature", "properties": { "LocationID": "c5", "c_1": 0.22593067030796204, "c_2": 0.76239545818232779, "c_3": 0.011673871509710068 }, "geometry": { "type": "Polygon", "coordinates": [ [ [ 8.783809639907171, 9.150394882782084 ], [ 9.607173672765246, 8.467900543958963 ], [ 9.421679124102955, 8.366437186342907 ], [ 8.787563603632139, 8.923407445716451 ], [ 8.783809639907171, 9.150394882782084 ] ] ] } },
{ "type": "Feature", "properties": { "LocationID": "c6", "c_1": 0.17082174213806281, "c_2": 0.81134864609743895, "c_3": 0.017829611764498307 }, "geometry": { "type": "Polygon", "coordinates": [ [ [ 0.66189107525502, 8.913196825745375 ], [ 0.205232426510948, 8.919407492426885 ], [ 0.633514485877368, 9.570869076485154 ], [ 0.812428270868526, 8.974787250708886 ], [ 0.66189107525502, 8.913196825745375 ] ] ] } },
{ "type": "Feature", "properties": { "LocationID": "a7", "c_1": 0.97580692724556239, "c_2": 0.0019275376880691583, "c_3": 0.022265535066368487 }, "geometry": { "type": "Polygon", "coordinates": [ [ [ 9.148102349019499, 1.592873225310798 ], [ 10.0, 1.24643813044677 ], [ 10.0, 0.705420047814469 ], [ 9.989428870766019, 0.705624911763773 ], [ 8.655847343469421, 1.245487348301406 ], [ 8.712732339017016, 1.471345784239164 ], [ 9.148102349019499, 1.592873225310798 ] ] ] } },
{ "type": "Feature", "properties": { "LocationID": "c8", "c_1": 0.23475127388583575, "c_2": 0.74648136034422785, "c_3": 0.01876736576993647 }, "geometry": { "type": "Polygon", "coordinates": [ [ [ 7.161156687751083, 9.349303690078154 ], [ 6.563871489904788, 9.188173054158247 ], [ 6.489172171608344, 9.240049858409845 ], [ 6.62290870591676, 10.0 ], [ 6.636630720348413, 10.0 ], [ 7.161156687751083, 9.349303690078154 ] ] ] } },
{ "type": "Feature", "properties": { "LocationID": "c9", "c_1": 0.25920780517686443, "c_2": 0.72192423839358322, "c_3": 0.01886795642955225 }, "geometry": { "type": "Polygon", "coordinates": [ [ [ 3.821792418120496, 9.393466744804646 ], [ 3.058696982319642, 9.083047774458185 ], [ 2.824525551724117, 10.0 ], [ 3.907093564360953, 10.0 ], [ 3.821792418120496, 9.393466744804646 ] ] ] } },
{ "type": "Feature", "properties": { "LocationID": "c10", "c_1": 0.93821764220414561, "c_2": 0.032715399917258192, "c_3": 0.029066957878596245 }, "geometry": { "type": "Polygon", "coordinates": [ [ [ 3.058696982319642, 9.083047774458185 ], [ 2.8777559081481, 8.690132453646832 ], [ 2.115351922114266, 9.203274122450763 ], [ 1.95364025356986, 9.466454967806433 ], [ 2.272744783849935, 10.0 ], [ 2.824525551724117, 10.0 ], [ 3.058696982319642, 9.083047774458185 ] ] ] } },
{ "type": "Feature", "properties": { "LocationID": "c11", "c_1": 0.23088604076124733, "c_2": 0.75658220373594731, "c_3": 0.012531755502805365 }, "geometry": { "type": "Polygon", "coordinates": [ [ [ 8.522477719394757, 9.503144945412538 ], [ 8.512781113275055, 9.388037115618275 ], [ 7.973426638914327, 9.060902828822847 ], [ 7.668107223519982, 9.013110881243193 ], [ 7.584399042168795, 10.0 ], [ 8.250485406241273, 10.0 ], [ 8.522477719394757, 9.503144945412538 ] ] ] } },
{ "type": "Feature", "properties": { "LocationID": "c12", "c_1": 0.22929228449350769, "c_2": 0.75788476171863195, "c_3": 0.012822953787860332 }, "geometry": { "type": "Polygon", "coordinates": [ [ [ 8.522477719394757, 9.503144945412538 ], [ 8.941574023693416, 9.814066319619021 ], [ 9.076815309758851, 9.636733381189291 ], [ 9.209926243024158, 9.234134573674428 ], [ 8.781718664902872, 9.170402173967187 ], [ 8.512781113275055, 9.388037115618275 ], [ 8.522477719394757, 9.503144945412538 ] ] ] } },
{ "type": "Feature", "properties": { "LocationID": "c13", "c_1": 0.88377252671653062, "c_2": 0.026128767385096386, "c_3": 0.090098705898372947 }, "geometry": { "type": "Polygon", "coordinates": [ [ [ 7.773483597266886, 6.850135492007651 ], [ 7.865803636586246, 7.317736592422693 ], [ 8.18382703610089, 7.74967284008738 ], [ 8.99676214561222, 7.277683274835486 ], [ 8.672166349874383, 6.465445950745202 ], [ 7.773483597266886, 6.850135492007651 ] ] ] } },
{ "type": "Feature", "properties": { "LocationID": "c14", "c_1": 0.050947082367624852, "c_2": 0.2925613469679591, "c_3": 0.65649157066441599 }, "geometry": { "type": "Polygon", "coordinates": [ [ [ 9.835966292678672, 6.190145375939281 ], [ 8.696481137611485, 6.42928408856715 ], [ 8.672166349874383, 6.465445950745202 ], [ 8.99676214561222, 7.277683274835486 ], [ 9.318612313658402, 7.395221865223254 ], [ 10.0, 7.100228016168309 ], [ 10.0, 6.215814755038846 ], [ 9.835966292678672, 6.190145375939281 ] ] ] } },
{ "type": "Feature", "properties": { "LocationID": "c15", "c_1": 0.2300961667572467, "c_2": 0.75153099399937706, "c_3": 0.018372839243376158 }, "geometry": { "type": "Polygon", "coordinates": [ [ [ 8.402185332868378, 8.019378176116868 ], [ 8.389343902717576, 8.626163845835626 ], [ 8.709052553055715, 8.76126809924345 ], [ 8.863073720977312, 8.188613207180557 ], [ 8.402185332868378, 8.019378176116868 ] ] ] } },
{ "type": "Feature", "properties": { "LocationID": "c16", "c_1": 0.97768993073484778, "c_2": 0.0082599833925529349, "c_3": 0.014050085872599389 }, "geometry": { "type": "Polygon", "coordinates": [ [ [ 8.389343902717576, 8.626163845835626 ], [ 7.973426638914327, 9.060902828822847 ], [ 8.512781113275055, 9.388037115618275 ], [ 8.781718664902872, 9.170402173967187 ], [ 8.783809639907171, 9.150394882782084 ], [ 8.787563603632139, 8.923407445716451 ], [ 8.709052553055715, 8.76126809924345 ], [ 8.389343902717576, 8.626163845835626 ] ] ] } },
{ "type": "Feature", "properties": { "LocationID": "c17", "c_1": 0.17194426493651904, "c_2": 0.82017382802400596, "c_3": 0.0078819070394750591 }, "geometry": { "type": "Polygon", "coordinates": [ [ [ 8.709052553055715, 8.76126809924345 ], [ 8.787563603632139, 8.923407445716451 ], [ 9.421679124102955, 8.366437186342907 ], [ 9.227688948594013, 8.186185694753563 ], [ 8.863073720977312, 8.188613207180557 ], [ 8.709052553055715, 8.76126809924345 ] ] ] } },
{ "type": "Feature", "properties": { "LocationID": "c18", "c_1": 0.14315640228557291, "c_2": 0.84728963553248215, "c_3": 0.0095539621819448854 }, "geometry": { "type": "Polygon", "coordinates": [ [ [ 9.227688948594013, 8.186185694753563 ], [ 9.318612313658402, 7.395221865223254 ], [ 8.99676214561222, 7.277683274835486 ], [ 8.18382703610089, 7.74967284008738 ], [ 8.192832826606381, 7.828911071300885 ], [ 8.402185332868378, 8.019378176116868 ], [ 8.863073720977312, 8.188613207180557 ], [ 9.227688948594013, 8.186185694753563 ] ] ] } },
{ "type": "Feature", "properties": { "LocationID": "b19", "c_1": 0.050691822860112631, "c_2": 0.21880693528917558, "c_3": 0.73050124185071186 }, "geometry": { "type": "Polygon", "coordinates": [ [ [ 0.889273316052891, 4.955772203800002 ], [ 1.442148403907218, 5.495860590094098 ], [ 2.042580194782761, 5.391984572358242 ], [ 1.357816180437747, 4.937457836512881 ], [ 0.889273316052891, 4.955772203800002 ] ] ] } },
{ "type": "Feature", "properties": { "LocationID": "b20", "c_1": 0.068875301202888803, "c_2": 0.35182096777631733, "c_3": 0.57930373102079391 }, "geometry": { "type": "Polygon", "coordinates": [ [ [ 1.442148403907218, 5.495860590094098 ], [ 0.889273316052891, 4.955772203800002 ], [ 0.881398688433988, 4.954015490504821 ], [ 0.678132752693894, 5.744758466087752 ], [ 0.716329146764561, 5.794721383850556 ], [ 0.859767060059045, 5.822129170815479 ], [ 1.110845526299099, 5.753553305548238 ], [ 1.442148403907218, 5.495860590094098 ] ] ] } },
{ "type": "Feature", "properties": { "LocationID": "c21", "c_1": 0.97167895475355637, "c_2": 0.0089727924906385145, "c_3": 0.019348252755805147 }, "geometry": { "type": "Polygon", "coordinates": [ [ [ 1.48172456769094, 9.516730879151801 ], [ 1.95364025356986, 9.466454967806433 ], [ 2.115351922114266, 9.203274122450763 ], [ 1.382492144472196, 8.638022786403251 ], [ 1.216072994364153, 8.929013590596977 ], [ 1.318009321184512, 9.27654359028662 ], [ 1.48172456769094, 9.516730879151801 ] ] ] } },
{ "type": "Feature", "properties": { "LocationID": "c22", "c_1": 0.19067755417088805, "c_2": 0.79228363424209103, "c_3": 0.01703881158702087 }, "geometry": { "type": "Polygon", "coordinates": [ [ [ 1.318009321184512, 9.27654359028662 ], [ 1.216072994364153, 8.929013590596977 ], [ 0.812428270868526, 8.974787250708886 ], [ 0.633514485877368, 9.570869076485154 ], [ 0.633807670552785, 9.63972678112065 ], [ 1.318009321184512, 9.27654359028662 ] ] ] } },
{ "type": "Feature", "properties": { "LocationID": "b23", "c_1": 0.0016134348585186027, "c_2": 0.030886538622764362, "c_3": 0.96750002651871703 }, "geometry": { "type": "Polygon", "coordinates": [ [ [ 9.835966292678672, 6.190145375939281 ], [ 10.0, 6.215814755038846 ], [ 10.0, 5.207813850782733 ], [ 8.940499611018348, 5.309800758053423 ], [ 9.835966292678672, 6.190145375939281 ] ] ] } },
{ "type": "Feature", "properties": { "LocationID": "b24", "c_1": 0.087893811160069543, "c_2": 0.32528388429359928, "c_3": 0.58682230454633122 }, "geometry": { "type": "Polygon", "coordinates": [ [ [ 8.940499611018348, 5.309800758053423 ], [ 10.0, 5.207813850782733 ], [ 10.0, 4.965587086477794 ], [ 8.883998434827554, 5.125782215832865 ], [ 8.836023095100568, 5.243208501313374 ], [ 8.940499611018348, 5.309800758053423 ] ] ] } },
{ "type": "Feature", "properties": { "LocationID": "b25", "c_1": 0.012523544587225131, "c_2": 0.080652243537802218, "c_3": 0.90682421187497275 }, "geometry": { "type": "Polygon", "coordinates": [ [ [ 8.113329496309413, 5.207028610792102 ], [ 8.032368995882807, 5.26423014448561 ], [ 8.153399846383964, 5.885765221043591 ], [ 8.617328983131225, 6.169082011009576 ], [ 8.724533081231483, 5.299424510406232 ], [ 8.113329496309413, 5.207028610792102 ] ] ] } },
{ "type": "Feature", "properties": { "LocationID": "b26", "c_1": 0.019739219355318301, "c_2": 0.13481979378152745, "c_3": 0.84544098686315439 }, "geometry": { "type": "Polygon", "coordinates": [ [ [ 8.724533081231483, 5.299424510406232 ], [ 8.617328983131225, 6.169082011009576 ], [ 8.696481137611485, 6.42928408856715 ], [ 9.835966292678672, 6.190145375939281 ], [ 8.940499611018348, 5.309800758053423 ], [ 8.836023095100568, 5.243208501313374 ], [ 8.724533081231483, 5.299424510406232 ] ] ] } },
{ "type": "Feature", "properties": { "LocationID": "b27", "c_1": 0.027149861330984473, "c_2": 0.092022019571897318, "c_3": 0.88082811909711822 }, "geometry": { "type": "Polygon", "coordinates": [ [ [ 7.875437344793021, 4.431572854463543 ], [ 8.08910342124936, 4.947935324630079 ], [ 8.745584943152693, 4.323233667508603 ], [ 8.394295336485429, 4.253964522755213 ], [ 7.875437344793021, 4.431572854463543 ] ] ] } },
{ "type": "Feature", "properties": { "LocationID": "a28", "c_1": 0.3949219129735228, "c_2": 0.54720499246494358, "c_3": 0.057873094561533667 }, "geometry": { "type": "Polygon", "coordinates": [ [ [ 7.987886310596517, 0.281049461886547 ], [ 7.992839563123691, 0.290090410241147 ], [ 8.561853862418308, 0.918897052860637 ], [ 9.149817165624096, 0.699378276048723 ], [ 9.13199586481525, 0.28048609870188 ], [ 8.796728785846474, 0.0 ], [ 7.96948062763218, 0.0 ], [ 7.987886310596517, 0.281049461886547 ] ] ] } },
{ "type": "Feature", "properties": { "LocationID": "a29", "c_1": 0.38386627016862601, "c_2": 0.5619922645666352, "c_3": 0.054141465264738869 }, "geometry": { "type": "Polygon", "coordinates": [ [ [ 9.13199586481525, 0.28048609870188 ], [ 9.149817165624096, 0.699378276048723 ], [ 9.989428870766019, 0.705624911763773 ], [ 10.0, 0.705420047814469 ], [ 10.0, 0.314413966120578 ], [ 9.13199586481525, 0.28048609870188 ] ] ] } },
{ "type": "Feature", "properties": { "LocationID": "a30", "c_1": 0.43734956495605432, "c_2": 0.50239178477685653, "c_3": 0.06025865026708916 }, "geometry": { "type": "Polygon", "coordinates": [ [ [ 8.655847343469421, 1.245487348301406 ], [ 9.989428870766019, 0.705624911763773 ], [ 9.149817165624096, 0.699378276048723 ], [ 8.561853862418308, 0.918897052860637 ], [ 8.655847343469421, 1.245487348301406 ] ] ] } },
{ "type": "Feature", "properties": { "LocationID": "b31", "c_1": 0.029105269005184425, "c_2": 0.16718119775766191, "c_3": 0.80371353323715367 }, "geometry": { "type": "Polygon", "coordinates": [ [ [ 6.795510348393655, 5.772577708357161 ], [ 6.931083340670411, 5.713079799906892 ], [ 6.951961297703324, 5.554435612302993 ], [ 6.408200706513377, 4.862367346521595 ], [ 5.604805178039802, 5.456647811661408 ], [ 6.795510348393655, 5.772577708357161 ] ] ] } },
{ "type": "Feature", "properties": { "LocationID": "b32", "c_1": 0.11347629766032905, "c_2": 0.29585616236986723, "c_3": 0.59066753996980381 }, "geometry": { "type": "Polygon", "coordinates": [ [ [ 3.254139680329367, 5.114477877887962 ], [ 2.614332138377262, 4.451364516686332 ], [ 2.230280720134764, 5.069322196518623 ], [ 2.213148274786503, 5.124630555674299 ], [ 2.195525100388529, 5.263825810440731 ], [ 3.254139680329367, 5.114477877887962 ] ] ] } },
{ "type": "Feature", "properties": { "LocationID": "b33", "c_1": 0.058813941258851928, "c_2": 0.23773649953923665, "c_3": 0.70344955920191143 }, "geometry": { "type": "Polygon", "coordinates": [ [ [ 2.195525100388529, 5.263825810440731 ], [ 2.213148274786503, 5.124630555674299 ], [ 1.542383552652575, 4.625592412471964 ], [ 1.357816180437747, 4.937457836512881 ], [ 2.042580194782761, 5.391984572358242 ], [ 2.137534561848696, 5.408137795229236 ], [ 2.195525100388529, 5.263825810440731 ] ] ] } },
{ "type": "Feature", "properties": { "LocationID": "c34", "c_1": 0.21124035150357595, "c_2": 0.78654921803851552, "c_3": 0.0022104304579086223 }, "geometry": { "type": "Polygon", "coordinates": [ [ [ 4.902770221104736, 9.133600802191577 ], [ 5.043419545015949, 8.937660550770246 ], [ 4.802201674856626, 8.521896064159034 ], [ 4.249450743515738, 8.423491690078921 ], [ 4.27134950733061, 9.003500205256891 ], [ 4.902770221104736, 9.133600802191577 ] ] ] } },
{ "type": "Feature", "properties": { "LocationID": "c35", "c_1": 0.18055080698458972, "c_2": 0.80827632921008707, "c_3": 0.011172863805323226 }, "geometry": { "type": "Polygon", "coordinates": [ [ [ 4.249450743515738, 8.423491690078921 ], [ 3.845095934045412, 7.804125939155812 ], [ 2.880214320904336, 8.026321215913239 ], [ 2.8777559081481, 8.690132453646832 ], [ 3.058696982319642, 9.083047774458185 ], [ 3.821792418120496, 9.393466744804646 ], [ 4.128542655888884, 9.221793987654031 ], [ 4.27134950733061, 9.003500205256891 ], [ 4.249450743515738, 8.423491690078921 ] ] ] } },
{ "type": "Feature", "properties": { "LocationID": "c36", "c_1": 0.18859218005618, "c_2": 0.80253672448494962, "c_3": 0.0088710954588704302 }, "geometry": { "type": "Polygon", "coordinates": [ [ [ 4.819115835496611, 7.699875729662154 ], [ 3.990382702564677, 7.648807137569537 ], [ 3.845095934045412, 7.804125939155812 ], [ 4.249450743515738, 8.423491690078921 ], [ 4.802201674856626, 8.521896064159034 ], [ 4.96049499908616, 8.39216168081188 ], [ 4.819115835496611, 7.699875729662154 ] ] ] } },
{ "type": "Feature", "properties": { "LocationID": "c37", "c_1": 0.20784670812606484, "c_2": 0.77870265642185743, "c_3": 0.013450635452077715 }, "geometry": { "type": "Polygon", "coordinates": [ [ [ 4.96049499908616, 8.39216168081188 ], [ 4.802201674856626, 8.521896064159034 ], [ 5.043419545015949, 8.937660550770246 ], [ 5.830462506527401, 8.741559329274967 ], [ 5.882138409847394, 8.368926306004981 ], [ 5.839275100489332, 8.227190369733291 ], [ 4.96049499908616, 8.39216168081188 ] ] ] } },
{ "type": "Feature", "properties": { "LocationID": "c38", "c_1": 0.19633502533325725, "c_2": 0.79196328816126893, "c_3": 0.011701686505473874 }, "geometry": { "type": "Polygon", "coordinates": [ [ [ 6.759053316162417, 8.46430497797817 ], [ 5.882138409847394, 8.368926306004981 ], [ 5.830462506527401, 8.741559329274967 ], [ 5.847744616759194, 8.792233689041982 ], [ 5.855737355161799, 8.800228277892865 ], [ 6.489172171608344, 9.240049858409845 ], [ 6.563871489904788, 9.188173054158247 ], [ 6.858695341860431, 8.94708723258152 ], [ 6.759053316162417, 8.46430497797817 ] ] ] } },
{ "type": "Feature", "properties": { "LocationID": "c39", "c_1": 0.20288797584954521, "c_2": 0.78080200080846174, "c_3": 0.016310023341993031 }, "geometry": { "type": "Polygon", "coordinates": [ [ [ 6.858695341860431, 8.94708723258152 ], [ 6.563871489904788, 9.188173054158247 ], [ 7.161156687751083, 9.349303690078154 ], [ 7.48819303405989, 9.048631525291878 ], [ 6.858695341860431, 8.94708723258152 ] ] ] } },
{ "type": "Feature", "properties": { "LocationID": "c40", "c_1": 0.1995525420863844, "c_2": 0.78731421908294674, "c_3": 0.013133238830668831 }, "geometry": { "type": "Polygon", "coordinates": [ [ [ 7.668107223519982, 9.013110881243193 ], [ 7.973426638914327, 9.060902828822847 ], [ 8.389343902717576, 8.626163845835626 ], [ 8.402185332868378, 8.019378176116868 ], [ 8.192832826606381, 7.828911071300885 ], [ 7.600896732565055, 8.475614107173953 ], [ 7.668084992640347, 9.013090093655094 ], [ 7.668107223519982, 9.013110881243193 ] ] ] } },
{ "type": "Feature", "properties": { "LocationID": "c41", "c_1": 0.21442047152803373, "c_2": 0.76964641588363947, "c_3": 0.015933112588326845 }, "geometry": { "type": "Polygon", "coordinates": [ [ [ 7.161156687751083, 9.349303690078154 ], [ 6.636630720348413, 10.0 ], [ 7.584399042168795, 10.0 ], [ 7.668107223519982, 9.013110881243193 ], [ 7.668084992640347, 9.013090093655094 ], [ 7.48819303405989, 9.048631525291878 ], [ 7.161156687751083, 9.349303690078154 ] ] ] } },
{ "type": "Feature", "properties": { "LocationID": "c42", "c_1": 0.18460508698764649, "c_2": 0.80272059958578923, "c_3": 0.012674313426564303 }, "geometry": { "type": "Polygon", "coordinates": [ [ [ 7.600896732565055, 8.475614107173953 ], [ 8.192832826606381, 7.828911071300885 ], [ 8.18382703610089, 7.74967284008738 ], [ 7.865803636586246, 7.317736592422693 ], [ 7.150958177614674, 7.764012942779784 ], [ 7.228554429754578, 8.269770091349852 ], [ 7.600896732565055, 8.475614107173953 ] ] ] } },
{ "type": "Feature", "properties": { "LocationID": "c43", "c_1": 0.18438835929154826, "c_2": 0.80132681264036232, "c_3": 0.014284828068089431 }, "geometry": { "type": "Polygon", "coordinates": [ [ [ 6.759053316162417, 8.46430497797817 ], [ 6.858695341860431, 8.94708723258152 ], [ 7.48819303405989, 9.048631525291878 ], [ 7.668084992640347, 9.013090093655094 ], [ 7.600896732565055, 8.475614107173953 ], [ 7.228554429754578, 8.269770091349852 ], [ 6.904906511948876, 8.357165940072633 ], [ 6.759053316162417, 8.46430497797817 ] ] ] } },
{ "type": "Feature", "properties": { "LocationID": "c44", "c_1": 0.42134067715967399, "c_2": 4.2664828554517398e-05, "c_3": 0.57861665801177142 }, "geometry": { "type": "Polygon", "coordinates": [ [ [ 7.763979949183594, 6.10060263063715 ], [ 7.64287061835794, 5.880156619214551 ], [ 7.013527447523714, 5.808130895839021 ], [ 7.087141021380592, 6.144228919367031 ], [ 7.422352060963421, 6.7741339905081 ], [ 7.760740715396678, 6.840991998957422 ], [ 7.763979949183594, 6.10060263063715 ] ] ] } },
{ "type": "Feature", "properties": { "LocationID": "b45", "c_1": 0.02855920216451599, "c_2": 0.15219313659876221, "c_3": 0.81924766123672177 }, "geometry": { "type": "Polygon", "coordinates": [ [ [ 7.888045807356446, 5.302961200596814 ], [ 7.414107468499973, 5.183527366414459 ], [ 6.951961297703324, 5.554435612302993 ], [ 6.931083340670411, 5.713079799906892 ], [ 7.013527447523714, 5.808130895839021 ], [ 7.64287061835794, 5.880156619214551 ], [ 7.888045807356446, 5.302961200596814 ] ] ] } },
{ "type": "Feature", "properties": { "LocationID": "b46", "c_1": 0.0015537347175333912, "c_2": 0.032485974132118255, "c_3": 0.96596029115034832 }, "geometry": { "type": "Polygon", "coordinates": [ [ [ 8.153399846383964, 5.885765221043591 ], [ 8.032368995882807, 5.26423014448561 ], [ 7.888045807356446, 5.302961200596814 ], [ 7.64287061835794, 5.880156619214551 ], [ 7.763979949183594, 6.10060263063715 ], [ 8.153399846383964, 5.885765221043591 ] ] ] } },
{ "type": "Feature", "properties": { "LocationID": "c47", "c_1": 0.0073371831746425562, "c_2": 0.070253416492584667, "c_3": 0.92240940033277274 }, "geometry": { "type": "Polygon", "coordinates": [ [ [ 7.773483597266886, 6.850135492007651 ], [ 8.672166349874383, 6.465445950745202 ], [ 8.696481137611485, 6.42928408856715 ], [ 8.617328983131225, 6.169082011009576 ], [ 8.153399846383964, 5.885765221043591 ], [ 7.763979949183594, 6.10060263063715 ], [ 7.760740715396678, 6.840991998957422 ], [ 7.773483597266886, 6.850135492007651 ] ] ] } },
{ "type": "Feature", "properties": { "LocationID": "a48", "c_1": 0.52135804437653677, "c_2": 0.3847889316982761, "c_3": 0.093853023925187143 }, "geometry": { "type": "Polygon", "coordinates": [ [ [ 0.342198876086045, 2.407984191623377 ], [ 0.796952470425621, 2.443672758345722 ], [ 0.010829137107897, 1.452721257374956 ], [ 0.0, 1.448731991350502 ], [ 0.0, 1.674291957079798 ], [ 0.342198876086045, 2.407984191623377 ] ] ] } },
{ "type": "Feature", "properties": { "LocationID": "b49", "c_1": 0.0028678702851783699, "c_2": 0.0087824807781698832, "c_3": 0.98834964893665178 }, "geometry": { "type": "Polygon", "coordinates": [ [ [ 1.78064210808002, 4.382553680506752 ], [ 2.127579576505528, 4.18918293774083 ], [ 1.708154267268198, 3.739964868336661 ], [ 1.336903641916557, 4.150631602446056 ], [ 1.529961921985226, 4.338658387565241 ], [ 1.78064210808002, 4.382553680506752 ] ] ] } },
{ "type": "Feature", "properties": { "LocationID": "b50", "c_1": 0.010765251764996858, "c_2": 0.053126400119753225, "c_3": 0.9361083481152499 }, "geometry": { "type": "Polygon", "coordinates": [ [ [ 2.230280720134764, 5.069322196518623 ], [ 2.614332138377262, 4.451364516686332 ], [ 2.661455147177259, 4.250953606363911 ], [ 2.127579576505528, 4.18918293774083 ], [ 1.78064210808002, 4.382553680506752 ], [ 2.230280720134764, 5.069322196518623 ] ] ] } },
{ "type": "Feature", "properties": { "LocationID": "b51", "c_1": 0.039461340103732818, "c_2": 0.12150593805795211, "c_3": 0.8390327218383149 }, "geometry": { "type": "Polygon", "coordinates": [ [ [ 1.542383552652575, 4.625592412471964 ], [ 2.213148274786503, 5.124630555674299 ], [ 2.230280720134764, 5.069322196518623 ], [ 1.78064210808002, 4.382553680506752 ], [ 1.529961921985226, 4.338658387565241 ], [ 1.542383552652575, 4.625592412471964 ] ] ] } },
{ "type": "Feature", "properties": { "LocationID": "b52", "c_1": 0.087388113973746184, "c_2": 0.15889748234901166, "c_3": 0.75371440367724218 }, "geometry": { "type": "Polygon", "coordinates": [ [ [ 0.647918882588934, 4.431429241561628 ], [ 0.665879871131595, 4.602737154839122 ], [ 0.881398688433988, 4.954015490504821 ], [ 0.889273316052891, 4.955772203800002 ], [ 1.357816180437747, 4.937457836512881 ], [ 1.542383552652575, 4.625592412471964 ], [ 1.529961921985226, 4.338658387565241 ], [ 1.336903641916557, 4.150631602446056 ], [ 0.940047048793188, 4.161788196872241 ], [ 0.647918882588934, 4.431429241561628 ] ] ] } },
{ "type": "Feature", "properties": { "LocationID": "a53", "c_1": 0.62321798659711414, "c_2": 0.25743917636534613, "c_3": 0.1193428370375397 }, "geometry": { "type": "Polygon", "coordinates": [ [ [ 0.796952470425621, 2.443672758345722 ], [ 0.342198876086045, 2.407984191623377 ], [ 0.299065715890732, 2.64053487931335 ], [ 0.54635721702821, 2.8686055838866 ], [ 0.82984611670178, 2.455830743257436 ], [ 0.796952470425621, 2.443672758345722 ] ] ] } },
{ "type": "Feature", "properties": { "LocationID": "a54", "c_1": 0.6600161331282014, "c_2": 0.21705174551185172, "c_3": 0.12293212135994691 }, "geometry": { "type": "Polygon", "coordinates": [ [ [ 1.016651605201976, 2.412238593103605 ], [ 0.899304496519044, 1.788387486262775 ], [ 0.685003432387984, 1.641956393303861 ], [ 0.010829137107897, 1.452721257374956 ], [ 0.796952470425621, 2.443672758345722 ], [ 0.82984611670178, 2.455830743257436 ], [ 1.016651605201976, 2.412238593103605 ] ] ] } },
{ "type": "Feature", "properties": { "LocationID": "c55", "c_1": 0.17853476083879638, "c_2": 0.78620372654621695, "c_3": 0.035261512614986786 }, "geometry": { "type": "Polygon", "coordinates": [ [ [ 3.990382702564677, 7.648807137569537 ], [ 4.819115835496611, 7.699875729662154 ], [ 5.483947024055352, 7.590079915154808 ], [ 5.48432765748879, 7.562444154447874 ], [ 5.440478842766004, 7.275149908175996 ], [ 4.439287041477656, 6.90403336127348 ], [ 4.429770359151068, 6.911432083759759 ], [ 4.007302085714379, 7.569740505069642 ], [ 3.990382702564677, 7.648807137569537 ] ] ] } },
{ "type": "Feature", "properties": { "LocationID": "c56", "c_1": 0.089063894558608581, "c_2": 0.72951661834523807, "c_3": 0.18141948709615333 }, "geometry": { "type": "Polygon", "coordinates": [ [ [ 3.146822710342149, 6.654513613709173 ], [ 2.168770700933555, 6.532148883876903 ], [ 2.486956366417453, 7.839533567696403 ], [ 2.834406999531348, 7.992571789441078 ], [ 3.146822710342149, 6.654513613709173 ] ] ] } },
{ "type": "Feature", "properties": { "LocationID": "b57", "c_1": 0.015907752153028032, "c_2": 0.021700560065062657, "c_3": 0.96239168778190942 }, "geometry": { "type": "Polygon", "coordinates": [ [ [ 8.978015184953817, 4.311322753586286 ], [ 9.024930141169119, 4.413771434598717 ], [ 9.566409592310007, 4.594340256027841 ], [ 9.955589432096581, 3.709020364501493 ], [ 9.137149283652098, 3.664442626034929 ], [ 8.978015184953817, 4.311322753586286 ] ] ] } },
{ "type": "Feature", "properties": { "LocationID": "b58", "c_1": 0.087228571689555209, "c_2": 0.31369844154782189, "c_3": 0.59907298676262288 }, "geometry": { "type": "Polygon", "coordinates": [ [ [ 8.745584943152693, 4.323233667508603 ], [ 8.08910342124936, 4.947935324630079 ], [ 8.113329496309413, 5.207028610792102 ], [ 8.724533081231483, 5.299424510406232 ], [ 8.836023095100568, 5.243208501313374 ], [ 8.883998434827554, 5.125782215832865 ], [ 9.024930141169119, 4.413771434598717 ], [ 8.978015184953817, 4.311322753586286 ], [ 8.745584943152693, 4.323233667508603 ] ] ] } },
{ "type": "Feature", "properties": { "LocationID": "b59", "c_1": 0.082857855211539377, "c_2": 0.27250474480015452, "c_3": 0.64463739998830616 }, "geometry": { "type": "Polygon", "coordinates": [ [ [ 9.566409592310007, 4.594340256027841 ], [ 9.024930141169119, 4.413771434598717 ], [ 8.883998434827554, 5.125782215832865 ], [ 10.0, 4.965587086477794 ], [ 10.0, 4.843242767367516 ], [ 9.566409592310007, 4.594340256027841 ] ] ] } },
{ "type": "Feature", "properties": { "LocationID": "a60", "c_1": 0.52461009454052876, "c_2": 0.234580425577716, "c_3": 0.24080947988175536 }, "geometry": { "type": "Polygon", "coordinates": [ [ [ 9.108878398939421, 3.616226982807704 ], [ 9.266820264353843, 3.108840662776183 ], [ 8.857476835022641, 2.516847687676997 ], [ 8.750374164395801, 2.506399717277911 ], [ 8.526703471260852, 2.64355271396161 ], [ 8.965305232390188, 3.552992235245885 ], [ 9.108878398939421, 3.616226982807704 ] ] ] } },
{ "type": "Feature", "properties": { "LocationID": "a61", "c_1": 0.50629091264779225, "c_2": 0.42121237570386277, "c_3": 0.072496711648345105 }, "geometry": { "type": "Polygon", "coordinates": [ [ [ 9.357363677721745, 2.261761649404154 ], [ 9.148102349019499, 1.592873225310798 ], [ 8.712732339017016, 1.471345784239164 ], [ 8.603277721284222, 1.598128872212184 ], [ 8.750374164395801, 2.506399717277911 ], [ 8.857476835022641, 2.516847687676997 ], [ 9.357363677721745, 2.261761649404154 ] ] ] } },
{ "type": "Feature", "properties": { "LocationID": "a62", "c_1": 0.95159148993739129, "c_2": 0.00039295123735905011, "c_3": 0.04801555882524966 }, "geometry": { "type": "Polygon", "coordinates": [ [ [ 9.85955077398328, 2.533009157391504 ], [ 9.357363677721745, 2.261761649404154 ], [ 8.857476835022641, 2.516847687676997 ], [ 9.266820264353843, 3.108840662776183 ], [ 9.85955077398328, 2.533009157391504 ] ] ] } },
{ "type": "Feature", "properties": { "LocationID": "a63", "c_1": 0.26775820633666381, "c_2": 0.067698952091037073, "c_3": 0.66454284157229915 }, "geometry": { "type": "Polygon", "coordinates": [ [ [ 9.137149283652098, 3.664442626034929 ], [ 9.955589432096581, 3.709020364501493 ], [ 10.0, 3.705740786269256 ], [ 10.0, 2.523585155928101 ], [ 9.85955077398328, 2.533009157391504 ], [ 9.266820264353843, 3.108840662776183 ], [ 9.108878398939421, 3.616226982807704 ], [ 9.137149283652098, 3.664442626034929 ] ] ] } },
{ "type": "Feature", "properties": { "LocationID": "b64", "c_1": 0.081913685645085527, "c_2": 0.3783154561281255, "c_3": 0.53977085822678905 }, "geometry": { "type": "Polygon", "coordinates": [ [ [ 6.56234225518635, 4.545149750433547 ], [ 6.441289088460495, 4.752837288734785 ], [ 6.408200706513377, 4.862367346521595 ], [ 6.951961297703324, 5.554435612302993 ], [ 7.414107468499973, 5.183527366414459 ], [ 7.182965065669899, 4.366868567463992 ], [ 6.56234225518635, 4.545149750433547 ] ] ] } },
{ "type": "Feature", "properties": { "LocationID": "b65", "c_1": 0.053141536142007367, "c_2": 0.1252005437722053, "c_3": 0.82165792008578731 }, "geometry": { "type": "Polygon", "coordinates": [ [ [ 7.182965065669899, 4.366868567463992 ], [ 7.414107468499973, 5.183527366414459 ], [ 7.888045807356446, 5.302961200596814 ], [ 8.032368995882807, 5.26423014448561 ], [ 8.113329496309413, 5.207028610792102 ], [ 8.08910342124936, 4.947935324630079 ], [ 7.875437344793021, 4.431572854463543 ], [ 7.383144275741302, 4.151629735600325 ], [ 7.182965065669899, 4.366868567463992 ] ] ] } },
{ "type": "Feature", "properties": { "LocationID": "b66", "c_1": 0.00059843402016821867, "c_2": 0.012155409701469994, "c_3": 0.98724615627836187 }, "geometry": { "type": "Polygon", "coordinates": [ [ [ 6.441289088460495, 4.752837288734785 ], [ 6.56234225518635, 4.545149750433547 ], [ 6.105705340700685, 3.844205287778979 ], [ 6.016643380544942, 3.872731771114581 ], [ 5.654270906451381, 4.00308404332662 ], [ 5.417218089175462, 4.352535366772294 ], [ 5.417232078267202, 4.352570268884151 ], [ 6.441289088460495, 4.752837288734785 ] ] ] } },
{ "type": "Feature", "properties": { "LocationID": "b67", "c_1": 0.10981834663474797, "c_2": 0.24415918286450952, "c_3": 0.64602247050074246 }, "geometry": { "type": "Polygon", "coordinates": [ [ [ 2.973906178108246, 4.248308119405649 ], [ 2.66222035764215, 4.249978295537498 ], [ 2.661455147177259, 4.250953606363911 ], [ 2.614332138377262, 4.451364516686332 ], [ 3.254139680329367, 5.114477877887962 ], [ 3.363916632026843, 5.152904549481994 ], [ 3.480167137725767, 4.450245184769783 ], [ 2.973906178108246, 4.248308119405649 ] ] ] } },
{ "type": "Feature", "properties": { "LocationID": "c68", "c_1": 0.010761234810543906, "c_2": 0.080979106495672054, "c_3": 0.90825965869378411 }, "geometry": { "type": "Polygon", "coordinates": [ [ [ 3.645430646223867, 5.814927385799475 ], [ 2.224783651891398, 5.699930960034445 ], [ 2.073912139554065, 6.266643541823762 ], [ 2.067425791775223, 6.337289439696499 ], [ 2.102394947529641, 6.384604652690773 ], [ 3.435025933509878, 6.279248884705789 ], [ 3.48374871184375, 6.243489088698551 ], [ 3.633773074325408, 5.879050625203546 ], [ 3.645430646223867, 5.814927385799475 ] ] ] } },
{ "type": "Feature", "properties": { "LocationID": "b69", "c_1": 0.01792226655701629, "c_2": 0.14975802889617251, "c_3": 0.83231970454681115 }, "geometry": { "type": "Polygon", "coordinates": [ [ [ 3.730845316031703, 5.707016527230086 ], [ 3.363916632026843, 5.152904549481994 ], [ 3.254139680329367, 5.114477877887962 ], [ 2.195525100388529, 5.263825810440731 ], [ 2.137534561848696, 5.408137795229236 ], [ 2.224783651891398, 5.699930960034445 ], [ 3.645430646223867, 5.814927385799475 ], [ 3.730845316031703, 5.707016527230086 ] ] ] } },
{ "type": "Feature", "properties": { "LocationID": "b70", "c_1": 0.00077695977576423521, "c_2": 0.031185856872131164, "c_3": 0.96803718335210465 }, "geometry": { "type": "Polygon", "coordinates": [ [ [ 2.224783651891398, 5.699930960034445 ], [ 2.137534561848696, 5.408137795229236 ], [ 2.042580194782761, 5.391984572358242 ], [ 1.442148403907218, 5.495860590094098 ], [ 1.110845526299099, 5.753553305548238 ], [ 2.073912139554065, 6.266643541823762 ], [ 2.224783651891398, 5.699930960034445 ] ] ] } },
{ "type": "Feature", "properties": { "LocationID": "c71", "c_1": 0.012882895732171067, "c_2": 0.12078491857650353, "c_3": 0.86633218569132542 }, "geometry": { "type": "Polygon", "coordinates": [ [ [ 2.073912139554065, 6.266643541823762 ], [ 1.110845526299099, 5.753553305548238 ], [ 0.859767060059045, 5.822129170815479 ], [ 1.480315450535606, 6.532621685193768 ], [ 2.067425791775223, 6.337289439696499 ], [ 2.073912139554065, 6.266643541823762 ] ] ] } },
{ "type": "Feature", "properties": { "LocationID": "c72", "c_1": 0.037137862582068457, "c_2": 0.28683956301975522, "c_3": 0.67602257439817637 }, "geometry": { "type": "Polygon", "coordinates": [ [ [ 2.102394947529641, 6.384604652690773 ], [ 2.168770700933555, 6.532148883876903 ], [ 3.146822710342149, 6.654513613709173 ], [ 3.435025933509878, 6.279248884705789 ], [ 2.102394947529641, 6.384604652690773 ] ] ] } },
{ "type": "Feature", "properties": { "LocationID": "c73", "c_1": 0.10933499954462809, "c_2": 0.79497893754665694, "c_3": 0.095686062908715022 }, "geometry": { "type": "Polygon", "coordinates": [ [ [ 3.435025933509878, 6.279248884705789 ], [ 3.146822710342149, 6.654513613709173 ], [ 2.834406999531348, 7.992571789441078 ], [ 2.880214320904336, 8.026321215913239 ], [ 3.845095934045412, 7.804125939155812 ], [ 3.990382702564677, 7.648807137569537 ], [ 4.007302085714379, 7.569740505069642 ], [ 3.48374871184375, 6.243489088698551 ], [ 3.435025933509878, 6.279248884705789 ] ] ] } },
{ "type": "Feature", "properties": { "LocationID": "c74", "c_1": 0.069735211515420475, "c_2": 0.44842149613537396, "c_3": 0.48184329234920559 }, "geometry": { "type": "Polygon", "coordinates": [ [ [ 3.48374871184375, 6.243489088698551 ], [ 4.007302085714379, 7.569740505069642 ], [ 4.429770359151068, 6.911432083759759 ], [ 3.633773074325408, 5.879050625203546 ], [ 3.48374871184375, 6.243489088698551 ] ] ] } },
{ "type": "Feature", "properties": { "LocationID": "c75", "c_1": 0.42951022158323765, "c_2": 0.52362468037317944, "c_3": 0.046865098043582992 }, "geometry": { "type": "Polygon", "coordinates": [ [ [ 4.902770221104736, 9.133600802191577 ], [ 4.27134950733061, 9.003500205256891 ], [ 4.128542655888884, 9.221793987654031 ], [ 4.186448288574838, 9.274961496691981 ], [ 5.006842872609383, 9.719001072654976 ], [ 4.902770221104736, 9.133600802191577 ] ] ] } },
{ "type": "Feature", "properties": { "LocationID": "c76", "c_1": 0.22461685960440833, "c_2": 0.76154422309542491, "c_3": 0.013838917300166695 }, "geometry": { "type": "Polygon", "coordinates": [ [ [ 5.121573159558802, 9.982362182410613 ], [ 5.416900292228334, 9.635461875494427 ], [ 5.847744616759194, 8.792233689041982 ], [ 5.830462506527401, 8.741559329274967 ], [ 5.043419545015949, 8.937660550770246 ], [ 4.902770221104736, 9.133600802191577 ], [ 5.006842872609383, 9.719001072654976 ], [ 5.121573159558802, 9.982362182410613 ] ] ] } },
{ "type": "Feature", "properties": { "LocationID": "c77", "c_1": 0.89667140557320646, "c_2": 0.060464816414731302, "c_3": 0.04286377801206219 }, "geometry": { "type": "Polygon", "coordinates": [ [ [ 5.797272704736517, 9.617158843138943 ], [ 6.076360893890979, 9.706335303976266 ], [ 5.953325167152632, 9.439544220936741 ], [ 5.797272704736517, 9.617158843138943 ] ] ] } },
{ "type": "Feature", "properties": { "LocationID": "c78", "c_1": 0.23047903622349245, "c_2": 0.75389980841797721, "c_3": 0.015621155358530359 }, "geometry": { "type": "Polygon", "coordinates": [ [ [ 6.489172171608344, 9.240049858409845 ], [ 5.855737355161799, 8.800228277892865 ], [ 5.953325167152632, 9.439544220936741 ], [ 6.076360893890979, 9.706335303976266 ], [ 6.368027197662893, 10.0 ], [ 6.62290870591676, 10.0 ], [ 6.489172171608344, 9.240049858409845 ] ] ] } },
{ "type": "Feature", "properties": { "LocationID": "c79", "c_1": 0.22743724509996208, "c_2": 0.75941328809881525, "c_3": 0.013149466801222595 }, "geometry": { "type": "Polygon", "coordinates": [ [ [ 5.855737355161799, 8.800228277892865 ], [ 5.847744616759194, 8.792233689041982 ], [ 5.416900292228334, 9.635461875494427 ], [ 5.797272704736517, 9.617158843138943 ], [ 5.953325167152632, 9.439544220936741 ], [ 5.855737355161799, 8.800228277892865 ] ] ] } },
{ "type": "Feature", "properties": { "LocationID": "c80", "c_1": 0.60338150081966924, "c_2": 0.011044508742673384, "c_3": 0.38557399043765744 }, "geometry": { "type": "Polygon", "coordinates": [ [ [ 6.436211097915345, 6.727554168916598 ], [ 7.066846866203315, 6.157260373105591 ], [ 6.264089566062848, 6.536529063778471 ], [ 6.386760850487533, 6.687519912001577 ], [ 6.436211097915345, 6.727554168916598 ] ] ] } },
{ "type": "Feature", "properties": { "LocationID": "c81", "c_1": 0.048934323886338782, "c_2": 0.31084205836335843, "c_3": 0.6402236177503029 }, "geometry": { "type": "Polygon", "coordinates": [ [ [ 7.066846866203315, 6.157260373105591 ], [ 7.087141021380592, 6.144228919367031 ], [ 7.013527447523714, 5.808130895839021 ], [ 6.931083340670411, 5.713079799906892 ], [ 6.795510348393655, 5.772577708357161 ], [ 6.172749463582369, 6.442940495828864 ], [ 6.264089566062848, 6.536529063778471 ], [ 7.066846866203315, 6.157260373105591 ] ] ] } },
{ "type": "Feature", "properties": { "LocationID": "c82", "c_1": 0.083227235809877426, "c_2": 0.5041524364970007, "c_3": 0.41262032769312196 }, "geometry": { "type": "Polygon", "coordinates": [ [ [ 6.264089566062848, 6.536529063778471 ], [ 6.172749463582369, 6.442940495828864 ], [ 5.500595751517436, 6.234094123446905 ], [ 5.440478842766004, 7.275149908175996 ], [ 5.48432765748879, 7.562444154447874 ], [ 6.020458726155366, 7.12803990017234 ], [ 6.386760850487533, 6.687519912001577 ], [ 6.264089566062848, 6.536529063778471 ] ] ] } },
{ "type": "Feature", "properties": { "LocationID": "c83", "c_1": 0.196124959058919, "c_2": 0.78910163710471637, "c_3": 0.014773403836364638 }, "geometry": { "type": "Polygon", "coordinates": [ [ [ 5.839275100489332, 8.227190369733291 ], [ 5.882138409847394, 8.368926306004981 ], [ 6.759053316162417, 8.46430497797817 ], [ 6.904906511948876, 8.357165940072633 ], [ 6.691703179399889, 7.92077384815244 ], [ 5.838977113007685, 8.21773425861503 ], [ 5.839275100489332, 8.227190369733291 ] ] ] } },
{ "type": "Feature", "properties": { "LocationID": "c84", "c_1": 0.21518160934405478, "c_2": 0.76578710604071643, "c_3": 0.019031284615228797 }, "geometry": { "type": "Polygon", "coordinates": [ [ [ 5.762723629266699, 7.904262121500215 ], [ 5.483947024055352, 7.590079915154808 ], [ 4.819115835496611, 7.699875729662154 ], [ 4.96049499908616, 8.39216168081188 ], [ 5.839275100489332, 8.227190369733291 ], [ 5.838977113007685, 8.21773425861503 ], [ 5.762723629266699, 7.904262121500215 ] ] ] } },
{ "type": "Feature", "properties": { "LocationID": "c85", "c_1": 0.17437984550868013, "c_2": 0.81399671540769414, "c_3": 0.01162343908362568 }, "geometry": { "type": "Polygon", "coordinates": [ [ [ 6.020458726155366, 7.12803990017234 ], [ 5.48432765748879, 7.562444154447874 ], [ 5.483947024055352, 7.590079915154808 ], [ 5.762723629266699, 7.904262121500215 ], [ 6.46892060331734, 7.397870781235767 ], [ 6.020458726155366, 7.12803990017234 ] ] ] } },
{ "type": "Feature", "properties": { "LocationID": "a86", "c_1": 0.56064208100437007, "c_2": 0.2275029967125631, "c_3": 0.21185492228306688 }, "geometry": { "type": "Polygon", "coordinates": [ [ [ 0.682708965090371, 3.261535929836671 ], [ 0.605744556378021, 3.159686646164783 ], [ 0.0, 3.028752611713527 ], [ 0.0, 3.70989790364343 ], [ 0.682708965090371, 3.261535929836671 ] ] ] } },
{ "type": "Feature", "properties": { "LocationID": "a87", "c_1": 0.43025803915813599, "c_2": 0.18962011774060206, "c_3": 0.38012184310126207 }, "geometry": { "type": "Polygon", "coordinates": [ [ [ 0.647918882588934, 4.431429241561628 ], [ 0.940047048793188, 4.161788196872241 ], [ 0.852811745367829, 3.322756154371547 ], [ 0.682708965090371, 3.261535929836671 ], [ 0.0, 3.70989790364343 ], [ 0.0, 4.155557729918471 ], [ 0.647918882588934, 4.431429241561628 ] ] ] } },
{ "type": "Feature", "properties": { "LocationID": "a88", "c_1": 0.92509587562564355, "c_2": 0.00033817612340745942, "c_3": 0.074565948250948949 }, "geometry": { "type": "Polygon", "coordinates": [ [ [ 0.54635721702821, 2.8686055838866 ], [ 0.299065715890732, 2.64053487931335 ], [ 0.0, 2.756977154809287 ], [ 0.0, 3.028752611713527 ], [ 0.605744556378021, 3.159686646164783 ], [ 0.54635721702821, 2.8686055838866 ] ] ] } },
{ "type": "Feature", "properties": { "LocationID": "c89", "c_1": 0.15659182068956612, "c_2": 0.83053383128469493, "c_3": 0.012874348025738901 }, "geometry": { "type": "Polygon", "coordinates": [ [ [ 1.446455732361328, 8.354149193094887 ], [ 1.382492144472196, 8.638022786403251 ], [ 2.115351922114266, 9.203274122450763 ], [ 2.8777559081481, 8.690132453646832 ], [ 2.880214320904336, 8.026321215913239 ], [ 2.834406999531348, 7.992571789441078 ], [ 2.486956366417453, 7.839533567696403 ], [ 1.911985717011113, 7.921488959379876 ], [ 1.446455732361328, 8.354149193094887 ] ] ] } },
{ "type": "Feature", "properties": { "LocationID": "c90", "c_1": 0.068390974480295907, "c_2": 0.76182922150224064, "c_3": 0.1697798040174634 }, "geometry": { "type": "Polygon", "coordinates": [ [ [ 1.502213517260754, 7.580951285259793 ], [ 1.911985717011113, 7.921488959379876 ], [ 2.486956366417453, 7.839533567696403 ], [ 2.168770700933555, 6.532148883876903 ], [ 2.102394947529641, 6.384604652690773 ], [ 2.067425791775223, 6.337289439696499 ], [ 1.480315450535606, 6.532621685193768 ], [ 1.422947851671853, 6.586238050846616 ], [ 1.383949055802873, 7.130669783424821 ], [ 1.502213517260754, 7.580951285259793 ] ] ] } },
{ "type": "Feature", "properties": { "LocationID": "a91", "c_1": 0.58829351468858859, "c_2": 0.32710138980084746, "c_3": 0.084605095510563944 }, "geometry": { "type": "Polygon", "coordinates": [ [ [ 7.69138146337449, 2.037751010707187 ], [ 8.603277721284222, 1.598128872212184 ], [ 8.712732339017016, 1.471345784239164 ], [ 8.655847343469421, 1.245487348301406 ], [ 8.561853862418308, 0.918897052860637 ], [ 7.992839563123691, 0.290090410241147 ], [ 7.635235328866136, 2.0003990367448 ], [ 7.69138146337449, 2.037751010707187 ] ] ] } },
{ "type": "Feature", "properties": { "LocationID": "c92", "c_1": 0.0084428379425413938, "c_2": 0.064750576901058246, "c_3": 0.92680658515640035 }, "geometry": { "type": "Polygon", "coordinates": [ [ [ 3.730845316031703, 5.707016527230086 ], [ 3.645430646223867, 5.814927385799475 ], [ 3.633773074325408, 5.879050625203546 ], [ 4.429770359151068, 6.911432083759759 ], [ 4.439287041477656, 6.90403336127348 ], [ 5.086979100713772, 6.09726486831462 ], [ 3.752879624197228, 5.699440984312465 ], [ 3.730845316031703, 5.707016527230086 ] ] ] } },
{ "type": "Feature", "properties": { "LocationID": "c93", "c_1": 0.097066207177691793, "c_2": 0.5707719773196559, "c_3": 0.33216181550265239 }, "geometry": { "type": "Polygon", "coordinates": [ [ [ 5.086979100713772, 6.09726486831462 ], [ 4.439287041477656, 6.90403336127348 ], [ 5.440478842766004, 7.275149908175996 ], [ 5.500595751517436, 6.234094123446905 ], [ 5.339533340148543, 6.037113693229759 ], [ 5.086979100713772, 6.09726486831462 ] ] ] } },
{ "type": "Feature", "properties": { "LocationID": "a94", "c_1": 0.0043550886327222427, "c_2": 0.016628320917102212, "c_3": 0.97901659045017564 }, "geometry": { "type": "Polygon", "coordinates": [ [ [ 1.826343849634681, 3.376846714697226 ], [ 1.708154267268198, 3.739964868336661 ], [ 2.127579576505528, 4.18918293774083 ], [ 2.661455147177259, 4.250953606363911 ], [ 2.66222035764215, 4.249978295537498 ], [ 2.627086866846713, 3.965653041463796 ], [ 1.997776058242596, 3.320047067401195 ], [ 1.826343849634681, 3.376846714697226 ] ] ] } },
{ "type": "Feature", "properties": { "LocationID": "c95", "c_1": 0.25077856156684553, "c_2": 0.73231437455677584, "c_3": 0.016907063876378647 }, "geometry": { "type": "Polygon", "coordinates": [ [ [ 4.191475387636901, 9.284065424017937 ], [ 4.491867532501923, 10.0 ], [ 4.736058524478274, 10.0 ], [ 4.191475387636901, 9.284065424017937 ] ] ] } },
{ "type": "Feature", "properties": { "LocationID": "c96", "c_1": 0.25545058130207543, "c_2": 0.72487044388990529, "c_3": 0.01967897480801931 }, "geometry": { "type": "Polygon", "coordinates": [ [ [ 6.076360893890979, 9.706335303976266 ], [ 5.797272704736517, 9.617158843138943 ], [ 5.416900292228334, 9.635461875494427 ], [ 5.121573159558802, 9.982362182410613 ], [ 5.119768051784942, 10.0 ], [ 6.368027197662893, 10.0 ], [ 6.076360893890979, 9.706335303976266 ] ] ] } },
{ "type": "Feature", "properties": { "LocationID": "c97", "c_1": 0.21824438842468175, "c_2": 0.7704693857001419, "c_3": 0.011286225875176369 }, "geometry": { "type": "Polygon", "coordinates": [ [ [ 4.186448288574838, 9.274961496691981 ], [ 4.128542655888884, 9.221793987654031 ], [ 3.821792418120496, 9.393466744804646 ], [ 3.907093564360953, 10.0 ], [ 4.491867532501923, 10.0 ], [ 4.191475387636901, 9.284065424017937 ], [ 4.186448288574838, 9.274961496691981 ] ] ] } },
{ "type": "Feature", "properties": { "LocationID": "c98", "c_1": 0.23500019535847766, "c_2": 0.75927283609626928, "c_3": 0.0057269685452529841 }, "geometry": { "type": "Polygon", "coordinates": [ [ [ 5.121573159558802, 9.982362182410613 ], [ 5.006842872609383, 9.719001072654976 ], [ 4.186448288574838, 9.274961496691981 ], [ 4.191475387636901, 9.284065424017937 ], [ 4.736058524478274, 10.0 ], [ 5.119768051784942, 10.0 ], [ 5.121573159558802, 9.982362182410613 ] ] ] } },
{ "type": "Feature", "properties": { "LocationID": "c99", "c_1": 0.15342699883136929, "c_2": 0.78625561991193438, "c_3": 0.060317381256696334 }, "geometry": { "type": "Polygon", "coordinates": [ [ [ 6.518015877518473, 7.36675885628653 ], [ 6.855261821914038, 7.642853876776519 ], [ 6.916620002454817, 7.649005591659025 ], [ 7.309500887815904, 6.809064755622545 ], [ 6.594692648915395, 6.877475634488887 ], [ 6.518015877518473, 7.36675885628653 ] ] ] } },
{ "type": "Feature", "properties": { "LocationID": "c100", "c_1": 0.95768806282767982, "c_2": 0.01038099077474125, "c_3": 0.031930946397578965 }, "geometry": { "type": "Polygon", "coordinates": [ [ [ 6.691703179399889, 7.92077384815244 ], [ 6.904906511948876, 8.357165940072633 ], [ 7.228554429754578, 8.269770091349852 ], [ 7.150958177614674, 7.764012942779784 ], [ 6.916620002454817, 7.649005591659025 ], [ 6.855261821914038, 7.642853876776519 ], [ 6.691703179399889, 7.92077384815244 ] ] ] } },
{ "type": "Feature", "properties": { "LocationID": "c101", "c_1": 0.16058611596095462, "c_2": 0.75683074919431537, "c_3": 0.082583134844729997 }, "geometry": { "type": "Polygon", "coordinates": [ [ [ 6.916620002454817, 7.649005591659025 ], [ 7.150958177614674, 7.764012942779784 ], [ 7.865803636586246, 7.317736592422693 ], [ 7.773483597266886, 6.850135492007651 ], [ 7.760740715396678, 6.840991998957422 ], [ 7.422352060963421, 6.7741339905081 ], [ 7.309500887815904, 6.809064755622545 ], [ 6.916620002454817, 7.649005591659025 ] ] ] } },
{ "type": "Feature", "properties": { "LocationID": "c102", "c_1": 0.1800135822061705, "c_2": 0.80912158162646131, "c_3": 0.010864836167368205 }, "geometry": { "type": "Polygon", "coordinates": [ [ [ 6.46892060331734, 7.397870781235767 ], [ 5.762723629266699, 7.904262121500215 ], [ 5.838977113007685, 8.21773425861503 ], [ 6.691703179399889, 7.92077384815244 ], [ 6.855261821914038, 7.642853876776519 ], [ 6.518015877518473, 7.36675885628653 ], [ 6.46892060331734, 7.397870781235767 ] ] ] } },
{ "type": "Feature", "properties": { "LocationID": "c103", "c_1": 0.1360295259614831, "c_2": 0.73906430016610203, "c_3": 0.12490617387241498 }, "geometry": { "type": "Polygon", "coordinates": [ [ [ 6.436211097915345, 6.727554168916598 ], [ 6.386760850487533, 6.687519912001577 ], [ 6.020458726155366, 7.12803990017234 ], [ 6.46892060331734, 7.397870781235767 ], [ 6.518015877518473, 7.36675885628653 ], [ 6.594692648915395, 6.877475634488887 ], [ 6.436211097915345, 6.727554168916598 ] ] ] } },
{ "type": "Feature", "properties": { "LocationID": "c104", "c_1": 0.12395932608785584, "c_2": 0.65359144021424498, "c_3": 0.22244923369789918 }, "geometry": { "type": "Polygon", "coordinates": [ [ [ 7.309500887815904, 6.809064755622545 ], [ 7.422352060963421, 6.7741339905081 ], [ 7.087141021380592, 6.144228919367031 ], [ 7.066846866203315, 6.157260373105591 ], [ 6.436211097915345, 6.727554168916598 ], [ 6.594692648915395, 6.877475634488887 ], [ 7.309500887815904, 6.809064755622545 ] ] ] } },
{ "type": "Feature", "properties": { "LocationID": "c105", "c_1": 0.11522787546035199, "c_2": 0.8586208778625497, "c_3": 0.026151246677098366 }, "geometry": { "type": "Polygon", "coordinates": [ [ [ 0.873368820745462, 7.489580435987961 ], [ 0.663211452876679, 7.309246465769744 ], [ 0.616227300520548, 7.329880793645818 ], [ 0.071221224985093, 8.121414273162216 ], [ 0.674637472162176, 8.17758252771044 ], [ 0.713366843811505, 8.168362163494983 ], [ 0.873368820745462, 7.489580435987961 ] ] ] } },
{ "type": "Feature", "properties": { "LocationID": "c106", "c_1": 0.12135554708964773, "c_2": 0.8668683335243208, "c_3": 0.011776119386031512 }, "geometry": { "type": "Polygon", "coordinates": [ [ [ 1.446455732361328, 8.354149193094887 ], [ 1.911985717011113, 7.921488959379876 ], [ 1.502213517260754, 7.580951285259793 ], [ 0.873368820745462, 7.489580435987961 ], [ 0.713366843811505, 8.168362163494983 ], [ 1.446455732361328, 8.354149193094887 ] ] ] } },
{ "type": "Feature", "properties": { "LocationID": "c107", "c_1": 0.10497481336194979, "c_2": 0.87095424108423014, "c_3": 0.024070945553820101 }, "geometry": { "type": "Polygon", "coordinates": [ [ [ 0.873368820745462, 7.489580435987961 ], [ 1.502213517260754, 7.580951285259793 ], [ 1.383949055802873, 7.130669783424821 ], [ 0.709639507905208, 7.034830970483617 ], [ 0.663211452876679, 7.309246465769744 ], [ 0.873368820745462, 7.489580435987961 ] ] ] } },
{ "type": "Feature", "properties": { "LocationID": "c108", "c_1": 0.12606015376734198, "c_2": 0.84439659122551558, "c_3": 0.029543255007142544 }, "geometry": { "type": "Polygon", "coordinates": [ [ [ 0.071221224985093, 8.121414273162216 ], [ 0.616227300520548, 7.329880793645818 ], [ 0.0, 7.226576194660039 ], [ 0.0, 8.141064233625023 ], [ 0.071221224985093, 8.121414273162216 ] ] ] } },
{ "type": "Feature", "properties": { "LocationID": "c109", "c_1": 0.14056312710557101, "c_2": 0.85706040029955666, "c_3": 0.002376472594872346 }, "geometry": { "type": "Polygon", "coordinates": [ [ [ 0.205232426510948, 8.919407492426885 ], [ 0.66189107525502, 8.913196825745375 ], [ 0.674637472162176, 8.17758252771044 ], [ 0.071221224985093, 8.121414273162216 ], [ 0.0, 8.141064233625023 ], [ 0.0, 8.877696445151358 ], [ 0.205232426510948, 8.919407492426885 ] ] ] } },
{ "type": "Feature", "properties": { "LocationID": "c110", "c_1": 0.16473895286913079, "c_2": 0.81624941581527188, "c_3": 0.019011631315597306 }, "geometry": { "type": "Polygon", "coordinates": [ [ [ 0.674637472162176, 8.17758252771044 ], [ 0.66189107525502, 8.913196825745375 ], [ 0.812428270868526, 8.974787250708886 ], [ 1.216072994364153, 8.929013590596977 ], [ 1.382492144472196, 8.638022786403251 ], [ 1.446455732361328, 8.354149193094887 ], [ 0.713366843811505, 8.168362163494983 ], [ 0.674637472162176, 8.17758252771044 ] ] ] } },
{ "type": "Feature", "properties": { "LocationID": "a111", "c_1": 0.35129247331571545, "c_2": 0.28854801269102631, "c_3": 0.3601595139932583 }, "geometry": { "type": "Polygon", "coordinates": [ [ [ 8.199759619697215, 3.468369310262035 ], [ 8.520949677836052, 2.644042854979632 ], [ 7.816650082782927, 2.438415427672858 ], [ 7.482525195197802, 3.443452678945012 ], [ 8.050863570755686, 3.499513414024004 ], [ 8.199759619697215, 3.468369310262035 ] ] ] } },
{ "type": "Feature", "properties": { "LocationID": "a112", "c_1": 0.30504467145117048, "c_2": 0.234494065213917, "c_3": 0.46046126333491255 }, "geometry": { "type": "Polygon", "coordinates": [ [ [ 8.965305232390188, 3.552992235245885 ], [ 8.526703471260852, 2.64355271396161 ], [ 8.520949677836052, 2.644042854979632 ], [ 8.199759619697215, 3.468369310262035 ], [ 8.965305232390188, 3.552992235245885 ] ] ] } },
{ "type": "Feature", "properties": { "LocationID": "a113", "c_1": 0.58480835419498578, "c_2": 0.34591178919249099, "c_3": 0.069279856612523158 }, "geometry": { "type": "Polygon", "coordinates": [ [ [ 8.520949677836052, 2.644042854979632 ], [ 8.526703471260852, 2.64355271396161 ], [ 8.750374164395801, 2.506399717277911 ], [ 8.603277721284222, 1.598128872212184 ], [ 7.69138146337449, 2.037751010707187 ], [ 7.816650082782927, 2.438415427672858 ], [ 8.520949677836052, 2.644042854979632 ] ] ] } },
{ "type": "Feature", "properties": { "LocationID": "a114", "c_1": 0.0026909709466544527, "c_2": 0.012625552490346763, "c_3": 0.98468347656299882 }, "geometry": { "type": "Polygon", "coordinates": [ [ [ 7.482525195197802, 3.443452678945012 ], [ 7.456779765893949, 3.460342911471568 ], [ 7.383144275741302, 4.151629735600325 ], [ 7.875437344793021, 4.431572854463543 ], [ 8.394295336485429, 4.253964522755213 ], [ 8.050863570755686, 3.499513414024004 ], [ 7.482525195197802, 3.443452678945012 ] ] ] } },
{ "type": "Feature", "properties": { "LocationID": "a115", "c_1": 0.042134246243045723, "c_2": 0.058665161671673141, "c_3": 0.89920059208528114 }, "geometry": { "type": "Polygon", "coordinates": [ [ [ 8.394295336485429, 4.253964522755213 ], [ 8.745584943152693, 4.323233667508603 ], [ 8.978015184953817, 4.311322753586286 ], [ 9.137149283652098, 3.664442626034929 ], [ 9.108878398939421, 3.616226982807704 ], [ 8.965305232390188, 3.552992235245885 ], [ 8.199759619697215, 3.468369310262035 ], [ 8.050863570755686, 3.499513414024004 ], [ 8.394295336485429, 4.253964522755213 ] ] ] } },
{ "type": "Feature", "properties": { "LocationID": "a116", "c_1": 0.4852889271908884, "c_2": 0.45856554395615523, "c_3": 0.056145528852956393 }, "geometry": { "type": "Polygon", "coordinates": [ [ [ 7.635235328866136, 2.0003990367448 ], [ 7.992839563123691, 0.290090410241147 ], [ 7.987886310596517, 0.281049461886547 ], [ 7.462390740037583, 0.725891715126645 ], [ 7.036219085692303, 1.615162192845114 ], [ 7.485505379728794, 1.959697307009101 ], [ 7.635235328866136, 2.0003990367448 ] ] ] } },
{ "type": "Feature", "properties": { "LocationID": "b117", "c_1": 0.087370947439650626, "c_2": 0.27198655653928278, "c_3": 0.6406424960210666 }, "geometry": { "type": "Polygon", "coordinates": [ [ [ 4.319287786958997, 4.555706073312491 ], [ 4.289883458677566, 4.88164159432588 ], [ 5.451743728924686, 5.611120991591505 ], [ 5.528355396755305, 5.48944600815175 ], [ 5.523427404618429, 5.470912631158352 ], [ 4.573650428804931, 4.368055732506903 ], [ 4.319287786958997, 4.555706073312491 ] ] ] } },
{ "type": "Feature", "properties": { "LocationID": "b118", "c_1": 0.010280464263641775, "c_2": 0.087377741288527641, "c_3": 0.90234179444783058 }, "geometry": { "type": "Polygon", "coordinates": [ [ [ 3.752879624197228, 5.699440984312465 ], [ 5.086979100713772, 6.09726486831462 ], [ 5.339533340148543, 6.037113693229759 ], [ 5.451743728924686, 5.611120991591505 ], [ 4.289883458677566, 4.88164159432588 ], [ 3.752879624197228, 5.699440984312465 ] ] ] } },
{ "type": "Feature", "properties": { "LocationID": "b119", "c_1": 0.0018325117314526328, "c_2": 0.043077581724630894, "c_3": 0.95508990654391646 }, "geometry": { "type": "Polygon", "coordinates": [ [ [ 5.451743728924686, 5.611120991591505 ], [ 5.339533340148543, 6.037113693229759 ], [ 5.500595751517436, 6.234094123446905 ], [ 6.172749463582369, 6.442940495828864 ], [ 6.795510348393655, 5.772577708357161 ], [ 5.604805178039802, 5.456647811661408 ], [ 5.528355396755305, 5.48944600815175 ], [ 5.451743728924686, 5.611120991591505 ] ] ] } },
{ "type": "Feature", "properties": { "LocationID": "b120", "c_1": 0.059995494278674948, "c_2": 0.21290256855283368, "c_3": 0.72710193716849136 }, "geometry": { "type": "Polygon", "coordinates": [ [ [ 5.528355396755305, 5.48944600815175 ], [ 5.604805178039802, 5.456647811661408 ], [ 6.408200706513377, 4.862367346521595 ], [ 6.441289088460495, 4.752837288734785 ], [ 5.417232078267202, 4.352570268884151 ], [ 5.523427404618429, 5.470912631158352 ], [ 5.528355396755305, 5.48944600815175 ] ] ] } },
{ "type": "Feature", "properties": { "LocationID": "b121", "c_1": 0.095350480683720762, "c_2": 0.29510848422521313, "c_3": 0.60954103509106616 }, "geometry": { "type": "Polygon", "coordinates": [ [ [ 5.523427404618429, 5.470912631158352 ], [ 5.417232078267202, 4.352570268884151 ], [ 5.417218089175462, 4.352535366772294 ], [ 4.669668453115085, 4.255785447212111 ], [ 4.573650428804931, 4.368055732506903 ], [ 5.523427404618429, 5.470912631158352 ] ] ] } },
{ "type": "Feature", "properties": { "LocationID": "b122", "c_1": 0.03385150842671631, "c_2": 0.14081331859886684, "c_3": 0.82533517297441683 }, "geometry": { "type": "Polygon", "coordinates": [ [ [ 3.81858042441277, 4.323797897374774 ], [ 3.480167137725767, 4.450245184769783 ], [ 3.363916632026843, 5.152904549481994 ], [ 3.730845316031703, 5.707016527230086 ], [ 3.752879624197228, 5.699440984312465 ], [ 4.289883458677566, 4.88164159432588 ], [ 4.319287786958997, 4.555706073312491 ], [ 3.81858042441277, 4.323797897374774 ] ] ] } },
{ "type": "Feature", "properties": { "LocationID": "a123", "c_1": 0.60629676178857572, "c_2": 0.24629141164768348, "c_3": 0.1474118265637408 }, "geometry": { "type": "Polygon", "coordinates": [ [ [ 1.832118910603451, 2.524076918255959 ], [ 1.228886686612645, 2.4792551661158 ], [ 1.177523049500732, 2.508313508298074 ], [ 1.248308377685908, 3.106201983510982 ], [ 1.328824691425902, 3.129390349097575 ], [ 1.832118910603451, 2.524076918255959 ] ] ] } },
{ "type": "Feature", "properties": { "LocationID": "a124", "c_1": 0.52275422259630122, "c_2": 0.17365035707280588, "c_3": 0.30359542033089287 }, "geometry": { "type": "Polygon", "coordinates": [ [ [ 1.826343849634681, 3.376846714697226 ], [ 1.997776058242596, 3.320047067401195 ], [ 2.289295775856382, 2.925832414489085 ], [ 2.037642113291073, 2.472127913216016 ], [ 1.832118910603451, 2.524076918255959 ], [ 1.328824691425902, 3.129390349097575 ], [ 1.826343849634681, 3.376846714697226 ] ] ] } },
{ "type": "Feature", "properties": { "LocationID": "a125", "c_1": 0.61166762685129328, "c_2": 0.29099663165663259, "c_3": 0.097335741492074107 }, "geometry": { "type": "Polygon", "coordinates": [ [ [ 1.832118910603451, 2.524076918255959 ], [ 2.037642113291073, 2.472127913216016 ], [ 2.058495773842238, 2.07727740403864 ], [ 1.593880528186312, 1.962471188633977 ], [ 1.228886686612645, 2.4792551661158 ], [ 1.832118910603451, 2.524076918255959 ] ] ] } },
{ "type": "Feature", "properties": { "LocationID": "a126", "c_1": 0.56181205739028395, "c_2": 0.25552445104274951, "c_3": 0.18266349156696648 }, "geometry": { "type": "Polygon", "coordinates": [ [ [ 1.177523049500732, 2.508313508298074 ], [ 1.016651605201976, 2.412238593103605 ], [ 0.82984611670178, 2.455830743257436 ], [ 0.54635721702821, 2.8686055838866 ], [ 0.605744556378021, 3.159686646164783 ], [ 0.682708965090371, 3.261535929836671 ], [ 0.852811745367829, 3.322756154371547 ], [ 1.248308377685908, 3.106201983510982 ], [ 1.177523049500732, 2.508313508298074 ] ] ] } },
{ "type": "Feature", "properties": { "LocationID": "a127", "c_1": 0.97494519846360006, "c_2": 0.00026916396667682815, "c_3": 0.024785637569723074 }, "geometry": { "type": "Polygon", "coordinates": [ [ [ 1.593880528186312, 1.962471188633977 ], [ 1.417595158577386, 1.742780091798052 ], [ 0.899304496519044, 1.788387486262775 ], [ 1.016651605201976, 2.412238593103605 ], [ 1.177523049500732, 2.508313508298074 ], [ 1.228886686612645, 2.4792551661158 ], [ 1.593880528186312, 1.962471188633977 ] ] ] } },
{ "type": "Feature", "properties": { "LocationID": "a128", "c_1": 0.12499860751058425, "c_2": 0.10752040404307014, "c_3": 0.7674809884463456 }, "geometry": { "type": "Polygon", "coordinates": [ [ [ 1.248308377685908, 3.106201983510982 ], [ 0.852811745367829, 3.322756154371547 ], [ 0.940047048793188, 4.161788196872241 ], [ 1.336903641916557, 4.150631602446056 ], [ 1.708154267268198, 3.739964868336661 ], [ 1.826343849634681, 3.376846714697226 ], [ 1.328824691425902, 3.129390349097575 ], [ 1.248308377685908, 3.106201983510982 ] ] ] } },
{ "type": "Feature", "properties": { "LocationID": "b129", "c_1": 0.034286889375719429, "c_2": 0.043878563306331844, "c_3": 0.92183454731794867 }, "geometry": { "type": "Polygon", "coordinates": [ [ [ 3.562769516759899, 3.556625417361045 ], [ 2.973906178108246, 4.248308119405649 ], [ 3.480167137725767, 4.450245184769783 ], [ 3.81858042441277, 4.323797897374774 ], [ 3.740190208553321, 3.70060861823321 ], [ 3.562769516759899, 3.556625417361045 ] ] ] } },
{ "type": "Feature", "properties": { "LocationID": "b130", "c_1": 0.0024239493571481868, "c_2": 0.012560212699865249, "c_3": 0.98501583794298653 }, "geometry": { "type": "Polygon", "coordinates": [ [ [ 3.740190208553321, 3.70060861823321 ], [ 3.81858042441277, 4.323797897374774 ], [ 4.319287786958997, 4.555706073312491 ], [ 4.573650428804931, 4.368055732506903 ], [ 4.669668453115085, 4.255785447212111 ], [ 4.66199740064692, 4.011301715541897 ], [ 4.279867060628702, 3.569611215672192 ], [ 3.740190208553321, 3.70060861823321 ] ] ] } },
{ "type": "Feature", "properties": { "LocationID": "a131", "c_1": 0.44609321619685599, "c_2": 0.48952772552873514, "c_3": 0.064379058274408846 }, "geometry": { "type": "Polygon", "coordinates": [ [ [ 0.980274048614386, 0.475035224368997 ], [ 0.472211769295337, 1.073316009162968 ], [ 1.144607932417731, 1.064925230994356 ], [ 1.131261810255786, 0.525229586644265 ], [ 0.980274048614386, 0.475035224368997 ] ] ] } },
{ "type": "Feature", "properties": { "LocationID": "a132", "c_1": 0.42130195192623521, "c_2": 0.50951374857779463, "c_3": 0.069184299495970172 }, "geometry": { "type": "Polygon", "coordinates": [ [ [ 1.416141955084643, 0.212508574320227 ], [ 1.224400065906788, 0.517367934835462 ], [ 1.30143040883127, 0.551748482555619 ], [ 2.021877118712752, 0.07716746382057 ], [ 2.047039740584744, 0.0 ], [ 1.982868389175957, 0.0 ], [ 1.416141955084643, 0.212508574320227 ] ] ] } },
{ "type": "Feature", "properties": { "LocationID": "a133", "c_1": 0.54631709959694641, "c_2": 0.36769902254090342, "c_3": 0.08598387786215031 }, "geometry": { "type": "Polygon", "coordinates": [ [ [ 2.021877118712752, 0.07716746382057 ], [ 1.30143040883127, 0.551748482555619 ], [ 1.834728234157336, 0.854743709682057 ], [ 2.021877118712752, 0.07716746382057 ] ] ] } },
{ "type": "Feature", "properties": { "LocationID": "c134", "c_1": 0.10703891543436266, "c_2": 0.8095578415184228, "c_3": 0.083403243047214609 }, "geometry": { "type": "Polygon", "coordinates": [ [ [ 0.212476234077705, 6.780144307830651 ], [ 0.417066116849254, 6.956235501522209 ], [ 0.708609664246997, 7.019954366994668 ], [ 0.780725744115525, 6.7050343307129 ], [ 0.560937517342618, 6.427149388384701 ], [ 0.367871486146897, 6.46011575181471 ], [ 0.212476234077705, 6.780144307830651 ] ] ] } },
{ "type": "Feature", "properties": { "LocationID": "c135", "c_1": 0.10264091963756249, "c_2": 0.83219619142754753, "c_3": 0.041833083671836274 }, "geometry": { "type": "Polygon", "coordinates": [ [ [ 0.0, 7.03695780306532 ], [ 0.0, 7.226576194660039 ], [ 0.616227300520548, 7.329880793645818 ], [ 0.663211452876679, 7.309246465769744 ], [ 0.709639507905208, 7.034830970483617 ], [ 0.708609664246997, 7.019954366994668 ], [ 0.417066116849254, 6.956235501522209 ], [ 0.0, 7.03695780306532 ] ] ] } },
{ "type": "Feature", "properties": { "LocationID": "c136", "c_1": 0.084028687409549607, "c_2": 0.73578102596820971, "c_3": 0.18019028662224071 }, "geometry": { "type": "Polygon", "coordinates": [ [ [ 0.708609664246997, 7.019954366994668 ], [ 0.709639507905208, 7.034830970483617 ], [ 1.383949055802873, 7.130669783424821 ], [ 1.422947851671853, 6.586238050846616 ], [ 0.780725744115525, 6.7050343307129 ], [ 0.708609664246997, 7.019954366994668 ] ] ] } },
{ "type": "Feature", "properties": { "LocationID": "c137", "c_1": 0.15442000443417128, "c_2": 0.77965797175628138, "c_3": 0.065922023809547411 }, "geometry": { "type": "Polygon", "coordinates": [ [ [ 0.0, 6.955112401902583 ], [ 0.0, 7.03695780306532 ], [ 0.417066116849254, 6.956235501522209 ], [ 0.212476234077705, 6.780144307830651 ], [ 0.0, 6.955112401902583 ] ] ] } },
{ "type": "Feature", "properties": { "LocationID": "c138", "c_1": 0.066226000801505563, "c_2": 0.55915467092241222, "c_3": 0.37461932827608224 }, "geometry": { "type": "Polygon", "coordinates": [ [ [ 0.780725744115525, 6.7050343307129 ], [ 1.422947851671853, 6.586238050846616 ], [ 1.480315450535606, 6.532621685193768 ], [ 0.859767060059045, 5.822129170815479 ], [ 0.716329146764561, 5.794721383850556 ], [ 0.560937517342618, 6.427149388384701 ], [ 0.780725744115525, 6.7050343307129 ] ] ] } },
{ "type": "Feature", "properties": { "LocationID": "c139", "c_1": 0.10521855277602328, "c_2": 0.71101869203763646, "c_3": 0.18376275518634025 }, "geometry": { "type": "Polygon", "coordinates": [ [ [ 0.367871486146897, 6.46011575181471 ], [ 0.560937517342618, 6.427149388384701 ], [ 0.716329146764561, 5.794721383850556 ], [ 0.678132752693894, 5.744758466087752 ], [ 0.0, 5.609742030934316 ], [ 0.0, 6.372036664699882 ], [ 0.367871486146897, 6.46011575181471 ] ] ] } },
{ "type": "Feature", "properties": { "LocationID": "a140", "c_1": 0.41370158377667821, "c_2": 0.52955401988881512, "c_3": 0.056744396334506689 }, "geometry": { "type": "Polygon", "coordinates": [ [ [ 5.808617653126508, 0.421674007002873 ], [ 5.243052372035501, 0.785676134692869 ], [ 5.265224219417506, 0.840549605263509 ], [ 5.528646240644655, 1.316823918169385 ], [ 6.378990520469447, 1.457689814584156 ], [ 6.48525401875406, 0.816157388991304 ], [ 6.473992125705694, 0.76812898713195 ], [ 5.808617653126508, 0.421674007002873 ] ] ] } },
{ "type": "Feature", "properties": { "LocationID": "a141", "c_1": 0.6378699158120108, "c_2": 0.25058001541069247, "c_3": 0.11155006877729667 }, "geometry": { "type": "Polygon", "coordinates": [ [ [ 4.423973876611641, 1.763081053595258 ], [ 4.644397006121225, 1.932656136863798 ], [ 5.025962620634227, 2.114137274347876 ], [ 5.528646240644655, 1.316823918169385 ], [ 5.265224219417506, 0.840549605263509 ], [ 4.423973876611641, 1.763081053595258 ] ] ] } },
{ "type": "Feature", "properties": { "LocationID": "a142", "c_1": 0.38095449160439443, "c_2": 0.56038147510472214, "c_3": 0.058664033290883488 }, "geometry": { "type": "Polygon", "coordinates": [ [ [ 6.721877969726412, 0.0 ], [ 5.906232385084316, 0.0 ], [ 5.808617653126508, 0.421674007002873 ], [ 6.473992125705694, 0.76812898713195 ], [ 6.721877969726412, 0.0 ] ] ] } },
{ "type": "Feature", "properties": { "LocationID": "a143", "c_1": 0.44951338469537599, "c_2": 0.48361336703485924, "c_3": 0.066873248269764748 }, "geometry": { "type": "Polygon", "coordinates": [ [ [ 4.716174247167348, 0.431739109277158 ], [ 5.243052372035501, 0.785676134692869 ], [ 5.808617653126508, 0.421674007002873 ], [ 5.906232385084316, 0.0 ], [ 4.718074186876085, 0.0 ], [ 4.716174247167348, 0.431739109277158 ] ] ] } },
{ "type": "Feature", "properties": { "LocationID": "a144", "c_1": 0.43086633243934586, "c_2": 0.52525043641696267, "c_3": 0.043883231143691574 }, "geometry": { "type": "Polygon", "coordinates": [ [ [ 6.378990520469447, 1.457689814584156 ], [ 6.418711085504092, 1.510305590959074 ], [ 7.036219085692303, 1.615162192845114 ], [ 7.462390740037583, 0.725891715126645 ], [ 6.48525401875406, 0.816157388991304 ], [ 6.378990520469447, 1.457689814584156 ] ] ] } },
{ "type": "Feature", "properties": { "LocationID": "a145", "c_1": 0.39456647044860099, "c_2": 0.55020067082250146, "c_3": 0.055232858728897646 }, "geometry": { "type": "Polygon", "coordinates": [ [ [ 6.473992125705694, 0.76812898713195 ], [ 6.48525401875406, 0.816157388991304 ], [ 7.462390740037583, 0.725891715126645 ], [ 7.987886310596517, 0.281049461886547 ], [ 7.96948062763218, 0.0 ], [ 6.721877969726412, 0.0 ], [ 6.473992125705694, 0.76812898713195 ] ] ] } },
{ "type": "Feature", "properties": { "LocationID": "a146", "c_1": 0.4726317421938494, "c_2": 0.4651903892028843, "c_3": 0.062177868603266302 }, "geometry": { "type": "Polygon", "coordinates": [ [ [ 7.485505379728794, 1.959697307009101 ], [ 7.036219085692303, 1.615162192845114 ], [ 6.418711085504092, 1.510305590959074 ], [ 6.327491190354142, 1.8657315147645 ], [ 6.969470611181475, 2.4266972092126 ], [ 7.485505379728794, 1.959697307009101 ] ] ] } },
{ "type": "Feature", "properties": { "LocationID": "a147", "c_1": 0.55218193053134146, "c_2": 0.26506556946618443, "c_3": 0.18275250000247417 }, "geometry": { "type": "Polygon", "coordinates": [ [ [ 7.456779765893949, 3.460342911471568 ], [ 7.482525195197802, 3.443452678945012 ], [ 7.816650082782927, 2.438415427672858 ], [ 7.69138146337449, 2.037751010707187 ], [ 7.635235328866136, 2.0003990367448 ], [ 7.485505379728794, 1.959697307009101 ], [ 6.969470611181475, 2.4266972092126 ], [ 6.485495884972893, 3.092089276396173 ], [ 7.456779765893949, 3.460342911471568 ] ] ] } },
{ "type": "Feature", "properties": { "LocationID": "a148", "c_1": 0.04381934765246797, "c_2": 0.062350480188586535, "c_3": 0.89383017215894545 }, "geometry": { "type": "Polygon", "coordinates": [ [ [ 6.400826325219159, 3.089674513535325 ], [ 6.105705340700685, 3.844205287778979 ], [ 6.56234225518635, 4.545149750433547 ], [ 7.182965065669899, 4.366868567463992 ], [ 7.383144275741302, 4.151629735600325 ], [ 7.456779765893949, 3.460342911471568 ], [ 6.485495884972893, 3.092089276396173 ], [ 6.400826325219159, 3.089674513535325 ] ] ] } },
{ "type": "Feature", "properties": { "LocationID": "a149", "c_1": 0.53282603371811843, "c_2": 0.0010497205387216921, "c_3": 0.46612424574315992 }, "geometry": { "type": "Polygon", "coordinates": [ [ [ 2.627086866846713, 3.965653041463796 ], [ 2.66222035764215, 4.249978295537498 ], [ 2.973906178108246, 4.248308119405649 ], [ 3.562769516759899, 3.556625417361045 ], [ 3.482106292291202, 3.404778966780333 ], [ 3.059380210755318, 3.269982365332406 ], [ 2.627086866846713, 3.965653041463796 ] ] ] } },
{ "type": "Feature", "properties": { "LocationID": "a150", "c_1": 0.25668119163979652, "c_2": 0.12723447140661048, "c_3": 0.6160843369535931 }, "geometry": { "type": "Polygon", "coordinates": [ [ [ 2.695194129068181, 2.888322138582651 ], [ 2.289295775856382, 2.925832414489085 ], [ 1.997776058242596, 3.320047067401195 ], [ 2.627086866846713, 3.965653041463796 ], [ 3.059380210755318, 3.269982365332406 ], [ 2.861556527733121, 2.956718173995001 ], [ 2.695194129068181, 2.888322138582651 ] ] ] } },
{ "type": "Feature", "properties": { "LocationID": "a151", "c_1": 0.29565504410824778, "c_2": 0.65807191518488339, "c_3": 0.046273040706868898 }, "geometry": { "type": "Polygon", "coordinates": [ [ [ 3.458658008464609, 0.0 ], [ 2.519328009664514, 0.0 ], [ 2.542569295309569, 0.07596578037398 ], [ 2.629809295321206, 0.148385007733678 ], [ 3.352722066674902, 0.565834766324438 ], [ 3.517983879348929, 0.45377524170884 ], [ 3.458658008464609, 0.0 ] ] ] } },
{ "type": "Feature", "properties": { "LocationID": "a152", "c_1": 0.3512984709848177, "c_2": 0.58650983935004863, "c_3": 0.062191689665133783 }, "geometry": { "type": "Polygon", "coordinates": [ [ [ 3.517983879348929, 0.45377524170884 ], [ 3.730208273936476, 0.555451483456678 ], [ 4.538806646319176, 0.562543364423184 ], [ 4.716174247167348, 0.431739109277158 ], [ 4.718074186876085, 0.0 ], [ 3.458658008464609, 0.0 ], [ 3.517983879348929, 0.45377524170884 ] ] ] } },
{ "type": "Feature", "properties": { "LocationID": "a153", "c_1": 0.59380764946420206, "c_2": 0.300816744283666, "c_3": 0.10537560625213201 }, "geometry": { "type": "Polygon", "coordinates": [ [ [ 2.398921212591997, 1.754631636793563 ], [ 2.058495773842238, 2.07727740403864 ], [ 2.037642113291073, 2.472127913216016 ], [ 2.289295775856382, 2.925832414489085 ], [ 2.695194129068181, 2.888322138582651 ], [ 2.733370164077881, 2.420686065916388 ], [ 2.398921212591997, 1.754631636793563 ] ] ] } },
{ "type": "Feature", "properties": { "LocationID": "a154", "c_1": 0.54525964742937338, "c_2": 0.35069110739606113, "c_3": 0.10404924517456551 }, "geometry": { "type": "Polygon", "coordinates": [ [ [ 2.733370164077881, 2.420686065916388 ], [ 2.695194129068181, 2.888322138582651 ], [ 2.861556527733121, 2.956718173995001 ], [ 3.580237567656006, 2.329860006031928 ], [ 3.578468829254834, 2.312957411530205 ], [ 3.008852339079974, 2.254045557185717 ], [ 2.733370164077881, 2.420686065916388 ] ] ] } },
{ "type": "Feature", "properties": { "LocationID": "a155", "c_1": 0.50487074291470579, "c_2": 0.40897057568157225, "c_3": 0.086158681403722015 }, "geometry": { "type": "Polygon", "coordinates": [ [ [ 0.685003432387984, 1.641956393303861 ], [ 0.899304496519044, 1.788387486262775 ], [ 1.417595158577386, 1.742780091798052 ], [ 1.469701476589765, 1.581562215070319 ], [ 1.169324121581623, 1.237501250469734 ], [ 0.685003432387984, 1.641956393303861 ] ] ] } },
{ "type": "Feature", "properties": { "LocationID": "a156", "c_1": 0.47614539166701281, "c_2": 0.4437553637021171, "c_3": 0.080099244630870134 }, "geometry": { "type": "Polygon", "coordinates": [ [ [ 1.144607932417731, 1.064925230994356 ], [ 0.472211769295337, 1.073316009162968 ], [ 0.0, 1.41837004614775 ], [ 0.0, 1.448731991350502 ], [ 0.010829137107897, 1.452721257374956 ], [ 0.685003432387984, 1.641956393303861 ], [ 1.169324121581623, 1.237501250469734 ], [ 1.193044013341788, 1.13557509858695 ], [ 1.144607932417731, 1.064925230994356 ] ] ] } },
{ "type": "Feature", "properties": { "LocationID": "a157", "c_1": 0.51757570501002337, "c_2": 0.25100638018888494, "c_3": 0.23141791480109167 }, "geometry": { "type": "Polygon", "coordinates": [ [ [ 5.231568655766235, 3.513016698102504 ], [ 5.457485617000464, 3.353262477949368 ], [ 6.09889673509939, 2.817219514942526 ], [ 6.025298516394649, 2.698520922404238 ], [ 5.136663195023779, 2.406375594040429 ], [ 4.852656187091519, 2.809799258299508 ], [ 4.84376575066228, 2.97462227208446 ], [ 5.081540359468134, 3.480705866757579 ], [ 5.231568655766235, 3.513016698102504 ] ] ] } },
{ "type": "Feature", "properties": { "LocationID": "a158", "c_1": 0.45007670119460735, "c_2": 0.45815455402193139, "c_3": 0.091768744783461156 }, "geometry": { "type": "Polygon", "coordinates": [ [ [ 6.09889673509939, 2.817219514942526 ], [ 6.400826325219159, 3.089674513535325 ], [ 6.485495884972893, 3.092089276396173 ], [ 6.969470611181475, 2.4266972092126 ], [ 6.327491190354142, 1.8657315147645 ], [ 6.025298516394649, 2.698520922404238 ], [ 6.09889673509939, 2.817219514942526 ] ] ] } },
{ "type": "Feature", "properties": { "LocationID": "a159", "c_1": 0.064253364552488632, "c_2": 0.088621130947661275, "c_3": 0.84712550449985013 }, "geometry": { "type": "Polygon", "coordinates": [ [ [ 6.016643380544942, 3.872731771114581 ], [ 6.105705340700685, 3.844205287778979 ], [ 6.400826325219159, 3.089674513535325 ], [ 6.09889673509939, 2.817219514942526 ], [ 5.457485617000464, 3.353262477949368 ], [ 6.016643380544942, 3.872731771114581 ] ] ] } },
{ "type": "Feature", "properties": { "LocationID": "a160", "c_1": 0.94976662853209093, "c_2": 0.0054262327849894211, "c_3": 0.04480713868291962 }, "geometry": { "type": "Polygon", "coordinates": [ [ [ 6.025298516394649, 2.698520922404238 ], [ 6.327491190354142, 1.8657315147645 ], [ 6.418711085504092, 1.510305590959074 ], [ 6.378990520469447, 1.457689814584156 ], [ 5.528646240644655, 1.316823918169385 ], [ 5.025962620634227, 2.114137274347876 ], [ 5.136663195023779, 2.406375594040429 ], [ 6.025298516394649, 2.698520922404238 ] ] ] } },
{ "type": "Feature", "properties": { "LocationID": "a161", "c_1": 0.014460878023961399, "c_2": 0.039372323839401036, "c_3": 0.94616679813663762 }, "geometry": { "type": "Polygon", "coordinates": [ [ [ 5.654270906451381, 4.00308404332662 ], [ 6.016643380544942, 3.872731771114581 ], [ 5.457485617000464, 3.353262477949368 ], [ 5.231568655766235, 3.513016698102504 ], [ 5.654270906451381, 4.00308404332662 ] ] ] } },
{ "type": "Feature", "properties": { "LocationID": "a162", "c_1": 0.18464187226494666, "c_2": 0.15406304868904613, "c_3": 0.66129507904600715 }, "geometry": { "type": "Polygon", "coordinates": [ [ [ 4.84376575066228, 2.97462227208446 ], [ 4.309468142099428, 3.439379830670106 ], [ 4.279867060628702, 3.569611215672192 ], [ 4.66199740064692, 4.011301715541897 ], [ 5.081540359468134, 3.480705866757579 ], [ 4.84376575066228, 2.97462227208446 ] ] ] } },
{ "type": "Feature", "properties": { "LocationID": "a163", "c_1": 0.31137471286322088, "c_2": 0.0003611774210987949, "c_3": 0.68826410971568031 }, "geometry": { "type": "Polygon", "coordinates": [ [ [ 4.66199740064692, 4.011301715541897 ], [ 4.669668453115085, 4.255785447212111 ], [ 5.417218089175462, 4.352535366772294 ], [ 5.654270906451381, 4.00308404332662 ], [ 5.231568655766235, 3.513016698102504 ], [ 5.081540359468134, 3.480705866757579 ], [ 4.66199740064692, 4.011301715541897 ] ] ] } },
{ "type": "Feature", "properties": { "LocationID": "a164", "c_1": 0.50962484696501154, "c_2": 0.33838940046899713, "c_3": 0.15198575256599131 }, "geometry": { "type": "Polygon", "coordinates": [ [ [ 4.064874116909901, 3.073934565720875 ], [ 4.301438684650394, 2.771883954506078 ], [ 4.108740246945411, 2.572260335143967 ], [ 3.63684326960241, 2.401666270343749 ], [ 3.724296117482313, 3.072771739109815 ], [ 4.064874116909901, 3.073934565720875 ] ] ] } },
{ "type": "Feature", "properties": { "LocationID": "a165", "c_1": 0.46210324264615532, "c_2": 0.36016966699579112, "c_3": 0.17772709035805362 }, "geometry": { "type": "Polygon", "coordinates": [ [ [ 3.63684326960241, 2.401666270343749 ], [ 3.580237567656006, 2.329860006031928 ], [ 2.861556527733121, 2.956718173995001 ], [ 3.059380210755318, 3.269982365332406 ], [ 3.482106292291202, 3.404778966780333 ], [ 3.724296117482313, 3.072771739109815 ], [ 3.63684326960241, 2.401666270343749 ] ] ] } },
{ "type": "Feature", "properties": { "LocationID": "a166", "c_1": 0.40697122875758501, "c_2": 0.19439120407623622, "c_3": 0.39863756716617882 }, "geometry": { "type": "Polygon", "coordinates": [ [ [ 4.309468142099428, 3.439379830670106 ], [ 4.84376575066228, 2.97462227208446 ], [ 4.852656187091519, 2.809799258299508 ], [ 4.301438684650394, 2.771883954506078 ], [ 4.064874116909901, 3.073934565720875 ], [ 4.309468142099428, 3.439379830670106 ] ] ] } },
{ "type": "Feature", "properties": { "LocationID": "a167", "c_1": 0.58932520822786372, "c_2": 0.30044630539289147, "c_3": 0.11022848637924486 }, "geometry": { "type": "Polygon", "coordinates": [ [ [ 4.301438684650394, 2.771883954506078 ], [ 4.852656187091519, 2.809799258299508 ], [ 5.136663195023779, 2.406375594040429 ], [ 5.025962620634227, 2.114137274347876 ], [ 4.644397006121225, 1.932656136863798 ], [ 4.108740246945411, 2.572260335143967 ], [ 4.301438684650394, 2.771883954506078 ] ] ] } },
{ "type": "Feature", "properties": { "LocationID": "a168", "c_1": 0.14606496057047746, "c_2": 0.13418385880336717, "c_3": 0.7197511806261554 }, "geometry": { "type": "Polygon", "coordinates": [ [ [ 3.482106292291202, 3.404778966780333 ], [ 3.562769516759899, 3.556625417361045 ], [ 3.740190208553321, 3.70060861823321 ], [ 4.279867060628702, 3.569611215672192 ], [ 4.309468142099428, 3.439379830670106 ], [ 4.064874116909901, 3.073934565720875 ], [ 3.724296117482313, 3.072771739109815 ], [ 3.482106292291202, 3.404778966780333 ] ] ] } },
{ "type": "Feature", "properties": { "LocationID": "a169", "c_1": 0.47778587656607002, "c_2": 0.45835077638785987, "c_3": 0.063863347046070162 }, "geometry": { "type": "Polygon", "coordinates": [ [ [ 4.538806646319176, 0.562543364423184 ], [ 3.730208273936476, 0.555451483456678 ], [ 3.720720938686193, 0.949996741900323 ], [ 4.172332908003549, 1.573016237096277 ], [ 4.538806646319176, 0.562543364423184 ] ] ] } },
{ "type": "Feature", "properties": { "LocationID": "a170", "c_1": 0.55942739289397647, "c_2": 0.34860320608325768, "c_3": 0.091969401022765823 }, "geometry": { "type": "Polygon", "coordinates": [ [ [ 4.423973876611641, 1.763081053595258 ], [ 5.265224219417506, 0.840549605263509 ], [ 5.243052372035501, 0.785676134692869 ], [ 4.716174247167348, 0.431739109277158 ], [ 4.538806646319176, 0.562543364423184 ], [ 4.172332908003549, 1.573016237096277 ], [ 4.16673652313139, 1.616587753735949 ], [ 4.423973876611641, 1.763081053595258 ] ] ] } },
{ "type": "Feature", "properties": { "LocationID": "a171", "c_1": 0.55390892113646328, "c_2": 0.35355776991392684, "c_3": 0.092533308949609816 }, "geometry": { "type": "Polygon", "coordinates": [ [ [ 3.400556287188332, 1.309648530903372 ], [ 2.434153952432685, 1.456744758940056 ], [ 2.457561274673924, 1.640711969878403 ], [ 2.681860497960642, 1.722195469208064 ], [ 3.660635013922263, 1.864300549511233 ], [ 3.697194585523564, 1.817339400460688 ], [ 3.400556287188332, 1.309648530903372 ] ] ] } },
{ "type": "Feature", "properties": { "LocationID": "a172", "c_1": 0.59177234519498856, "c_2": 0.31126325500835078, "c_3": 0.096964399796660744 }, "geometry": { "type": "Polygon", "coordinates": [ [ [ 2.457561274673924, 1.640711969878403 ], [ 2.398921212591997, 1.754631636793563 ], [ 2.733370164077881, 2.420686065916388 ], [ 3.008852339079974, 2.254045557185717 ], [ 2.681860497960642, 1.722195469208064 ], [ 2.457561274673924, 1.640711969878403 ] ] ] } },
{ "type": "Feature", "properties": { "LocationID": "a173", "c_1": 0.47849074663094993, "c_2": 0.45089966656412472, "c_3": 0.070609586804925337 }, "geometry": { "type": "Polygon", "coordinates": [ [ [ 2.681860497960642, 1.722195469208064 ], [ 3.008852339079974, 2.254045557185717 ], [ 3.578468829254834, 2.312957411530205 ], [ 3.660635013922263, 1.864300549511233 ], [ 2.681860497960642, 1.722195469208064 ] ] ] } },
{ "type": "Feature", "properties": { "LocationID": "a174", "c_1": 0.74567775038951278, "c_2": 0.12144075988885809, "c_3": 0.13288148972162914 }, "geometry": { "type": "Polygon", "coordinates": [ [ [ 3.660635013922263, 1.864300549511233 ], [ 3.578468829254834, 2.312957411530205 ], [ 3.580237567656006, 2.329860006031928 ], [ 3.63684326960241, 2.401666270343749 ], [ 4.108740246945411, 2.572260335143967 ], [ 4.644397006121225, 1.932656136863798 ], [ 4.423973876611641, 1.763081053595258 ], [ 4.16673652313139, 1.616587753735949 ], [ 3.697194585523564, 1.817339400460688 ], [ 3.660635013922263, 1.864300549511233 ] ] ] } },
{ "type": "Feature", "properties": { "LocationID": "a175", "c_1": 0.85562648991631007, "c_2": 0.087913990232340852, "c_3": 0.056459519851349081 }, "geometry": { "type": "Polygon", "coordinates": [ [ [ 3.38919816773506, 1.237270352932371 ], [ 3.270933800284966, 0.662195175652518 ], [ 3.045697000021431, 0.747453133069717 ], [ 2.695687080340751, 0.986228469434594 ], [ 3.388728707665461, 1.239742331551009 ], [ 3.38919816773506, 1.237270352932371 ] ] ] } },
{ "type": "Feature", "properties": { "LocationID": "a176", "c_1": 0.93047757796730135, "c_2": 0.006810129646258596, "c_3": 0.062712292386440133 }, "geometry": { "type": "Polygon", "coordinates": [ [ [ 3.352722066674902, 0.565834766324438 ], [ 2.629809295321206, 0.148385007733678 ], [ 3.045697000021431, 0.747453133069717 ], [ 3.270933800284966, 0.662195175652518 ], [ 3.352722066674902, 0.565834766324438 ] ] ] } },
{ "type": "Feature", "properties": { "LocationID": "a177", "c_1": 0.54768262748174601, "c_2": 0.3545832346608821, "c_3": 0.097734137857371922 }, "geometry": { "type": "Polygon", "coordinates": [ [ [ 3.045697000021431, 0.747453133069717 ], [ 2.629809295321206, 0.148385007733678 ], [ 2.542569295309569, 0.07596578037398 ], [ 2.489695983910618, 1.064471330832697 ], [ 2.695687080340751, 0.986228469434594 ], [ 3.045697000021431, 0.747453133069717 ] ] ] } },
{ "type": "Feature", "properties": { "LocationID": "a178", "c_1": 0.40416640288943134, "c_2": 0.52659439733669666, "c_3": 0.069239199773872037 }, "geometry": { "type": "Polygon", "coordinates": [ [ [ 2.695687080340751, 0.986228469434594 ], [ 2.489695983910618, 1.064471330832697 ], [ 2.360197145725519, 1.215888635119395 ], [ 2.434153952432685, 1.456744758940056 ], [ 3.400556287188332, 1.309648530903372 ], [ 3.388728707665461, 1.239742331551009 ], [ 2.695687080340751, 0.986228469434594 ] ] ] } },
{ "type": "Feature", "properties": { "LocationID": "a179", "c_1": 0.38698524851178823, "c_2": 0.55674689968013835, "c_3": 0.056267851808073296 }, "geometry": { "type": "Polygon", "coordinates": [ [ [ 3.720720938686193, 0.949996741900323 ], [ 3.730208273936476, 0.555451483456678 ], [ 3.517983879348929, 0.45377524170884 ], [ 3.352722066674902, 0.565834766324438 ], [ 3.270933800284966, 0.662195175652518 ], [ 3.38919816773506, 1.237270352932371 ], [ 3.720720938686193, 0.949996741900323 ] ] ] } },
{ "type": "Feature", "properties": { "LocationID": "a180", "c_1": 0.49341976267274729, "c_2": 0.4311009205766384, "c_3": 0.075479316750614367 }, "geometry": { "type": "Polygon", "coordinates": [ [ [ 3.400556287188332, 1.309648530903372 ], [ 3.697194585523564, 1.817339400460688 ], [ 4.16673652313139, 1.616587753735949 ], [ 4.172332908003549, 1.573016237096277 ], [ 3.720720938686193, 0.949996741900323 ], [ 3.38919816773506, 1.237270352932371 ], [ 3.388728707665461, 1.239742331551009 ], [ 3.400556287188332, 1.309648530903372 ] ] ] } },
{ "type": "Feature", "properties": { "LocationID": "a181", "c_1": 0.56588451654333694, "c_2": 0.34179362423770743, "c_3": 0.092321859218955721 }, "geometry": { "type": "Polygon", "coordinates": [ [ [ 2.034277065624937, 1.087792406611677 ], [ 1.849732312051786, 0.886137554769807 ], [ 1.294514167053534, 1.119324559804935 ], [ 1.581840716236088, 1.455907498139823 ], [ 2.034277065624937, 1.087792406611677 ] ] ] } },
{ "type": "Feature", "properties": { "LocationID": "a182", "c_1": 0.48990133753219922, "c_2": 0.44972330887091411, "c_3": 0.060375353596886727 }, "geometry": { "type": "Polygon", "coordinates": [ [ [ 2.360197145725519, 1.215888635119395 ], [ 2.489695983910618, 1.064471330832697 ], [ 2.542569295309569, 0.07596578037398 ], [ 2.519328009664514, 0.0 ], [ 2.047039740584744, 0.0 ], [ 2.021877118712752, 0.07716746382057 ], [ 1.834728234157336, 0.854743709682057 ], [ 1.849732312051786, 0.886137554769807 ], [ 2.034277065624937, 1.087792406611677 ], [ 2.360197145725519, 1.215888635119395 ] ] ] } },
{ "type": "Feature", "properties": { "LocationID": "a183", "c_1": 0.97513763451654512, "c_2": 0.0003389873097353743, "c_3": 0.024523378173719482 }, "geometry": { "type": "Polygon", "coordinates": [ [ [ 1.849732312051786, 0.886137554769807 ], [ 1.834728234157336, 0.854743709682057 ], [ 1.30143040883127, 0.551748482555619 ], [ 1.224400065906788, 0.517367934835462 ], [ 1.131261810255786, 0.525229586644265 ], [ 1.144607932417731, 1.064925230994356 ], [ 1.193044013341788, 1.13557509858695 ], [ 1.294514167053534, 1.119324559804935 ], [ 1.849732312051786, 0.886137554769807 ] ] ] } },
{ "type": "Feature", "properties": { "LocationID": "a184", "c_1": 0.95948260650882888, "c_2": 0.001316481973996907, "c_3": 0.039200911517174225 }, "geometry": { "type": "Polygon", "coordinates": [ [ [ 1.294514167053534, 1.119324559804935 ], [ 1.193044013341788, 1.13557509858695 ], [ 1.169324121581623, 1.237501250469734 ], [ 1.469701476589765, 1.581562215070319 ], [ 1.581840716236088, 1.455907498139823 ], [ 1.294514167053534, 1.119324559804935 ] ] ] } },
{ "type": "Feature", "properties": { "LocationID": "a185", "c_1": 0.62798956523355842, "c_2": 0.2689328314957582, "c_3": 0.10307760327068342 }, "geometry": { "type": "Polygon", "coordinates": [ [ [ 1.469701476589765, 1.581562215070319 ], [ 1.417595158577386, 1.742780091798052 ], [ 1.593880528186312, 1.962471188633977 ], [ 2.058495773842238, 2.07727740403864 ], [ 2.398921212591997, 1.754631636793563 ], [ 2.457561274673924, 1.640711969878403 ], [ 2.434153952432685, 1.456744758940056 ], [ 2.360197145725519, 1.215888635119395 ], [ 2.034277065624937, 1.087792406611677 ], [ 1.581840716236088, 1.455907498139823 ], [ 1.469701476589765, 1.581562215070319 ] ] ] } },
{ "type": "Feature", "properties": { "LocationID": "a186", "c_1": 0.49894852834772974, "c_2": 0.4278763501766838, "c_3": 0.073175121475586594 }, "geometry": { "type": "Polygon", "coordinates": [ [ [ 0.0, 1.41837004614775 ], [ 0.472211769295337, 1.073316009162968 ], [ 0.980274048614386, 0.475035224368997 ], [ 1.131261810255786, 0.525229586644265 ], [ 1.224400065906788, 0.517367934835462 ], [ 1.416141955084643, 0.212508574320227 ], [ 1.982868389175957, 0.0 ], [ 0.0, 0.0 ], [ 0.0, 1.41837004614775 ] ] ] } },
{ "type": "Feature", "properties": { "LocationID": "a187", "c_1": 0.49244725741667117, "c_2": 0.40802141838212685, "c_3": 0.099531324201201962 }, "geometry": { "type": "Polygon", "coordinates": [ [ [ 0.0, 2.756977154809287 ], [ 0.299065715890732, 2.64053487931335 ], [ 0.342198876086045, 2.407984191623377 ], [ 0.0, 1.674291957079798 ], [ 0.0, 2.756977154809287 ] ] ] } },
{ "type": "Feature", "properties": { "LocationID": "b188", "c_1": 0.28159314539313485, "c_2": 0.43562651390888157, "c_3": 0.28278034069798352 }, "geometry": { "type": "Polygon", "coordinates": [ [ [ 0.0, 5.205938872073739 ], [ 0.665879871131595, 4.602737154839122 ], [ 0.647918882588934, 4.431429241561628 ], [ 0.0, 4.155557729918471 ], [ 0.0, 5.205938872073739 ] ] ] } },
{ "type": "Feature", "properties": { "LocationID": "c189", "c_1": 0.11725103524588076, "c_2": 0.79941679348284489, "c_3": 0.08333217127127443 }, "geometry": { "type": "Polygon", "coordinates": [ [ [ 0.0, 6.955112401902583 ], [ 0.212476234077705, 6.780144307830651 ], [ 0.367871486146897, 6.46011575181471 ], [ 0.0, 6.372036664699882 ], [ 0.0, 6.955112401902583 ] ] ] } },
{ "type": "Feature", "properties": { "LocationID": "c190", "c_1": 0.2606909987634613, "c_2": 0.71920558315980487, "c_3": 0.020103418076733937 }, "geometry": { "type": "Polygon", "coordinates": [ [ [ 0.0, 10.0 ], [ 2.272744783849935, 10.0 ], [ 1.95364025356986, 9.466454967806433 ], [ 1.48172456769094, 9.516730879151801 ], [ 1.318009321184512, 9.27654359028662 ], [ 0.633807670552785, 9.63972678112065 ], [ 0.633514485877368, 9.570869076485154 ], [ 0.205232426510948, 8.919407492426885 ], [ 0.0, 8.877696445151358 ], [ 0.0, 10.0 ] ] ] } },
{ "type": "Feature", "properties": { "LocationID": "c191", "c_1": 0.30269019320268409, "c_2": 0.67386501247374997, "c_3": 0.023444794323565898 }, "geometry": { "type": "Polygon", "coordinates": [ [ [ 9.080768799683067, 10.0 ], [ 8.941574023693416, 9.814066319619021 ], [ 8.522477719394757, 9.503144945412538 ], [ 8.250485406241273, 10.0 ], [ 9.080768799683067, 10.0 ] ] ] } },
{ "type": "Feature", "properties": { "LocationID": "c192", "c_1": 0.23013814888299794, "c_2": 0.75915180705572294, "c_3": 0.010710044061279055 }, "geometry": { "type": "Polygon", "coordinates": [ [ [ 10.0, 10.0 ], [ 10.0, 8.941727005883902 ], [ 9.605103280142623, 9.222091055046704 ], [ 9.519463219792678, 9.481044546015086 ], [ 9.402111401604492, 10.0 ], [ 10.0, 10.0 ] ] ] } },
{ "type": "Feature", "properties": { "LocationID": "b193", "c_1": 0.0014575584226319701, "c_2": 0.0096334961724761133, "c_3": 0.98890894540489194 }, "geometry": { "type": "Polygon", "coordinates": [ [ [ 10.0, 3.705740786269256 ], [ 9.955589432096581, 3.709020364501493 ], [ 9.566409592310007, 4.594340256027841 ], [ 10.0, 4.843242767367516 ], [ 10.0, 3.705740786269256 ] ] ] } },
{ "type": "Feature", "properties": { "LocationID": "a194", "c_1": 0.49035658965026202, "c_2": 0.45244741378820436, "c_3": 0.057195996561533562 }, "geometry": { "type": "Polygon", "coordinates": [ [ [ 10.0, 1.24643813044677 ], [ 9.148102349019499, 1.592873225310798 ], [ 9.357363677721745, 2.261761649404154 ], [ 9.85955077398328, 2.533009157391504 ], [ 10.0, 2.523585155928101 ], [ 10.0, 1.24643813044677 ] ] ] } },
{ "type": "Feature", "properties": { "LocationID": "a195", "c_1": 0.38009164593189604, "c_2": 0.56028957428971993, "c_3": 0.059618779778384076 }, "geometry": { "type": "Polygon", "coordinates": [ [ [ 10.0, 0.0 ], [ 8.796728785846474, 0.0 ], [ 9.13199586481525, 0.28048609870188 ], [ 10.0, 0.314413966120578 ], [ 10.0, 0.0 ] ] ] } }
]
}
