{
"type": "FeatureCollection",
"name": "U_4",
"crs": { "type": "name", "properties": { "name": "urn:ogc:def:crs:OGC:1.3:CRS84" } },
"features": [
{ "type": "Feature", "properties": { "LocationID": "a0", "c_1": 0.055211273248316567, "c_2": 0.1935558612660106, "c_3": 0.073370645030586434, "c_4": 0.67786222045508648 }, "geometry": { "type": "Polygon", "coordinates": [ [ [ 0.081537858186401, 3.372663068451166 ], [ 0.0, 3.365286232259608 ], [ 0.0, 4.1231771250668 ], [ 0.217372342635737, 4.155721071037983 ], [ 0.646458479183644, 4.027365718747082 ], [ 0.081537858186401, 3.372663068451166 ] ] ] } },
{ "type": "Feature", "properties": { "LocationID": "a1", "c_1": 0.023454835188042557, "c_2": 0.11152825994379117, "c_3": 0.029485488850744486, "c_4": 0.83553141601742176 }, "geometry": { "type": "Polygon", "coordinates": [ [ [ 0.512913101828804, 3.156820226370559 ], [ 0.081537858186401, 3.372663068451166 ], [ 0.646458479183644, 4.027365718747082 ], [ 0.902533907702958, 4.054067683345894 ], [ 1.156150497553214, 3.649437526765708 ], [ 0.512913101828804, 3.156820226370559 ] ] ] } },
{ "type": "Feature", "properties": { "LocationID": "a2", "c_1": 0.050498547748160205, "c_2": 0.0094863402034763549, "c_3": 0.9398314648473286, "c_4": 0.00018364720103487489 }, "geometry": { "type": "Polygon", "coordinates": [ [ [ 0.38173999425722, 10.0 ], [ 0.898981176673427, 10.0 ], [ 1.802857269459966, 8.874156129279797 ], [ 0.986916477445685, 8.770317787734697 ], [ 0.38173999425722, 10.0 ] ] ] } },
{ "type": "Feature", "properties": { "LocationID": "a3", "c_1": 0.068414245556294287, "c_2": 0.74734114867129786, "c_3": 0.095559339040878988, "c_4": 0.088685266731528961 }, "geometry": { "type": "Polygon", "coordinates": [ [ [ 9.040702000668276, 5.407739772637035 ], [ 9.407454340654025, 6.141927358101102 ], [ 9.925515192654554, 6.126300505361939 ], [ 9.096968288121916, 5.336473069468517 ], [ 9.040702000668276, 5.407739772637035 ] ] ] } },
{ "type": "Feature", "properties": { "LocationID": "a4", "c_1": 0.13980070164381722, "c_2": 0.66444243537522929, "c_3": 0.097706006412320051, "c_4": 0.098050856568633452 }, "geometry": { "type": "Polygon", "coordinates": [ [ [ 8.998816453960375, 5.018285022729284 ], [ 9.101666599880005, 5.329494764991075 ], [ 9.152417360032032, 5.318489693336852 ], [ 10.0, 4.661411733372907 ], [ 10.0, 3.64439138272527 ], [ 8.998816453960375, 5.018285022729284 ] ] ] } },
{ "type": "Feature", "properties": { "LocationID": "a5", "c_1": 0.083043989333826035, "c_2": 0.78491756090217335, "c_3": 0.079313997600778549, "c_4": 0.052724452163222225 }, "geometry": { "type": "Polygon", "coordinates": [ [ [ 9.096968288121916, 5.336473069468517 ], [ 9.925515192654554, 6.126300505361939 ], [ 10.0, 6.131963695176178 ], [ 10.0, 5.596017996630499 ], [ 9.152417360032032, 5.318489693336852 ], [ 9.101666599880005, 5.329494764991075 ], [ 9.096968288121916, 5.336473069468517 ] ] ] } },
{ "type": "Feature", "properties": { "LocationID": "a6", "c_1": 0.0606769014898937, "c_2": 0.77407699176431499, "c_3": 0.097596124914050092, "c_4": 0.067649981831741257 }, "geometry": { "type": "Polygon", "coordinates": [ [ [ 9.925515192654554, 6.126300505361939 ], [ 9.407454340654025, 6.141927358101102 ], [ 9.305864422923252, 6.274115255015331 ], [ 9.36632520600129, 6.536370951368629 ], [ 10.0, 6.754627562524145 ], [ 10.0, 6.131963695176178 ], [ 9.925515192654554, 6.126300505361939 ] ] ] } },
{ "type": "Feature", "properties": { "LocationID": "a7", "c_1": 0.010904871830515563, "c_2": 0.92935447786041669, "c_3": 0.052652299424174494, "c_4": 0.0070883508848932691 }, "geometry": { "type": "Polygon", "coordinates": [ [ [ 8.452829231494157, 5.729205090310529 ], [ 8.240813366567011, 5.888397092532166 ], [ 8.290583470232411, 6.057920640596769 ], [ 8.959584144617503, 6.32454066540899 ], [ 9.305864422923252, 6.274115255015331 ], [ 9.407454340654025, 6.141927358101102 ], [ 9.040702000668276, 5.407739772637035 ], [ 8.517864279682854, 5.690894397798892 ], [ 8.452829231494157, 5.729205090310529 ] ] ] } },
{ "type": "Feature", "properties": { "LocationID": "a8", "c_1": 0.0090884418549127231, "c_2": 0.01511326914201873, "c_3": 0.97579828900306853, "c_4": 0.0 }, "geometry": { "type": "Polygon", "coordinates": [ [ [ 1.59675817678731, 6.712958194782947 ], [ 1.57869878447525, 7.081614502072853 ], [ 1.743788403195283, 7.335895142275018 ], [ 2.068635130129408, 6.65428433001875 ], [ 1.952612895311739, 6.540571488132555 ], [ 1.59675817678731, 6.712958194782947 ] ] ] } },
{ "type": "Feature", "properties": { "LocationID": "a9", "c_1": 0.013524488080516667, "c_2": 0.023007497470125569, "c_3": 0.9634547433977223, "c_4": 1.327105163550925e-05 }, "geometry": { "type": "Polygon", "coordinates": [ [ [ 1.57869878447525, 7.081614502072853 ], [ 1.59675817678731, 6.712958194782947 ], [ 1.324703889277616, 6.466004833322441 ], [ 1.009642210455504, 6.937626892338974 ], [ 1.57869878447525, 7.081614502072853 ] ] ] } },
{ "type": "Feature", "properties": { "LocationID": "a10", "c_1": 0.82479912040374337, "c_2": 0.022098641314851258, "c_3": 0.075113687026227616, "c_4": 0.077988551255177771 }, "geometry": { "type": "Polygon", "coordinates": [ [ [ 9.296969136953095, 1.282913431118569 ], [ 8.98222052681853, 1.522454593802951 ], [ 8.97921474711131, 1.582792624221738 ], [ 9.163593965791989, 2.364095171840751 ], [ 9.363744632451441, 1.578496971797938 ], [ 9.296969136953095, 1.282913431118569 ] ] ] } },
{ "type": "Feature", "properties": { "LocationID": "a11", "c_1": 0.86304153441277076, "c_2": 0.015283335928802069, "c_3": 0.054869974086517247, "c_4": 0.066805155571909969 }, "geometry": { "type": "Polygon", "coordinates": [ [ [ 9.363744632451441, 1.578496971797938 ], [ 9.163593965791989, 2.364095171840751 ], [ 9.167467402231749, 2.405168332674477 ], [ 10.0, 2.799474579616824 ], [ 10.0, 2.542031786669062 ], [ 9.363744632451441, 1.578496971797938 ] ] ] } },
{ "type": "Feature", "properties": { "LocationID": "a12", "c_1": 0.77858010118330234, "c_2": 0.088895885704634928, "c_3": 0.076687684900186057, "c_4": 0.055836328211876632 }, "geometry": { "type": "Polygon", "coordinates": [ [ [ 9.343701562663178, 1.208690064585798 ], [ 8.985005033008635, 0.753810588247369 ], [ 8.665529492552835, 0.640732235832982 ], [ 8.034667146783281, 0.862644115415195 ], [ 8.019379716454814, 0.918953444787234 ], [ 8.254217497717679, 1.383969663885093 ], [ 8.98222052681853, 1.522454593802951 ], [ 9.296969136953095, 1.282913431118569 ], [ 9.343701562663178, 1.208690064585798 ] ] ] } },
{ "type": "Feature", "properties": { "LocationID": "a13", "c_1": 0.84038053831632653, "c_2": 0.0027836199301139409, "c_3": 0.054549027972363613, "c_4": 0.10228681378119597 }, "geometry": { "type": "Polygon", "coordinates": [ [ [ 8.907989006692166, 2.40746523571599 ], [ 8.717808534100474, 1.862846588483205 ], [ 8.251318973911589, 1.651512561882905 ], [ 8.156053143032908, 2.041627599162848 ], [ 8.235178746442985, 2.49892609341458 ], [ 8.887075103449835, 2.412073925143403 ], [ 8.907989006692166, 2.40746523571599 ] ] ] } },
{ "type": "Feature", "properties": { "LocationID": "a14", "c_1": 0.76253606275474695, "c_2": 0.079831703843898399, "c_3": 0.061698472784654325, "c_4": 0.095933760616700475 }, "geometry": { "type": "Polygon", "coordinates": [ [ [ 8.717808534100474, 1.862846588483205 ], [ 8.97921474711131, 1.582792624221738 ], [ 8.98222052681853, 1.522454593802951 ], [ 8.254217497717679, 1.383969663885093 ], [ 8.251318973911589, 1.651512561882905 ], [ 8.717808534100474, 1.862846588483205 ] ] ] } },
{ "type": "Feature", "properties": { "LocationID": "a15", "c_1": 0.80222428411957669, "c_2": 0.042450214274544075, "c_3": 0.082103095131101589, "c_4": 0.073222406474777735 }, "geometry": { "type": "Polygon", "coordinates": [ [ [ 9.167467402231749, 2.405168332674477 ], [ 9.163593965791989, 2.364095171840751 ], [ 8.97921474711131, 1.582792624221738 ], [ 8.717808534100474, 1.862846588483205 ], [ 8.907989006692166, 2.40746523571599 ], [ 9.167467402231749, 2.405168332674477 ] ] ] } },
{ "type": "Feature", "properties": { "LocationID": "a16", "c_1": 0.95113549033358169, "c_2": 0.0019360554719023771, "c_3": 0.046735437151939035, "c_4": 0.00019301704257690847 }, "geometry": { "type": "Polygon", "coordinates": [ [ [ 8.235178746442985, 2.49892609341458 ], [ 7.883078102984282, 2.949692096745813 ], [ 8.588173043438465, 3.839589776724509 ], [ 8.663543762713347, 3.820826318955633 ], [ 8.887075103449835, 2.412073925143403 ], [ 8.235178746442985, 2.49892609341458 ] ] ] } },
{ "type": "Feature", "properties": { "LocationID": "a17", "c_1": 0.92140183394601671, "c_2": 3.1707211998636175e-05, "c_3": 0.077223759877741646, "c_4": 0.001342698964243014 }, "geometry": { "type": "Polygon", "coordinates": [ [ [ 7.291505744517838, 1.784156238351714 ], [ 7.218018232577229, 2.098314796720809 ], [ 7.740186755413378, 2.949114554103785 ], [ 7.883078102984282, 2.949692096745813 ], [ 8.235178746442985, 2.49892609341458 ], [ 8.156053143032908, 2.041627599162848 ], [ 7.291505744517838, 1.784156238351714 ] ] ] } },
{ "type": "Feature", "properties": { "LocationID": "a18", "c_1": 0.80881089112699611, "c_2": 0.027646047248552949, "c_3": 0.091969540122899165, "c_4": 0.071573521501551801 }, "geometry": { "type": "Polygon", "coordinates": [ [ [ 8.254217497717679, 1.383969663885093 ], [ 8.019379716454814, 0.918953444787234 ], [ 7.231536010898594, 1.416616240665942 ], [ 7.291505744517838, 1.784156238351714 ], [ 8.156053143032908, 2.041627599162848 ], [ 8.251318973911589, 1.651512561882905 ], [ 8.254217497717679, 1.383969663885093 ] ] ] } },
{ "type": "Feature", "properties": { "LocationID": "a19", "c_1": 0.81311919903417185, "c_2": 0.07879686869877725, "c_3": 0.033857486784607156, "c_4": 0.074226445482443781 }, "geometry": { "type": "Polygon", "coordinates": [ [ [ 8.663543762713347, 3.820826318955633 ], [ 10.0, 3.560790766800257 ], [ 10.0, 2.799474579616824 ], [ 9.167467402231749, 2.405168332674477 ], [ 8.907989006692166, 2.40746523571599 ], [ 8.887075103449835, 2.412073925143403 ], [ 8.663543762713347, 3.820826318955633 ] ] ] } },
{ "type": "Feature", "properties": { "LocationID": "a20", "c_1": 0.021794241104746828, "c_2": 0.89302377156144275, "c_3": 0.083716096169099127, "c_4": 0.001465891164711324 }, "geometry": { "type": "Polygon", "coordinates": [ [ [ 8.997661415690652, 7.373202844526097 ], [ 9.335613787049741, 6.891809296195827 ], [ 9.309329471035522, 6.628111574771215 ], [ 9.028888371737423, 6.668734728930071 ], [ 8.726943133792002, 7.223257554374216 ], [ 8.997661415690652, 7.373202844526097 ] ] ] } },
{ "type": "Feature", "properties": { "LocationID": "a21", "c_1": 0.045654874026264627, "c_2": 0.80232326894921024, "c_3": 0.065493022535553835, "c_4": 0.086528834488971182 }, "geometry": { "type": "Polygon", "coordinates": [ [ [ 10.0, 6.769828584107032 ], [ 10.0, 6.754627562524145 ], [ 9.36632520600129, 6.536370951368629 ], [ 9.309329471035522, 6.628111574771215 ], [ 9.335613787049741, 6.891809296195827 ], [ 10.0, 6.769828584107032 ] ] ] } },
{ "type": "Feature", "properties": { "LocationID": "a22", "c_1": 0.037246807912671404, "c_2": 0.80241256705185671, "c_3": 0.097374613134729796, "c_4": 0.062966011900742067 }, "geometry": { "type": "Polygon", "coordinates": [ [ [ 9.309329471035522, 6.628111574771215 ], [ 9.36632520600129, 6.536370951368629 ], [ 9.305864422923252, 6.274115255015331 ], [ 8.959584144617503, 6.32454066540899 ], [ 9.028888371737423, 6.668734728930071 ], [ 9.309329471035522, 6.628111574771215 ] ] ] } },
{ "type": "Feature", "properties": { "LocationID": "a23", "c_1": 0.017311235388362992, "c_2": 0.89896564135844415, "c_3": 0.083271996817493754, "c_4": 0.00045112643569906921 }, "geometry": { "type": "Polygon", "coordinates": [ [ [ 9.270644780554305, 7.671145010188154 ], [ 10.0, 7.38530381906824 ], [ 10.0, 6.769828584107032 ], [ 9.335613787049741, 6.891809296195827 ], [ 8.997661415690652, 7.373202844526097 ], [ 9.270644780554305, 7.671145010188154 ] ] ] } },
{ "type": "Feature", "properties": { "LocationID": "a24", "c_1": 0.01183916944366015, "c_2": 0.92551894076005603, "c_3": 0.062563800679695844, "c_4": 7.8089116587963368e-05 }, "geometry": { "type": "Polygon", "coordinates": [ [ [ 9.028888371737423, 6.668734728930071 ], [ 8.959584144617503, 6.32454066540899 ], [ 8.290583470232411, 6.057920640596769 ], [ 8.220929839013456, 6.912046452489368 ], [ 8.220626699690774, 6.968507018741692 ], [ 8.327085366943797, 7.130036407804771 ], [ 8.726943133792002, 7.223257554374216 ], [ 9.028888371737423, 6.668734728930071 ] ] ] } },
{ "type": "Feature", "properties": { "LocationID": "a25", "c_1": 0.027931064390330405, "c_2": 0.92911471485139352, "c_3": 0.039507160999852624, "c_4": 0.0034470597584234926 }, "geometry": { "type": "Polygon", "coordinates": [ [ [ 9.229610681840038, 8.910737710784957 ], [ 9.971516201743077, 8.496017299390136 ], [ 9.241792997748208, 7.922829308495132 ], [ 8.669800683469411, 8.66256815855302 ], [ 8.717463935043304, 8.772056034852902 ], [ 9.229610681840038, 8.910737710784957 ] ] ] } },
{ "type": "Feature", "properties": { "LocationID": "a26", "c_1": 0.047292200516298864, "c_2": 0.73989965913151279, "c_3": 0.07672410481093063, "c_4": 0.13608403554125773 }, "geometry": { "type": "Polygon", "coordinates": [ [ [ 10.0, 9.331094826166966 ], [ 10.0, 8.503726059438595 ], [ 9.971516201743077, 8.496017299390136 ], [ 9.229610681840038, 8.910737710784957 ], [ 9.724262709973782, 9.346678540505337 ], [ 10.0, 9.331094826166966 ] ] ] } },
{ "type": "Feature", "properties": { "LocationID": "a27", "c_1": 0.021960468460951277, "c_2": 0.94636999935020349, "c_3": 0.030603768996375451, "c_4": 0.001065763192469818 }, "geometry": { "type": "Polygon", "coordinates": [ [ [ 7.498650321243772, 6.304108723550148 ], [ 7.270135203243306, 6.250478409450108 ], [ 7.284207602478609, 6.769758568988178 ], [ 7.4679474397085, 6.456200458631357 ], [ 7.498650321243772, 6.304108723550148 ] ] ] } },
{ "type": "Feature", "properties": { "LocationID": "a28", "c_1": 0.029100026081356936, "c_2": 0.92485420974558774, "c_3": 0.0344976199148114, "c_4": 0.011548144258243997 }, "geometry": { "type": "Polygon", "coordinates": [ [ [ 7.270135203243306, 6.250478409450108 ], [ 7.049547805768268, 6.16147047763051 ], [ 7.079468536050177, 6.860759677151805 ], [ 7.262130942954243, 6.81528074425777 ], [ 7.284207602478609, 6.769758568988178 ], [ 7.270135203243306, 6.250478409450108 ] ] ] } },
{ "type": "Feature", "properties": { "LocationID": "a29", "c_1": 0.0068298325540915999, "c_2": 0.96461923811999495, "c_3": 0.028496539920567329, "c_4": 5.4389405346260806e-05 }, "geometry": { "type": "Polygon", "coordinates": [ [ [ 8.220929839013456, 6.912046452489368 ], [ 8.290583470232411, 6.057920640596769 ], [ 8.240813366567011, 5.888397092532166 ], [ 8.169334502773046, 5.855580336818784 ], [ 7.498650321243772, 6.304108723550148 ], [ 7.4679474397085, 6.456200458631357 ], [ 8.220929839013456, 6.912046452489368 ] ] ] } },
{ "type": "Feature", "properties": { "LocationID": "a30", "c_1": 0.026381672528278496, "c_2": 0.93872281743920283, "c_3": 0.033388028803598056, "c_4": 0.0015074812289206786 }, "geometry": { "type": "Polygon", "coordinates": [ [ [ 7.284207602478609, 6.769758568988178 ], [ 7.262130942954243, 6.81528074425777 ], [ 7.936479135338987, 6.983372564000502 ], [ 8.220626699690774, 6.968507018741692 ], [ 8.220929839013456, 6.912046452489368 ], [ 7.4679474397085, 6.456200458631357 ], [ 7.284207602478609, 6.769758568988178 ] ] ] } },
{ "type": "Feature", "properties": { "LocationID": "a31", "c_1": 0.11781406068145493, "c_2": 0.75590333662385556, "c_3": 0.063213496465359648, "c_4": 0.063069106229329819 }, "geometry": { "type": "Polygon", "coordinates": [ [ [ 4.374864947247203, 2.072260364189868 ], [ 4.551543006736869, 2.513683908438996 ], [ 4.612599477494105, 2.591181715331488 ], [ 5.123510210776377, 2.592467975976802 ], [ 4.828019371382462, 1.759508657423547 ], [ 4.374864947247203, 2.072260364189868 ] ] ] } },
{ "type": "Feature", "properties": { "LocationID": "a32", "c_1": 0.068266130024996305, "c_2": 0.85022798661991128, "c_3": 0.072116208079128927, "c_4": 0.0093896752759635386 }, "geometry": { "type": "Polygon", "coordinates": [ [ [ 7.697546384521695, 5.448852898500035 ], [ 8.350781920722655, 4.726726550334646 ], [ 8.459568396617867, 4.516560667928831 ], [ 8.531733804176318, 4.358851265016663 ], [ 8.467773801307315, 4.075796932201336 ], [ 7.912410328728561, 4.283016817123299 ], [ 7.455887832655784, 5.323895951073751 ], [ 7.697546384521695, 5.448852898500035 ] ] ] } },
{ "type": "Feature", "properties": { "LocationID": "a33", "c_1": 0.28973178799770527, "c_2": 0.57763711648581229, "c_3": 0.07515584330673987, "c_4": 0.057475252209742603 }, "geometry": { "type": "Polygon", "coordinates": [ [ [ 8.998816453960375, 5.018285022729284 ], [ 10.0, 3.64439138272527 ], [ 10.0, 3.560790766800257 ], [ 8.663543762713347, 3.820826318955633 ], [ 8.588173043438465, 3.839589776724509 ], [ 8.467773801307315, 4.075796932201336 ], [ 8.531733804176318, 4.358851265016663 ], [ 8.998816453960375, 5.018285022729284 ] ] ] } },
{ "type": "Feature", "properties": { "LocationID": "a34", "c_1": 0.048496174408474972, "c_2": 0.79642692813780169, "c_3": 0.06922340569652366, "c_4": 0.085853491757199737 }, "geometry": { "type": "Polygon", "coordinates": [ [ [ 8.517864279682854, 5.690894397798892 ], [ 9.040702000668276, 5.407739772637035 ], [ 9.096968288121916, 5.336473069468517 ], [ 9.101666599880005, 5.329494764991075 ], [ 8.998816453960375, 5.018285022729284 ], [ 8.531733804176318, 4.358851265016663 ], [ 8.459568396617867, 4.516560667928831 ], [ 8.517864279682854, 5.690894397798892 ] ] ] } },
{ "type": "Feature", "properties": { "LocationID": "a35", "c_1": 0.036671168370430662, "c_2": 0.81341096684026881, "c_3": 0.086073159071521507, "c_4": 0.06384470571777906 }, "geometry": { "type": "Polygon", "coordinates": [ [ [ 8.452829231494157, 5.729205090310529 ], [ 8.517864279682854, 5.690894397798892 ], [ 8.459568396617867, 4.516560667928831 ], [ 8.350781920722655, 4.726726550334646 ], [ 8.452829231494157, 5.729205090310529 ] ] ] } },
{ "type": "Feature", "properties": { "LocationID": "a36", "c_1": 0.013570947314334936, "c_2": 0.88615350320199693, "c_3": 0.091217581847271897, "c_4": 0.0090579676363961841 }, "geometry": { "type": "Polygon", "coordinates": [ [ [ 8.169334502773046, 5.855580336818784 ], [ 8.240813366567011, 5.888397092532166 ], [ 8.452829231494157, 5.729205090310529 ], [ 8.350781920722655, 4.726726550334646 ], [ 7.697546384521695, 5.448852898500035 ], [ 8.169334502773046, 5.855580336818784 ] ] ] } },
{ "type": "Feature", "properties": { "LocationID": "a37", "c_1": 0.014212342510689055, "c_2": 0.016830802259008834, "c_3": 0.96820575801127673, "c_4": 0.00075109721902534988 }, "geometry": { "type": "Polygon", "coordinates": [ [ [ 0.699730064509409, 7.479834132515156 ], [ 0.756618752095556, 7.868447279084974 ], [ 1.546992640393527, 7.483544945959749 ], [ 0.818074316956098, 7.162947387294579 ], [ 0.734729676644092, 7.302049944446293 ], [ 0.699730064509409, 7.479834132515156 ] ] ] } },
{ "type": "Feature", "properties": { "LocationID": "a38", "c_1": 0.018787143977783128, "c_2": 0.012568396362459662, "c_3": 0.96283637998300853, "c_4": 0.0058080796767486917 }, "geometry": { "type": "Polygon", "coordinates": [ [ [ 0.756618752095556, 7.868447279084974 ], [ 0.737273641192808, 7.94582575521084 ], [ 1.422388020870367, 8.159897200696676 ], [ 1.615598595507264, 7.472827213957701 ], [ 1.546992640393527, 7.483544945959749 ], [ 0.756618752095556, 7.868447279084974 ] ] ] } },
{ "type": "Feature", "properties": { "LocationID": "a39", "c_1": 0.026534492308765374, "c_2": 0.023430490923089627, "c_3": 0.94863586920418697, "c_4": 0.001399147563958101 }, "geometry": { "type": "Polygon", "coordinates": [ [ [ 0.366770686566344, 7.430368047099133 ], [ 0.0, 7.786407714275728 ], [ 0.0, 8.374084686173859 ], [ 0.448491937530382, 8.264575372706059 ], [ 0.737273641192808, 7.94582575521084 ], [ 0.756618752095556, 7.868447279084974 ], [ 0.699730064509409, 7.479834132515156 ], [ 0.366770686566344, 7.430368047099133 ] ] ] } },
{ "type": "Feature", "properties": { "LocationID": "a40", "c_1": 0.010306090903846049, "c_2": 0.013804647784387109, "c_3": 0.9758892613117669, "c_4": 0.0 }, "geometry": { "type": "Polygon", "coordinates": [ [ [ 1.546992640393527, 7.483544945959749 ], [ 1.615598595507264, 7.472827213957701 ], [ 1.760036189600119, 7.385178547217977 ], [ 1.743788403195283, 7.335895142275018 ], [ 1.57869878447525, 7.081614502072853 ], [ 1.009642210455504, 6.937626892338974 ], [ 0.862547869672169, 6.990463790137554 ], [ 0.818074316956098, 7.162947387294579 ], [ 1.546992640393527, 7.483544945959749 ] ] ] } },
{ "type": "Feature", "properties": { "LocationID": "a41", "c_1": 0.034377656195615849, "c_2": 0.15085447672816682, "c_3": 0.47869723311424422, "c_4": 0.33607063396197301 }, "geometry": { "type": "Polygon", "coordinates": [ [ [ 2.509484151263495, 6.104100479896619 ], [ 2.69651850017152, 6.343270570897673 ], [ 3.303479233341594, 5.813834911379987 ], [ 2.535575277379593, 5.760104982815714 ], [ 2.509484151263495, 6.104100479896619 ] ] ] } },
{ "type": "Feature", "properties": { "LocationID": "a42", "c_1": 0.04100388402284199, "c_2": 0.203778773344967, "c_3": 0.28392949815095259, "c_4": 0.47128784448123828 }, "geometry": { "type": "Polygon", "coordinates": [ [ [ 3.303479233341594, 5.813834911379987 ], [ 3.418567053090767, 5.763636076286391 ], [ 3.461468272795681, 5.399970849036269 ], [ 2.885111636718095, 5.076308592198781 ], [ 2.614756696884275, 5.204781046995694 ], [ 2.518097964194508, 5.697090327864873 ], [ 2.535575277379593, 5.760104982815714 ], [ 3.303479233341594, 5.813834911379987 ] ] ] } },
{ "type": "Feature", "properties": { "LocationID": "a43", "c_1": 0.04769401543804682, "c_2": 0.17393871538510383, "c_3": 0.12702820087127978, "c_4": 0.65133906830556954 }, "geometry": { "type": "Polygon", "coordinates": [ [ [ 0.902533907702958, 4.054067683345894 ], [ 0.646458479183644, 4.027365718747082 ], [ 0.217372342635737, 4.155721071037983 ], [ 0.185260162758971, 4.876054134801139 ], [ 1.142920280304828, 4.994948438120423 ], [ 0.902533907702958, 4.054067683345894 ] ] ] } },
{ "type": "Feature", "properties": { "LocationID": "a44", "c_1": 0.026878335404566689, "c_2": 0.045802487124228651, "c_3": 0.92192104653384288, "c_4": 0.0053981309373618124 }, "geometry": { "type": "Polygon", "coordinates": [ [ [ 0.366770686566344, 7.430368047099133 ], [ 0.699730064509409, 7.479834132515156 ], [ 0.734729676644092, 7.302049944446293 ], [ 0.0, 6.977938033946436 ], [ 0.0, 7.318847234516164 ], [ 0.366770686566344, 7.430368047099133 ] ] ] } },
{ "type": "Feature", "properties": { "LocationID": "a45", "c_1": 0.019930564788113787, "c_2": 0.10982054897173017, "c_3": 0.058649380001007043, "c_4": 0.81159950623914889 }, "geometry": { "type": "Polygon", "coordinates": [ [ [ 1.335195324411504, 5.100102155245257 ], [ 1.745783877878899, 4.917727916584631 ], [ 2.078884847827842, 4.346576386398377 ], [ 1.221466027510547, 3.606761634441982 ], [ 1.156150497553214, 3.649437526765708 ], [ 0.902533907702958, 4.054067683345894 ], [ 1.142920280304828, 4.994948438120423 ], [ 1.209966208799046, 5.077390831821469 ], [ 1.335195324411504, 5.100102155245257 ] ] ] } },
{ "type": "Feature", "properties": { "LocationID": "a46", "c_1": 0.036863029588529064, "c_2": 0.0093471196283088278, "c_3": 0.95161257397678134, "c_4": 0.0021772768063808186 }, "geometry": { "type": "Polygon", "coordinates": [ [ [ 1.422388020870367, 8.159897200696676 ], [ 0.737273641192808, 7.94582575521084 ], [ 0.448491937530382, 8.264575372706059 ], [ 0.986916477445685, 8.770317787734697 ], [ 1.802857269459966, 8.874156129279797 ], [ 1.949854215681372, 8.818443415011345 ], [ 1.977803668105141, 8.779602566812606 ], [ 1.422388020870367, 8.159897200696676 ] ] ] } },
{ "type": "Feature", "properties": { "LocationID": "a47", "c_1": 0.036453718719862062, "c_2": 0.48055467779893135, "c_3": 0.05569267185146129, "c_4": 0.4272989316297453 }, "geometry": { "type": "Polygon", "coordinates": [ [ [ 9.724262709973782, 9.346678540505337 ], [ 9.229610681840038, 8.910737710784957 ], [ 8.717463935043304, 8.772056034852902 ], [ 8.579564371708939, 9.762718714877996 ], [ 8.662706575087356, 10.0 ], [ 9.06624629349332, 10.0 ], [ 9.724262709973782, 9.346678540505337 ] ] ] } },
{ "type": "Feature", "properties": { "LocationID": "a48", "c_1": 0.064871203943000944, "c_2": 0.59702879238832107, "c_3": 0.065387445253096199, "c_4": 0.27271255841558173 }, "geometry": { "type": "Polygon", "coordinates": [ [ [ 10.0, 9.544767559101595 ], [ 10.0, 9.331094826166966 ], [ 9.724262709973782, 9.346678540505337 ], [ 9.06624629349332, 10.0 ], [ 9.609377599773646, 10.0 ], [ 10.0, 9.544767559101595 ] ] ] } },
{ "type": "Feature", "properties": { "LocationID": "a49", "c_1": 0.017545908761821327, "c_2": 0.1434898229666457, "c_3": 0.085596806654593474, "c_4": 0.75336746161693957 }, "geometry": { "type": "Polygon", "coordinates": [ [ [ 3.461468272795681, 5.399970849036269 ], [ 3.418567053090767, 5.763636076286391 ], [ 3.568751781736921, 6.038540528389364 ], [ 4.122815665573103, 5.863012725519581 ], [ 3.566066860085749, 5.341190491438753 ], [ 3.461468272795681, 5.399970849036269 ] ] ] } },
{ "type": "Feature", "properties": { "LocationID": "a50", "c_1": 0.014587498452829997, "c_2": 0.43797441123212677, "c_3": 0.018144886621614231, "c_4": 0.52929320369342892 }, "geometry": { "type": "Polygon", "coordinates": [ [ [ 5.94327931790315, 6.598218411070454 ], [ 6.032763859938335, 6.227215743736225 ], [ 5.84937306214808, 5.957014726875659 ], [ 5.68411594395314, 5.853877153844322 ], [ 5.94327931790315, 6.598218411070454 ] ] ] } },
{ "type": "Feature", "properties": { "LocationID": "a51", "c_1": 0.25499562166820905, "c_2": 0.57917032929114709, "c_3": 0.090329047833267812, "c_4": 0.075505001207376188 }, "geometry": { "type": "Polygon", "coordinates": [ [ [ 4.594151520085886, 0.769831259028605 ], [ 4.312473052376888, 1.016997721512205 ], [ 4.829933730634413, 1.753807276084364 ], [ 5.677001584515033, 1.457916909304023 ], [ 5.822437125458606, 0.94014356381092 ], [ 4.594151520085886, 0.769831259028605 ] ] ] } },
{ "type": "Feature", "properties": { "LocationID": "a52", "c_1": 0.80221687473192982, "c_2": 0.050016967140200333, "c_3": 0.072690407021011844, "c_4": 0.075075751106858116 }, "geometry": { "type": "Polygon", "coordinates": [ [ [ 6.791592206636015, 1.265888496175602 ], [ 7.231536010898594, 1.416616240665942 ], [ 8.019379716454814, 0.918953444787234 ], [ 8.034667146783281, 0.862644115415195 ], [ 7.608772390476848, 0.086907758151728 ], [ 6.269530292981578, 0.80649358585831 ], [ 6.791592206636015, 1.265888496175602 ] ] ] } },
{ "type": "Feature", "properties": { "LocationID": "a53", "c_1": 0.37524979057719104, "c_2": 0.48902882476455362, "c_3": 0.0786342256510104, "c_4": 0.057087159007245029 }, "geometry": { "type": "Polygon", "coordinates": [ [ [ 6.0036604153274, 0.531405132209532 ], [ 4.594126165488301, 0.143166528041052 ], [ 4.594151520085886, 0.769831259028605 ], [ 5.822437125458606, 0.94014356381092 ], [ 6.038014007953834, 0.744547504742962 ], [ 6.0036604153274, 0.531405132209532 ] ] ] } },
{ "type": "Feature", "properties": { "LocationID": "a54", "c_1": 0.33203711211516873, "c_2": 0.62363448468051563, "c_3": 0.015020114156662016, "c_4": 0.029308289047653709 }, "geometry": { "type": "Polygon", "coordinates": [ [ [ 6.228371169837381, 3.041295519396825 ], [ 5.630985670259357, 3.532513650157971 ], [ 6.371143445928832, 3.557106537164362 ], [ 6.383836701315009, 3.554920020488535 ], [ 6.540667452793735, 3.325009955497904 ], [ 6.228371169837381, 3.041295519396825 ] ] ] } },
{ "type": "Feature", "properties": { "LocationID": "a55", "c_1": 0.49533322241453243, "c_2": 0.47414266559097712, "c_3": 0.012070591832461813, "c_4": 0.018453520162028659 }, "geometry": { "type": "Polygon", "coordinates": [ [ [ 6.824485263076975, 3.117404939868596 ], [ 6.540667452793735, 3.325009955497904 ], [ 6.383836701315009, 3.554920020488535 ], [ 6.752426423871232, 3.803277454651739 ], [ 7.036308774557305, 3.100073032850941 ], [ 6.824485263076975, 3.117404939868596 ] ] ] } },
{ "type": "Feature", "properties": { "LocationID": "a56", "c_1": 0.94140420090930121, "c_2": 0.0092827807420798967, "c_3": 0.042661773054438648, "c_4": 0.0066512452941803113 }, "geometry": { "type": "Polygon", "coordinates": [ [ [ 7.52047778073842, 3.062562114591404 ], [ 7.740186755413378, 2.949114554103785 ], [ 7.218018232577229, 2.098314796720809 ], [ 6.590180769750956, 2.308787616217821 ], [ 7.121821069908155, 3.062560296532121 ], [ 7.52047778073842, 3.062562114591404 ] ] ] } },
{ "type": "Feature", "properties": { "LocationID": "a57", "c_1": 0.0063667802001880517, "c_2": 0.97737675781726518, "c_3": 0.016079642972402317, "c_4": 0.00017681901014448943 }, "geometry": { "type": "Polygon", "coordinates": [ [ [ 7.049547805768268, 6.16147047763051 ], [ 7.270135203243306, 6.250478409450108 ], [ 7.498650321243772, 6.304108723550148 ], [ 8.169334502773046, 5.855580336818784 ], [ 7.697546384521695, 5.448852898500035 ], [ 7.455887832655784, 5.323895951073751 ], [ 7.097190336511241, 5.310544577721978 ], [ 6.868024571562959, 5.889134722851527 ], [ 7.049547805768268, 6.16147047763051 ] ] ] } },
{ "type": "Feature", "properties": { "LocationID": "a58", "c_1": 0.010647185151114529, "c_2": 0.73114807341130583, "c_3": 0.0073297584105606051, "c_4": 0.25087498302701916 }, "geometry": { "type": "Polygon", "coordinates": [ [ [ 5.976110380298382, 5.435839197445135 ], [ 5.655616169143236, 5.828112075864685 ], [ 5.68411594395314, 5.853877153844322 ], [ 5.84937306214808, 5.957014726875659 ], [ 6.370889594217818, 6.008455008675795 ], [ 5.976110380298382, 5.435839197445135 ] ] ] } },
{ "type": "Feature", "properties": { "LocationID": "a59", "c_1": 0.032669286415638085, "c_2": 0.74628202292901902, "c_3": 0.032528318000192145, "c_4": 0.18852037265515079 }, "geometry": { "type": "Polygon", "coordinates": [ [ [ 6.430523812266072, 6.762033287208002 ], [ 6.586945681959786, 6.913681950238191 ], [ 7.069311301497619, 6.868589930434627 ], [ 7.079468536050177, 6.860759677151805 ], [ 7.049547805768268, 6.16147047763051 ], [ 6.868024571562959, 5.889134722851527 ], [ 6.587234063497976, 6.088618450747521 ], [ 6.430523812266072, 6.762033287208002 ] ] ] } },
{ "type": "Feature", "properties": { "LocationID": "a60", "c_1": 0.027704033825786283, "c_2": 0.56467415502574969, "c_3": 0.031905302508809776, "c_4": 0.37571650863965428 }, "geometry": { "type": "Polygon", "coordinates": [ [ [ 6.032763859938335, 6.227215743736225 ], [ 5.94327931790315, 6.598218411070454 ], [ 5.935974537439808, 6.736637018725451 ], [ 6.430523812266072, 6.762033287208002 ], [ 6.587234063497976, 6.088618450747521 ], [ 6.406245352516493, 6.034034855149233 ], [ 6.032763859938335, 6.227215743736225 ] ] ] } },
{ "type": "Feature", "properties": { "LocationID": "a61", "c_1": 0.018750785757503177, "c_2": 0.48758161550341417, "c_3": 0.022244375509304484, "c_4": 0.47142322322977825 }, "geometry": { "type": "Polygon", "coordinates": [ [ [ 5.84937306214808, 5.957014726875659 ], [ 6.032763859938335, 6.227215743736225 ], [ 6.406245352516493, 6.034034855149233 ], [ 6.370889594217818, 6.008455008675795 ], [ 5.84937306214808, 5.957014726875659 ] ] ] } },
{ "type": "Feature", "properties": { "LocationID": "a62", "c_1": 0.045127539121652106, "c_2": 0.12266830019413193, "c_3": 0.70571507774952114, "c_4": 0.12648908293469488 }, "geometry": { "type": "Polygon", "coordinates": [ [ [ 2.201990310186296, 6.141325582565131 ], [ 2.509484151263495, 6.104100479896619 ], [ 2.535575277379593, 5.760104982815714 ], [ 2.518097964194508, 5.697090327864873 ], [ 2.089025428690131, 5.68420341711909 ], [ 2.143786199426819, 6.083908182451925 ], [ 2.201990310186296, 6.141325582565131 ] ] ] } },
{ "type": "Feature", "properties": { "LocationID": "a63", "c_1": 0.039421496337272453, "c_2": 0.11423689835429889, "c_3": 0.71337166831745547, "c_4": 0.13296993699097315 }, "geometry": { "type": "Polygon", "coordinates": [ [ [ 1.461358250941404, 5.321902259791173 ], [ 1.397189757660533, 6.303678629437298 ], [ 1.721467481530218, 6.228792813896037 ], [ 1.778105434715817, 5.86481800557122 ], [ 1.661680155676204, 5.547073219764973 ], [ 1.461358250941404, 5.321902259791173 ] ] ] } },
{ "type": "Feature", "properties": { "LocationID": "a64", "c_1": 0.034293869028994166, "c_2": 0.079764574817658515, "c_3": 0.8614227183822184, "c_4": 0.024518837771128971 }, "geometry": { "type": "Polygon", "coordinates": [ [ [ 1.721467481530218, 6.228792813896037 ], [ 1.945457418741872, 6.399392075898142 ], [ 2.201990310186296, 6.141325582565131 ], [ 2.143786199426819, 6.083908182451925 ], [ 1.778105434715817, 5.86481800557122 ], [ 1.721467481530218, 6.228792813896037 ] ] ] } },
{ "type": "Feature", "properties": { "LocationID": "a65", "c_1": 0.022871637517725009, "c_2": 0.049024651905635916, "c_3": 0.9279031870291341, "c_4": 0.00020052354750507535 }, "geometry": { "type": "Polygon", "coordinates": [ [ [ 1.30964121405219, 6.387625764013269 ], [ 1.324703889277616, 6.466004833322441 ], [ 1.59675817678731, 6.712958194782947 ], [ 1.952612895311739, 6.540571488132555 ], [ 1.945457418741872, 6.399392075898142 ], [ 1.721467481530218, 6.228792813896037 ], [ 1.397189757660533, 6.303678629437298 ], [ 1.30964121405219, 6.387625764013269 ] ] ] } },
{ "type": "Feature", "properties": { "LocationID": "a66", "c_1": 0.046586442654705434, "c_2": 0.11614370522431794, "c_3": 0.72458875841849668, "c_4": 0.11268109370248001 }, "geometry": { "type": "Polygon", "coordinates": [ [ [ 1.778105434715817, 5.86481800557122 ], [ 2.143786199426819, 6.083908182451925 ], [ 2.089025428690131, 5.68420341711909 ], [ 1.661680155676204, 5.547073219764973 ], [ 1.778105434715817, 5.86481800557122 ] ] ] } },
{ "type": "Feature", "properties": { "LocationID": "a67", "c_1": 0.050325428492873837, "c_2": 0.1651065913255462, "c_3": 0.40463522304928834, "c_4": 0.37993275713229169 }, "geometry": { "type": "Polygon", "coordinates": [ [ [ 2.089025428690131, 5.68420341711909 ], [ 2.518097964194508, 5.697090327864873 ], [ 2.614756696884275, 5.204781046995694 ], [ 1.745783877878899, 4.917727916584631 ], [ 1.335195324411504, 5.100102155245257 ], [ 1.461358250941404, 5.321902259791173 ], [ 1.661680155676204, 5.547073219764973 ], [ 2.089025428690131, 5.68420341711909 ] ] ] } },
{ "type": "Feature", "properties": { "LocationID": "a68", "c_1": 0.040793591841917318, "c_2": 0.10548928465166889, "c_3": 0.84519049624532738, "c_4": 0.0085266272610863732 }, "geometry": { "type": "Polygon", "coordinates": [ [ [ 0.654970597756199, 6.708457058851818 ], [ 1.188400898861433, 6.331332952110919 ], [ 0.642206619782155, 5.814386195107701 ], [ 0.0, 6.164881018340783 ], [ 0.0, 6.182552589450271 ], [ 0.654970597756199, 6.708457058851818 ] ] ] } },
{ "type": "Feature", "properties": { "LocationID": "a69", "c_1": 0.037877146049437253, "c_2": 0.11561487556300896, "c_3": 0.66782697881396713, "c_4": 0.17868099957358671 }, "geometry": { "type": "Polygon", "coordinates": [ [ [ 1.188400898861433, 6.331332952110919 ], [ 1.30964121405219, 6.387625764013269 ], [ 1.397189757660533, 6.303678629437298 ], [ 1.461358250941404, 5.321902259791173 ], [ 1.335195324411504, 5.100102155245257 ], [ 1.209966208799046, 5.077390831821469 ], [ 0.642206619782155, 5.814386195107701 ], [ 1.188400898861433, 6.331332952110919 ] ] ] } },
{ "type": "Feature", "properties": { "LocationID": "a70", "c_1": 0.024674127774830346, "c_2": 0.052934817556139713, "c_3": 0.92219638096519285, "c_4": 0.00019467370383706667 }, "geometry": { "type": "Polygon", "coordinates": [ [ [ 0.862547869672169, 6.990463790137554 ], [ 1.009642210455504, 6.937626892338974 ], [ 1.324703889277616, 6.466004833322441 ], [ 1.30964121405219, 6.387625764013269 ], [ 1.188400898861433, 6.331332952110919 ], [ 0.654970597756199, 6.708457058851818 ], [ 0.862547869672169, 6.990463790137554 ] ] ] } },
{ "type": "Feature", "properties": { "LocationID": "a71", "c_1": 0.062925947247689018, "c_2": 0.20063305907915177, "c_3": 0.38665125400245326, "c_4": 0.34978973967070592 }, "geometry": { "type": "Polygon", "coordinates": [ [ [ 0.642206619782155, 5.814386195107701 ], [ 1.209966208799046, 5.077390831821469 ], [ 1.142920280304828, 4.994948438120423 ], [ 0.185260162758971, 4.876054134801139 ], [ 0.0, 4.931742745479749 ], [ 0.0, 6.164881018340783 ], [ 0.642206619782155, 5.814386195107701 ] ] ] } },
{ "type": "Feature", "properties": { "LocationID": "a72", "c_1": 0.024190628225896751, "c_2": 0.054611845671884748, "c_3": 0.92042937812921655, "c_4": 0.00076814797300200357 }, "geometry": { "type": "Polygon", "coordinates": [ [ [ 0.734729676644092, 7.302049944446293 ], [ 0.818074316956098, 7.162947387294579 ], [ 0.862547869672169, 6.990463790137554 ], [ 0.654970597756199, 6.708457058851818 ], [ 0.0, 6.182552589450271 ], [ 0.0, 6.977938033946436 ], [ 0.734729676644092, 7.302049944446293 ] ] ] } },
{ "type": "Feature", "properties": { "LocationID": "a73", "c_1": 0.0095499713068673622, "c_2": 0.16274767222065634, "c_3": 0.020325168034319236, "c_4": 0.80737718843815698 }, "geometry": { "type": "Polygon", "coordinates": [ [ [ 0.22409706769219, 2.353209396110603 ], [ 1.312880155747344, 1.513609146653216 ], [ 1.11652293478568, 1.38454339601739 ], [ 0.300411672926623, 1.111893758949529 ], [ 0.0, 1.097070241814357 ], [ 0.0, 2.307674035901659 ], [ 0.22409706769219, 2.353209396110603 ] ] ] } },
{ "type": "Feature", "properties": { "LocationID": "a74", "c_1": 0.0023428640010608524, "c_2": 0.078231522451323754, "c_3": 0.0095875418114037148, "c_4": 0.90983807173621167 }, "geometry": { "type": "Polygon", "coordinates": [ [ [ 1.553597674483443, 3.063659883012078 ], [ 1.558294834250224, 3.202086695043954 ], [ 1.83596822402876, 3.328414387426769 ], [ 2.476154731643154, 3.237579534383256 ], [ 2.597774353892349, 2.787173694426627 ], [ 1.553597674483443, 3.063659883012078 ] ] ] } },
{ "type": "Feature", "properties": { "LocationID": "a75", "c_1": 0.0081957978933614901, "c_2": 0.074183526762771138, "c_3": 0.010044099274293958, "c_4": 0.90757657606957343 }, "geometry": { "type": "Polygon", "coordinates": [ [ [ 1.482960661945308, 2.668481026808937 ], [ 0.548400881870887, 2.640088200358564 ], [ 0.512913101828804, 3.156820226370559 ], [ 1.156150497553214, 3.649437526765708 ], [ 1.221466027510547, 3.606761634441982 ], [ 1.558294834250224, 3.202086695043954 ], [ 1.553597674483443, 3.063659883012078 ], [ 1.482960661945308, 2.668481026808937 ] ] ] } },
{ "type": "Feature", "properties": { "LocationID": "a76", "c_1": 0.0064391909891504083, "c_2": 0.063054635197063849, "c_3": 0.012685942087090564, "c_4": 0.91782023172669513 }, "geometry": { "type": "Polygon", "coordinates": [ [ [ 1.558294834250224, 3.202086695043954 ], [ 1.221466027510547, 3.606761634441982 ], [ 2.078884847827842, 4.346576386398377 ], [ 2.150668611382018, 4.294540086180416 ], [ 2.216502080638307, 3.869776959061754 ], [ 1.83596822402876, 3.328414387426769 ], [ 1.558294834250224, 3.202086695043954 ] ] ] } },
{ "type": "Feature", "properties": { "LocationID": "a77", "c_1": 0.0051571219460129795, "c_2": 0.096862191060998207, "c_3": 0.010727827924490577, "c_4": 0.88725285906849816 }, "geometry": { "type": "Polygon", "coordinates": [ [ [ 1.83596822402876, 3.328414387426769 ], [ 2.216502080638307, 3.869776959061754 ], [ 2.837980460405525, 3.600923178037498 ], [ 2.476154731643154, 3.237579534383256 ], [ 1.83596822402876, 3.328414387426769 ] ] ] } },
{ "type": "Feature", "properties": { "LocationID": "a78", "c_1": 0.004368145053549044, "c_2": 0.085113375984016554, "c_3": 0.012032929115915849, "c_4": 0.89848554984651863 }, "geometry": { "type": "Polygon", "coordinates": [ [ [ 1.557946829679666, 2.430264478793051 ], [ 1.514661341907902, 1.757643334357158 ], [ 1.413907947186726, 1.535695645335329 ], [ 1.312880155747344, 1.513609146653216 ], [ 0.22409706769219, 2.353209396110603 ], [ 0.548400881870887, 2.640088200358564 ], [ 1.482960661945308, 2.668481026808937 ], [ 1.548056012625808, 2.494026100208338 ], [ 1.557946829679666, 2.430264478793051 ] ] ] } },
{ "type": "Feature", "properties": { "LocationID": "a79", "c_1": 0.0028564468470421529, "c_2": 0.105330127099924, "c_3": 0.010430797185755215, "c_4": 0.88138262886727869 }, "geometry": { "type": "Polygon", "coordinates": [ [ [ 1.548056012625808, 2.494026100208338 ], [ 1.482960661945308, 2.668481026808937 ], [ 1.553597674483443, 3.063659883012078 ], [ 2.597774353892349, 2.787173694426627 ], [ 2.641824251472545, 2.713971058351876 ], [ 1.548056012625808, 2.494026100208338 ] ] ] } },
{ "type": "Feature", "properties": { "LocationID": "a80", "c_1": 0.017457997277318033, "c_2": 0.23765747638732893, "c_3": 0.027512561683194155, "c_4": 0.71737196465215891 }, "geometry": { "type": "Polygon", "coordinates": [ [ [ 3.120411430066487, 4.055161625221692 ], [ 3.03279529337034, 3.652096456458219 ], [ 2.837980460405525, 3.600923178037498 ], [ 2.216502080638307, 3.869776959061754 ], [ 2.150668611382018, 4.294540086180416 ], [ 2.342877184604844, 4.322667515297849 ], [ 3.120411430066487, 4.055161625221692 ] ] ] } },
{ "type": "Feature", "properties": { "LocationID": "a81", "c_1": 0.03210112560117169, "c_2": 0.18212696384155663, "c_3": 0.1188378926511344, "c_4": 0.66693401790613716 }, "geometry": { "type": "Polygon", "coordinates": [ [ [ 2.150668611382018, 4.294540086180416 ], [ 2.078884847827842, 4.346576386398377 ], [ 1.745783877878899, 4.917727916584631 ], [ 2.614756696884275, 5.204781046995694 ], [ 2.885111636718095, 5.076308592198781 ], [ 2.900398221699536, 4.922579652757946 ], [ 2.342877184604844, 4.322667515297849 ], [ 2.150668611382018, 4.294540086180416 ] ] ] } },
{ "type": "Feature", "properties": { "LocationID": "a82", "c_1": 0.053439135107547303, "c_2": 0.36871603050410295, "c_3": 0.082595740895880676, "c_4": 0.49524909349246904 }, "geometry": { "type": "Polygon", "coordinates": [ [ [ 3.196487055350039, 4.322162832268188 ], [ 3.872580286639418, 4.895136839993782 ], [ 3.973454049621816, 4.786908605199026 ], [ 4.108513402792442, 4.33722061692344 ], [ 3.743731091621183, 4.089135576443171 ], [ 3.193287445847911, 4.150778295451596 ], [ 3.196487055350039, 4.322162832268188 ] ] ] } },
{ "type": "Feature", "properties": { "LocationID": "a83", "c_1": 0.016224307725463582, "c_2": 0.3332782152873231, "c_3": 0.025012484678764886, "c_4": 0.62548499230844845 }, "geometry": { "type": "Polygon", "coordinates": [ [ [ 3.872580286639418, 4.895136839993782 ], [ 3.82487775011957, 5.073458055206587 ], [ 4.80446242501867, 5.21879670566364 ], [ 4.557371065379548, 4.875655839286945 ], [ 3.973454049621816, 4.786908605199026 ], [ 3.872580286639418, 4.895136839993782 ] ] ] } },
{ "type": "Feature", "properties": { "LocationID": "a84", "c_1": 0.042179611520069771, "c_2": 0.28160818606484961, "c_3": 0.12319444857618234, "c_4": 0.5530177538388984 }, "geometry": { "type": "Polygon", "coordinates": [ [ [ 2.900398221699536, 4.922579652757946 ], [ 2.885111636718095, 5.076308592198781 ], [ 3.461468272795681, 5.399970849036269 ], [ 3.566066860085749, 5.341190491438753 ], [ 3.759696401800546, 5.204095224891129 ], [ 3.82487775011957, 5.073458055206587 ], [ 3.872580286639418, 4.895136839993782 ], [ 3.196487055350039, 4.322162832268188 ], [ 2.900398221699536, 4.922579652757946 ] ] ] } },
{ "type": "Feature", "properties": { "LocationID": "a85", "c_1": 0.03483342223067111, "c_2": 0.27639738891953891, "c_3": 0.088630571749780979, "c_4": 0.60013861710000904 }, "geometry": { "type": "Polygon", "coordinates": [ [ [ 3.120411430066487, 4.055161625221692 ], [ 2.342877184604844, 4.322667515297849 ], [ 2.900398221699536, 4.922579652757946 ], [ 3.196487055350039, 4.322162832268188 ], [ 3.193287445847911, 4.150778295451596 ], [ 3.120411430066487, 4.055161625221692 ] ] ] } },
{ "type": "Feature", "properties": { "LocationID": "a86", "c_1": 0.028720127322126639, "c_2": 0.54140189507835079, "c_3": 0.025024779516597675, "c_4": 0.40485319808292491 }, "geometry": { "type": "Polygon", "coordinates": [ [ [ 3.374802120783774, 3.211082398156147 ], [ 3.03279529337034, 3.652096456458219 ], [ 3.120411430066487, 4.055161625221692 ], [ 3.193287445847911, 4.150778295451596 ], [ 3.743731091621183, 4.089135576443171 ], [ 3.966048104797583, 3.441914907789275 ], [ 3.851522289924449, 3.292829501748292 ], [ 3.374802120783774, 3.211082398156147 ] ] ] } },
{ "type": "Feature", "properties": { "LocationID": "a87", "c_1": 0.0051979285008077114, "c_2": 0.13042510311850061, "c_3": 0.012878484757333105, "c_4": 0.85149848362335856 }, "geometry": { "type": "Polygon", "coordinates": [ [ [ 4.859489773047135, 5.7649563515829 ], [ 4.91816472927494, 5.321357075883997 ], [ 4.80446242501867, 5.21879670566364 ], [ 3.82487775011957, 5.073458055206587 ], [ 3.759696401800546, 5.204095224891129 ], [ 4.722738886092028, 5.830184286242963 ], [ 4.859489773047135, 5.7649563515829 ] ] ] } },
{ "type": "Feature", "properties": { "LocationID": "a88", "c_1": 0.0057112061498893873, "c_2": 0.084925137857900262, "c_3": 0.01834245472939296, "c_4": 0.89102120126281736 }, "geometry": { "type": "Polygon", "coordinates": [ [ [ 4.722738886092028, 5.830184286242963 ], [ 3.759696401800546, 5.204095224891129 ], [ 3.566066860085749, 5.341190491438753 ], [ 4.122815665573103, 5.863012725519581 ], [ 4.690343948291244, 5.865180742934256 ], [ 4.722738886092028, 5.830184286242963 ] ] ] } },
{ "type": "Feature", "properties": { "LocationID": "a89", "c_1": 0.026012848974558269, "c_2": 0.071053515857729524, "c_3": 0.9029336351677123, "c_4": 0.0 }, "geometry": { "type": "Polygon", "coordinates": [ [ [ 3.064835445289256, 9.304823148213611 ], [ 2.926865493340231, 9.506161483168798 ], [ 2.874693857765826, 10.0 ], [ 3.724003740384779, 10.0 ], [ 3.064835445289256, 9.304823148213611 ] ] ] } },
{ "type": "Feature", "properties": { "LocationID": "a90", "c_1": 0.017235986127457508, "c_2": 0.10241829091951085, "c_3": 0.031784701413089547, "c_4": 0.84856102153994217 }, "geometry": { "type": "Polygon", "coordinates": [ [ [ 8.579564371708939, 9.762718714877996 ], [ 7.860551547568003, 9.502533379119839 ], [ 7.607785758159347, 9.734360666696691 ], [ 7.849464935595114, 10.0 ], [ 8.662706575087356, 10.0 ], [ 8.579564371708939, 9.762718714877996 ] ] ] } },
{ "type": "Feature", "properties": { "LocationID": "a91", "c_1": 0.014895534437484637, "c_2": 0.95467225992161953, "c_3": 0.030032519041638176, "c_4": 0.00039968659925770439 }, "geometry": { "type": "Polygon", "coordinates": [ [ [ 8.669800683469411, 8.66256815855302 ], [ 9.241792997748208, 7.922829308495132 ], [ 9.270644780554305, 7.671145010188154 ], [ 8.997661415690652, 7.373202844526097 ], [ 8.726943133792002, 7.223257554374216 ], [ 8.327085366943797, 7.130036407804771 ], [ 7.980503874966415, 7.891257210520725 ], [ 8.257894890782033, 8.494956676684973 ], [ 8.669800683469411, 8.66256815855302 ] ] ] } },
{ "type": "Feature", "properties": { "LocationID": "a92", "c_1": 0.75775231663037168, "c_2": 0.23042875486653272, "c_3": 0.0050111853678921087, "c_4": 0.0068077431352035495 }, "geometry": { "type": "Polygon", "coordinates": [ [ [ 6.42247659452316, 2.206552376915091 ], [ 5.833637951385941, 2.090012089148753 ], [ 5.557348299621078, 2.521146231056784 ], [ 6.333095912094936, 2.863321168556465 ], [ 6.3643384356094, 2.846978433258806 ], [ 6.5295775131029, 2.297585064601983 ], [ 6.42247659452316, 2.206552376915091 ] ] ] } },
{ "type": "Feature", "properties": { "LocationID": "a93", "c_1": 0.41471902144691747, "c_2": 0.50399413695696982, "c_3": 0.032686745138543798, "c_4": 0.048600096457568902 }, "geometry": { "type": "Polygon", "coordinates": [ [ [ 5.677001584515033, 1.457916909304023 ], [ 4.829933730634413, 1.753807276084364 ], [ 4.828019371382462, 1.759508657423547 ], [ 5.123510210776377, 2.592467975976802 ], [ 5.358091306017136, 2.711705273415954 ], [ 5.557348299621078, 2.521146231056784 ], [ 5.833637951385941, 2.090012089148753 ], [ 5.677001584515033, 1.457916909304023 ] ] ] } },
{ "type": "Feature", "properties": { "LocationID": "a94", "c_1": 0.8537299406788591, "c_2": 0.094004585492743833, "c_3": 0.025159844670605197, "c_4": 0.027105629157791914 }, "geometry": { "type": "Polygon", "coordinates": [ [ [ 6.791592206636015, 1.265888496175602 ], [ 6.269530292981578, 0.80649358585831 ], [ 6.038014007953834, 0.744547504742962 ], [ 5.822437125458606, 0.94014356381092 ], [ 5.677001584515033, 1.457916909304023 ], [ 5.833637951385941, 2.090012089148753 ], [ 6.42247659452316, 2.206552376915091 ], [ 6.791592206636015, 1.265888496175602 ] ] ] } },
{ "type": "Feature", "properties": { "LocationID": "a95", "c_1": 0.55215502005457961, "c_2": 0.38837990827493829, "c_3": 0.019823607682928044, "c_4": 0.039641463987554117 }, "geometry": { "type": "Polygon", "coordinates": [ [ [ 6.333095912094936, 2.863321168556465 ], [ 6.228371169837381, 3.041295519396825 ], [ 6.540667452793735, 3.325009955497904 ], [ 6.824485263076975, 3.117404939868596 ], [ 6.3643384356094, 2.846978433258806 ], [ 6.333095912094936, 2.863321168556465 ] ] ] } },
{ "type": "Feature", "properties": { "LocationID": "a96", "c_1": 0.74634885825563535, "c_2": 0.2111295190767323, "c_3": 0.015690226476144077, "c_4": 0.026831396191488364 }, "geometry": { "type": "Polygon", "coordinates": [ [ [ 6.3643384356094, 2.846978433258806 ], [ 6.824485263076975, 3.117404939868596 ], [ 7.036308774557305, 3.100073032850941 ], [ 7.121821069908155, 3.062560296532121 ], [ 6.590180769750956, 2.308787616217821 ], [ 6.5295775131029, 2.297585064601983 ], [ 6.3643384356094, 2.846978433258806 ] ] ] } },
{ "type": "Feature", "properties": { "LocationID": "a97", "c_1": 0.96309309564163326, "c_2": 0.0021306965648096371, "c_3": 0.03259016359512891, "c_4": 0.002186044198428144 }, "geometry": { "type": "Polygon", "coordinates": [ [ [ 6.590180769750956, 2.308787616217821 ], [ 7.218018232577229, 2.098314796720809 ], [ 7.291505744517838, 1.784156238351714 ], [ 7.231536010898594, 1.416616240665942 ], [ 6.791592206636015, 1.265888496175602 ], [ 6.42247659452316, 2.206552376915091 ], [ 6.5295775131029, 2.297585064601983 ], [ 6.590180769750956, 2.308787616217821 ] ] ] } },
{ "type": "Feature", "properties": { "LocationID": "a98", "c_1": 0.81753776236007569, "c_2": 0.1617795331735126, "c_3": 0.013757999796436141, "c_4": 0.0069247046699756898 }, "geometry": { "type": "Polygon", "coordinates": [ [ [ 7.640197627586311, 4.194794024265589 ], [ 7.912410328728561, 4.283016817123299 ], [ 8.467773801307315, 4.075796932201336 ], [ 8.588173043438465, 3.839589776724509 ], [ 7.883078102984282, 2.949692096745813 ], [ 7.740186755413378, 2.949114554103785 ], [ 7.52047778073842, 3.062562114591404 ], [ 7.301020511600301, 3.852600304404563 ], [ 7.640197627586311, 4.194794024265589 ] ] ] } },
{ "type": "Feature", "properties": { "LocationID": "a99", "c_1": 0.006611830876053759, "c_2": 0.9872571668101946, "c_3": 0.0036928667428405828, "c_4": 0.0024381355709110963 }, "geometry": { "type": "Polygon", "coordinates": [ [ [ 5.474745891380585, 4.723509867273183 ], [ 6.055431836574228, 5.20964496143327 ], [ 6.824404616073042, 5.072136633046285 ], [ 6.340849202546845, 4.551111125043146 ], [ 5.456300544011484, 4.403398967316368 ], [ 5.474745891380585, 4.723509867273183 ] ] ] } },
{ "type": "Feature", "properties": { "LocationID": "a100", "c_1": 0.010459314699609257, "c_2": 0.97918050893724706, "c_3": 0.0055908788687132477, "c_4": 0.0047692974944304033 }, "geometry": { "type": "Polygon", "coordinates": [ [ [ 5.976110380298382, 5.435839197445135 ], [ 6.370889594217818, 6.008455008675795 ], [ 6.406245352516493, 6.034034855149233 ], [ 6.587234063497976, 6.088618450747521 ], [ 6.868024571562959, 5.889134722851527 ], [ 7.097190336511241, 5.310544577721978 ], [ 6.843349715824648, 5.073613344110475 ], [ 6.824404616073042, 5.072136633046285 ], [ 6.055431836574228, 5.20964496143327 ], [ 5.976110380298382, 5.435839197445135 ] ] ] } },
{ "type": "Feature", "properties": { "LocationID": "a101", "c_1": 0.0039326332867910688, "c_2": 0.55217739503778807, "c_3": 0.00086583174453402629, "c_4": 0.44302413993088685 }, "geometry": { "type": "Polygon", "coordinates": [ [ [ 4.91816472927494, 5.321357075883997 ], [ 4.859489773047135, 5.7649563515829 ], [ 5.198468869154679, 5.951151713671862 ], [ 5.655616169143236, 5.828112075864685 ], [ 5.976110380298382, 5.435839197445135 ], [ 6.055431836574228, 5.20964496143327 ], [ 5.474745891380585, 4.723509867273183 ], [ 4.91816472927494, 5.321357075883997 ] ] ] } },
{ "type": "Feature", "properties": { "LocationID": "a102", "c_1": 0.0092652718137224924, "c_2": 0.7130955794488657, "c_3": 0.0075349356769774519, "c_4": 0.27010421306043436 }, "geometry": { "type": "Polygon", "coordinates": [ [ [ 2.575590400953485, 1.936507562709 ], [ 1.514661341907902, 1.757643334357158 ], [ 1.557946829679666, 2.430264478793051 ], [ 2.772283012093007, 2.265523684187696 ], [ 2.575590400953485, 1.936507562709 ] ] ] } },
{ "type": "Feature", "properties": { "LocationID": "a103", "c_1": 0.0076397265305145519, "c_2": 0.60232269500109403, "c_3": 0.0067652830633374841, "c_4": 0.38327229540505398 }, "geometry": { "type": "Polygon", "coordinates": [ [ [ 2.772283012093007, 2.265523684187696 ], [ 1.557946829679666, 2.430264478793051 ], [ 1.548056012625808, 2.494026100208338 ], [ 2.641824251472545, 2.713971058351876 ], [ 2.973362189067321, 2.448599806854911 ], [ 2.772283012093007, 2.265523684187696 ] ] ] } },
{ "type": "Feature", "properties": { "LocationID": "a104", "c_1": 0.036030197350492683, "c_2": 0.7638340576878746, "c_3": 0.088263056750918042, "c_4": 0.11187268821071465 }, "geometry": { "type": "Polygon", "coordinates": [ [ [ 1.448968572808104, 0.419139359828322 ], [ 1.51954266421587, 0.0 ], [ 1.226936963784947, 0.0 ], [ 0.954804195135103, 0.459851006942038 ], [ 0.994674876440737, 0.49276533353148 ], [ 1.448968572808104, 0.419139359828322 ] ] ] } },
{ "type": "Feature", "properties": { "LocationID": "a105", "c_1": 0.022828764367411773, "c_2": 0.8514830892212143, "c_3": 0.036264692314242716, "c_4": 0.089423454097131219 }, "geometry": { "type": "Polygon", "coordinates": [ [ [ 1.11652293478568, 1.38454339601739 ], [ 1.312880155747344, 1.513609146653216 ], [ 1.413907947186726, 1.535695645335329 ], [ 1.756026618678889, 1.13462348504682 ], [ 1.448968572808104, 0.419139359828322 ], [ 0.994674876440737, 0.49276533353148 ], [ 1.11652293478568, 1.38454339601739 ] ] ] } },
{ "type": "Feature", "properties": { "LocationID": "a106", "c_1": 0.027027559353108924, "c_2": 0.39086009000254868, "c_3": 0.046160864902027969, "c_4": 0.53595148574231433 }, "geometry": { "type": "Polygon", "coordinates": [ [ [ 0.954804195135103, 0.459851006942038 ], [ 0.804170748667052, 0.403128932344033 ], [ 0.300411672926623, 1.111893758949529 ], [ 1.11652293478568, 1.38454339601739 ], [ 0.994674876440737, 0.49276533353148 ], [ 0.954804195135103, 0.459851006942038 ] ] ] } },
{ "type": "Feature", "properties": { "LocationID": "a107", "c_1": 0.07458508519123036, "c_2": 0.89186372767695077, "c_3": 0.016600588873118931, "c_4": 0.016950598258700014 }, "geometry": { "type": "Polygon", "coordinates": [ [ [ 5.487094486038473, 3.977968944180985 ], [ 5.524447949946849, 3.560357707193389 ], [ 5.40380537884425, 3.361839301482132 ], [ 4.720619756247753, 3.363901488534671 ], [ 4.613127113712134, 3.407836639073009 ], [ 4.30719144763924, 3.592610728472609 ], [ 4.467197267392955, 4.163533078537161 ], [ 4.686349556700985, 4.233055904198972 ], [ 5.402117749892048, 4.168412136895067 ], [ 5.487094486038473, 3.977968944180985 ] ] ] } },
{ "type": "Feature", "properties": { "LocationID": "a108", "c_1": 0.069930110982206889, "c_2": 0.72350104036364105, "c_3": 0.037275023348806592, "c_4": 0.16929382530534548 }, "geometry": { "type": "Polygon", "coordinates": [ [ [ 4.205025996445865, 2.902397554142195 ], [ 4.110616106721788, 2.928739120595393 ], [ 3.851522289924449, 3.292829501748292 ], [ 3.966048104797583, 3.441914907789275 ], [ 4.30719144763924, 3.592610728472609 ], [ 4.613127113712134, 3.407836639073009 ], [ 4.205025996445865, 2.902397554142195 ] ] ] } },
{ "type": "Feature", "properties": { "LocationID": "a109", "c_1": 0.073466977906060674, "c_2": 0.59670073795550149, "c_3": 0.059328188695005883, "c_4": 0.27050409544343201 }, "geometry": { "type": "Polygon", "coordinates": [ [ [ 4.30719144763924, 3.592610728472609 ], [ 3.966048104797583, 3.441914907789275 ], [ 3.743731091621183, 4.089135576443171 ], [ 4.108513402792442, 4.33722061692344 ], [ 4.467197267392955, 4.163533078537161 ], [ 4.30719144763924, 3.592610728472609 ] ] ] } },
{ "type": "Feature", "properties": { "LocationID": "a110", "c_1": 0.03535581168874579, "c_2": 0.43696787769146755, "c_3": 0.03710275472027761, "c_4": 0.49057355589950902 }, "geometry": { "type": "Polygon", "coordinates": [ [ [ 4.108513402792442, 4.33722061692344 ], [ 3.973454049621816, 4.786908605199026 ], [ 4.557371065379548, 4.875655839286945 ], [ 4.686349556700985, 4.233055904198972 ], [ 4.467197267392955, 4.163533078537161 ], [ 4.108513402792442, 4.33722061692344 ] ] ] } },
{ "type": "Feature", "properties": { "LocationID": "a111", "c_1": 0.014443424226545491, "c_2": 0.61937000444285872, "c_3": 0.0067728244234600554, "c_4": 0.35941374690713579 }, "geometry": { "type": "Polygon", "coordinates": [ [ [ 4.686349556700985, 4.233055904198972 ], [ 4.557371065379548, 4.875655839286945 ], [ 4.80446242501867, 5.21879670566364 ], [ 4.91816472927494, 5.321357075883997 ], [ 5.474745891380585, 4.723509867273183 ], [ 5.456300544011484, 4.403398967316368 ], [ 5.402117749892048, 4.168412136895067 ], [ 4.686349556700985, 4.233055904198972 ] ] ] } },
{ "type": "Feature", "properties": { "LocationID": "a112", "c_1": 0.20987542757454214, "c_2": 0.70791502040661347, "c_3": 0.038784001543274202, "c_4": 0.043425550475570215 }, "geometry": { "type": "Polygon", "coordinates": [ [ [ 5.358091306017136, 2.711705273415954 ], [ 5.123510210776377, 2.592467975976802 ], [ 4.612599477494105, 2.591181715331488 ], [ 4.439682822436144, 2.794646696299673 ], [ 4.720619756247753, 3.363901488534671 ], [ 5.40380537884425, 3.361839301482132 ], [ 5.358091306017136, 2.711705273415954 ] ] ] } },
{ "type": "Feature", "properties": { "LocationID": "a113", "c_1": 0.08933106538814202, "c_2": 0.78203869478771626, "c_3": 0.052155562768162522, "c_4": 0.076474677055979157 }, "geometry": { "type": "Polygon", "coordinates": [ [ [ 4.720619756247753, 3.363901488534671 ], [ 4.439682822436144, 2.794646696299673 ], [ 4.205025996445865, 2.902397554142195 ], [ 4.613127113712134, 3.407836639073009 ], [ 4.720619756247753, 3.363901488534671 ] ] ] } },
{ "type": "Feature", "properties": { "LocationID": "a114", "c_1": 0.38725108471323377, "c_2": 0.59313269636518673, "c_3": 0.0074514226013799364, "c_4": 0.012164796320199628 }, "geometry": { "type": "Polygon", "coordinates": [ [ [ 5.524447949946849, 3.560357707193389 ], [ 5.630985670259357, 3.532513650157971 ], [ 6.228371169837381, 3.041295519396825 ], [ 6.333095912094936, 2.863321168556465 ], [ 5.557348299621078, 2.521146231056784 ], [ 5.358091306017136, 2.711705273415954 ], [ 5.40380537884425, 3.361839301482132 ], [ 5.524447949946849, 3.560357707193389 ] ] ] } },
{ "type": "Feature", "properties": { "LocationID": "a115", "c_1": 0.11467918378379358, "c_2": 0.84145207120272159, "c_3": 0.018538638066458474, "c_4": 0.025330106947026358 }, "geometry": { "type": "Polygon", "coordinates": [ [ [ 6.302955170831076, 4.147127444565371 ], [ 6.378224379119153, 4.126060275181555 ], [ 6.371143445928832, 3.557106537164362 ], [ 5.630985670259357, 3.532513650157971 ], [ 5.524447949946849, 3.560357707193389 ], [ 5.487094486038473, 3.977968944180985 ], [ 6.302955170831076, 4.147127444565371 ] ] ] } },
{ "type": "Feature", "properties": { "LocationID": "a116", "c_1": 0.030719701497172475, "c_2": 0.94871120720415159, "c_3": 0.012533430139541677, "c_4": 0.0080356611591342192 }, "geometry": { "type": "Polygon", "coordinates": [ [ [ 5.456300544011484, 4.403398967316368 ], [ 6.340849202546845, 4.551111125043146 ], [ 6.302955170831076, 4.147127444565371 ], [ 5.487094486038473, 3.977968944180985 ], [ 5.402117749892048, 4.168412136895067 ], [ 5.456300544011484, 4.403398967316368 ] ] ] } },
{ "type": "Feature", "properties": { "LocationID": "a117", "c_1": 0.023240000102061391, "c_2": 0.1066070191835444, "c_3": 0.5193738638307932, "c_4": 0.35077911688360108 }, "geometry": { "type": "Polygon", "coordinates": [ [ [ 3.300724004454677, 7.173942212900125 ], [ 3.726196000533387, 6.600274084026296 ], [ 3.669585429894575, 6.529757072068615 ], [ 2.724300439657192, 6.465010866713883 ], [ 2.614310755297126, 6.741442270494153 ], [ 3.300724004454677, 7.173942212900125 ] ] ] } },
{ "type": "Feature", "properties": { "LocationID": "a118", "c_1": 0.0056564300626267749, "c_2": 0.084012302974018127, "c_3": 0.034050475451976564, "c_4": 0.8762807915113785 }, "geometry": { "type": "Polygon", "coordinates": [ [ [ 4.230885642934012, 6.718882101922286 ], [ 4.690343948291244, 5.865180742934256 ], [ 4.122815665573103, 5.863012725519581 ], [ 3.568751781736921, 6.038540528389364 ], [ 3.669585429894575, 6.529757072068615 ], [ 3.726196000533387, 6.600274084026296 ], [ 4.230885642934012, 6.718882101922286 ] ] ] } },
{ "type": "Feature", "properties": { "LocationID": "a119", "c_1": 0.026859921129039864, "c_2": 0.13385732683373514, "c_3": 0.4023712908153218, "c_4": 0.43691146122190322 }, "geometry": { "type": "Polygon", "coordinates": [ [ [ 3.669585429894575, 6.529757072068615 ], [ 3.568751781736921, 6.038540528389364 ], [ 3.418567053090767, 5.763636076286391 ], [ 3.303479233341594, 5.813834911379987 ], [ 2.69651850017152, 6.343270570897673 ], [ 2.724300439657192, 6.465010866713883 ], [ 3.669585429894575, 6.529757072068615 ] ] ] } },
{ "type": "Feature", "properties": { "LocationID": "a120", "c_1": 0.024826162144663506, "c_2": 0.071124984314171025, "c_3": 0.85790790152537333, "c_4": 0.04614095201579211 }, "geometry": { "type": "Polygon", "coordinates": [ [ [ 2.724300439657192, 6.465010866713883 ], [ 2.69651850017152, 6.343270570897673 ], [ 2.509484151263495, 6.104100479896619 ], [ 2.201990310186296, 6.141325582565131 ], [ 1.945457418741872, 6.399392075898142 ], [ 1.952612895311739, 6.540571488132555 ], [ 2.068635130129408, 6.65428433001875 ], [ 2.545617978196006, 6.797981781139889 ], [ 2.614310755297126, 6.741442270494153 ], [ 2.724300439657192, 6.465010866713883 ] ] ] } },
{ "type": "Feature", "properties": { "LocationID": "a121", "c_1": 0.0058868042070345109, "c_2": 0.0071069002663250863, "c_3": 0.98700629552664043, "c_4": 0.0 }, "geometry": { "type": "Polygon", "coordinates": [ [ [ 3.001071989256478, 7.743629325128057 ], [ 2.487482953423787, 6.988890246750031 ], [ 1.984218701063559, 7.478498353318813 ], [ 2.089569761398143, 7.649577965445381 ], [ 3.001071989256478, 7.743629325128057 ] ] ] } },
{ "type": "Feature", "properties": { "LocationID": "a122", "c_1": 0.01803788358336637, "c_2": 0.05493995027508139, "c_3": 0.91091098814220939, "c_4": 0.016111177999342891 }, "geometry": { "type": "Polygon", "coordinates": [ [ [ 3.249891645989819, 7.862987336028974 ], [ 3.300724004454677, 7.173942212900125 ], [ 2.614310755297126, 6.741442270494153 ], [ 2.545617978196006, 6.797981781139889 ], [ 2.487482953423787, 6.988890246750031 ], [ 3.001071989256478, 7.743629325128057 ], [ 3.249891645989819, 7.862987336028974 ] ] ] } },
{ "type": "Feature", "properties": { "LocationID": "a123", "c_1": 0.0068992799692105793, "c_2": 0.012375418569355534, "c_3": 0.98072530146143388, "c_4": 0.0 }, "geometry": { "type": "Polygon", "coordinates": [ [ [ 2.487482953423787, 6.988890246750031 ], [ 2.545617978196006, 6.797981781139889 ], [ 2.068635130129408, 6.65428433001875 ], [ 1.743788403195283, 7.335895142275018 ], [ 1.760036189600119, 7.385178547217977 ], [ 1.984218701063559, 7.478498353318813 ], [ 2.487482953423787, 6.988890246750031 ] ] ] } },
{ "type": "Feature", "properties": { "LocationID": "a124", "c_1": 0.0043988633757855904, "c_2": 0.0023140590889399373, "c_3": 0.99328707753527457, "c_4": 0.0 }, "geometry": { "type": "Polygon", "coordinates": [ [ [ 2.00774197883746, 8.760668794056752 ], [ 3.032143815683034, 8.653362595149728 ], [ 3.127106585873697, 8.581339442332933 ], [ 3.31700259413383, 7.978115711753984 ], [ 3.249891645989819, 7.862987336028974 ], [ 3.001071989256478, 7.743629325128057 ], [ 2.089569761398143, 7.649577965445381 ], [ 2.00774197883746, 8.760668794056752 ] ] ] } },
{ "type": "Feature", "properties": { "LocationID": "a125", "c_1": 0.015735531103487625, "c_2": 0.004848636313036162, "c_3": 0.9789440742079949, "c_4": 0.00047175837548136656 }, "geometry": { "type": "Polygon", "coordinates": [ [ [ 1.984218701063559, 7.478498353318813 ], [ 1.760036189600119, 7.385178547217977 ], [ 1.615598595507264, 7.472827213957701 ], [ 1.422388020870367, 8.159897200696676 ], [ 1.977803668105141, 8.779602566812606 ], [ 2.00774197883746, 8.760668794056752 ], [ 2.089569761398143, 7.649577965445381 ], [ 1.984218701063559, 7.478498353318813 ] ] ] } },
{ "type": "Feature", "properties": { "LocationID": "a126", "c_1": 0.021898038528097113, "c_2": 0.042853045788356019, "c_3": 0.93308831665649961, "c_4": 0.0021605990270472547 }, "geometry": { "type": "Polygon", "coordinates": [ [ [ 3.127106585873697, 8.581339442332933 ], [ 3.032143815683034, 8.653362595149728 ], [ 3.064835445289256, 9.304823148213611 ], [ 3.724003740384779, 10.0 ], [ 4.005123603938652, 10.0 ], [ 4.139509582844949, 9.592501436369183 ], [ 3.865523343306548, 8.978253726384439 ], [ 3.127106585873697, 8.581339442332933 ] ] ] } },
{ "type": "Feature", "properties": { "LocationID": "a127", "c_1": 0.02260381754203708, "c_2": 0.053658813730965815, "c_3": 0.73918835604709887, "c_4": 0.18454901267989821 }, "geometry": { "type": "Polygon", "coordinates": [ [ [ 3.623039372354988, 7.911325169001097 ], [ 3.31700259413383, 7.978115711753984 ], [ 3.127106585873697, 8.581339442332933 ], [ 3.865523343306548, 8.978253726384439 ], [ 4.402555443392853, 8.584135089671914 ], [ 3.623039372354988, 7.911325169001097 ] ] ] } },
{ "type": "Feature", "properties": { "LocationID": "a128", "c_1": 0.011288256481397887, "c_2": 0.075521692221014652, "c_3": 0.022289118323998533, "c_4": 0.89090093297358897 }, "geometry": { "type": "Polygon", "coordinates": [ [ [ 7.304524959153065, 8.769085318059568 ], [ 7.003606347703345, 9.210850394803716 ], [ 7.049192958413899, 9.522393001236569 ], [ 7.194396545839664, 9.548596117668394 ], [ 7.692171847749378, 9.253286981398169 ], [ 7.626522800710183, 8.84238545172826 ], [ 7.304524959153065, 8.769085318059568 ] ] ] } },
{ "type": "Feature", "properties": { "LocationID": "a129", "c_1": 0.011872746156008657, "c_2": 0.072997275266693529, "c_3": 0.025402913093526179, "c_4": 0.88972706548377167 }, "geometry": { "type": "Polygon", "coordinates": [ [ [ 7.194396545839664, 9.548596117668394 ], [ 7.495216420754855, 9.801454332701805 ], [ 7.607785758159347, 9.734360666696691 ], [ 7.860551547568003, 9.502533379119839 ], [ 7.692171847749378, 9.253286981398169 ], [ 7.194396545839664, 9.548596117668394 ] ] ] } },
{ "type": "Feature", "properties": { "LocationID": "a130", "c_1": 0.0080063034757360593, "c_2": 0.10689865051775366, "c_3": 0.0333963873222798, "c_4": 0.85169865868423034 }, "geometry": { "type": "Polygon", "coordinates": [ [ [ 7.692171847749378, 9.253286981398169 ], [ 7.860551547568003, 9.502533379119839 ], [ 8.579564371708939, 9.762718714877996 ], [ 8.717463935043304, 8.772056034852902 ], [ 8.669800683469411, 8.66256815855302 ], [ 8.257894890782033, 8.494956676684973 ], [ 7.626522800710183, 8.84238545172826 ], [ 7.692171847749378, 9.253286981398169 ] ] ] } },
{ "type": "Feature", "properties": { "LocationID": "a131", "c_1": 0.12395161611721248, "c_2": 0.78690856831837586, "c_3": 0.045644799252075395, "c_4": 0.043495016312336217 }, "geometry": { "type": "Polygon", "coordinates": [ [ [ 7.124880442546123, 3.919897643960346 ], [ 6.81131273107448, 3.9329519005037 ], [ 6.697652336468129, 4.119481058682274 ], [ 6.877920709241339, 4.859108469666145 ], [ 7.151781243999176, 4.495891010363977 ], [ 7.124880442546123, 3.919897643960346 ] ] ] } },
{ "type": "Feature", "properties": { "LocationID": "a132", "c_1": 0.58680740845558288, "c_2": 0.39855117203324092, "c_3": 0.0075590011343648709, "c_4": 0.0070824183768113643 }, "geometry": { "type": "Polygon", "coordinates": [ [ [ 7.301020511600301, 3.852600304404563 ], [ 7.52047778073842, 3.062562114591404 ], [ 7.121821069908155, 3.062560296532121 ], [ 7.036308774557305, 3.100073032850941 ], [ 6.752426423871232, 3.803277454651739 ], [ 6.81131273107448, 3.9329519005037 ], [ 7.124880442546123, 3.919897643960346 ], [ 7.301020511600301, 3.852600304404563 ] ] ] } },
{ "type": "Feature", "properties": { "LocationID": "a133", "c_1": 0.1235534051610318, "c_2": 0.76878146322828123, "c_3": 0.043460885977007681, "c_4": 0.064204245633679241 }, "geometry": { "type": "Polygon", "coordinates": [ [ [ 6.81131273107448, 3.9329519005037 ], [ 6.752426423871232, 3.803277454651739 ], [ 6.383836701315009, 3.554920020488535 ], [ 6.371143445928832, 3.557106537164362 ], [ 6.378224379119153, 4.126060275181555 ], [ 6.697652336468129, 4.119481058682274 ], [ 6.81131273107448, 3.9329519005037 ] ] ] } },
{ "type": "Feature", "properties": { "LocationID": "a134", "c_1": 0.23980414620638846, "c_2": 0.61863775432522927, "c_3": 0.063534530854830698, "c_4": 0.078023568613551517 }, "geometry": { "type": "Polygon", "coordinates": [ [ [ 7.640197627586311, 4.194794024265589 ], [ 7.301020511600301, 3.852600304404563 ], [ 7.124880442546123, 3.919897643960346 ], [ 7.151781243999176, 4.495891010363977 ], [ 7.640197627586311, 4.194794024265589 ] ] ] } },
{ "type": "Feature", "properties": { "LocationID": "a135", "c_1": 0.04331235957622797, "c_2": 0.90360412322196126, "c_3": 0.034447634653047537, "c_4": 0.018635882548763291 }, "geometry": { "type": "Polygon", "coordinates": [ [ [ 6.697652336468129, 4.119481058682274 ], [ 6.378224379119153, 4.126060275181555 ], [ 6.302955170831076, 4.147127444565371 ], [ 6.340849202546845, 4.551111125043146 ], [ 6.824404616073042, 5.072136633046285 ], [ 6.843349715824648, 5.073613344110475 ], [ 6.877920709241339, 4.859108469666145 ], [ 6.697652336468129, 4.119481058682274 ] ] ] } },
{ "type": "Feature", "properties": { "LocationID": "a136", "c_1": 0.10333806909432196, "c_2": 0.8276688217444842, "c_3": 0.044131142858442954, "c_4": 0.024861966302750813 }, "geometry": { "type": "Polygon", "coordinates": [ [ [ 6.877920709241339, 4.859108469666145 ], [ 6.843349715824648, 5.073613344110475 ], [ 7.097190336511241, 5.310544577721978 ], [ 7.455887832655784, 5.323895951073751 ], [ 7.912410328728561, 4.283016817123299 ], [ 7.640197627586311, 4.194794024265589 ], [ 7.151781243999176, 4.495891010363977 ], [ 6.877920709241339, 4.859108469666145 ] ] ] } },
{ "type": "Feature", "properties": { "LocationID": "a137", "c_1": 0.0078994832619877792, "c_2": 0.9821301338245868, "c_3": 0.0079178604912383162, "c_4": 0.0020525224221871348 }, "geometry": { "type": "Polygon", "coordinates": [ [ [ 3.122115312873639, 2.478133517434756 ], [ 3.883831242812224, 2.444958239577415 ], [ 3.888510658546214, 2.440347856457642 ], [ 4.118211582618875, 2.006611547378909 ], [ 3.709848110130221, 1.3611306146687 ], [ 3.622450816085054, 1.364050715295008 ], [ 3.109380347932869, 2.465539307849031 ], [ 3.122115312873639, 2.478133517434756 ] ] ] } },
{ "type": "Feature", "properties": { "LocationID": "a138", "c_1": 0.045547158720101719, "c_2": 0.83980637823914772, "c_3": 0.066896147354496602, "c_4": 0.047750315686253958 }, "geometry": { "type": "Polygon", "coordinates": [ [ [ 4.374864947247203, 2.072260364189868 ], [ 4.828019371382462, 1.759508657423547 ], [ 4.829933730634413, 1.753807276084364 ], [ 4.312473052376888, 1.016997721512205 ], [ 4.27513215682753, 1.024865949211268 ], [ 3.709848110130221, 1.3611306146687 ], [ 4.118211582618875, 2.006611547378909 ], [ 4.374864947247203, 2.072260364189868 ] ] ] } },
{ "type": "Feature", "properties": { "LocationID": "a139", "c_1": 0.040796393584763967, "c_2": 0.84445390497232886, "c_3": 0.041979363068262436, "c_4": 0.072770338374644722 }, "geometry": { "type": "Polygon", "coordinates": [ [ [ 4.551543006736869, 2.513683908438996 ], [ 4.374864947247203, 2.072260364189868 ], [ 4.118211582618875, 2.006611547378909 ], [ 3.888510658546214, 2.440347856457642 ], [ 4.551543006736869, 2.513683908438996 ] ] ] } },
{ "type": "Feature", "properties": { "LocationID": "a140", "c_1": 0.044991145199979619, "c_2": 0.88349669570035161, "c_3": 0.028747688931591329, "c_4": 0.042764470168077488 }, "geometry": { "type": "Polygon", "coordinates": [ [ [ 4.110616106721788, 2.928739120595393 ], [ 4.205025996445865, 2.902397554142195 ], [ 4.439682822436144, 2.794646696299673 ], [ 4.612599477494105, 2.591181715331488 ], [ 4.551543006736869, 2.513683908438996 ], [ 3.888510658546214, 2.440347856457642 ], [ 3.883831242812224, 2.444958239577415 ], [ 4.110616106721788, 2.928739120595393 ] ] ] } },
{ "type": "Feature", "properties": { "LocationID": "a141", "c_1": 0.012880409605126023, "c_2": 0.96578205717474674, "c_3": 0.0049028039274019615, "c_4": 0.016434729292725304 }, "geometry": { "type": "Polygon", "coordinates": [ [ [ 3.374802120783774, 3.211082398156147 ], [ 3.851522289924449, 3.292829501748292 ], [ 4.110616106721788, 2.928739120595393 ], [ 3.883831242812224, 2.444958239577415 ], [ 3.122115312873639, 2.478133517434756 ], [ 3.374802120783774, 3.211082398156147 ] ] ] } },
{ "type": "Feature", "properties": { "LocationID": "a142", "c_1": 0.0083782687253776671, "c_2": 0.66662135895422459, "c_3": 0.0020389362122072785, "c_4": 0.32296143610819039 }, "geometry": { "type": "Polygon", "coordinates": [ [ [ 2.973362189067321, 2.448599806854911 ], [ 2.641824251472545, 2.713971058351876 ], [ 2.597774353892349, 2.787173694426627 ], [ 2.476154731643154, 3.237579534383256 ], [ 2.837980460405525, 3.600923178037498 ], [ 3.03279529337034, 3.652096456458219 ], [ 3.374802120783774, 3.211082398156147 ], [ 3.122115312873639, 2.478133517434756 ], [ 3.109380347932869, 2.465539307849031 ], [ 2.973362189067321, 2.448599806854911 ] ] ] } },
{ "type": "Feature", "properties": { "LocationID": "a143", "c_1": 0.011055615526655507, "c_2": 0.93363701797554688, "c_3": 0.054243593738111232, "c_4": 0.0010637727596863661 }, "geometry": { "type": "Polygon", "coordinates": [ [ [ 2.087661018432935, 0.0 ], [ 1.51954266421587, 0.0 ], [ 1.448968572808104, 0.419139359828322 ], [ 1.756026618678889, 1.13462348504682 ], [ 1.95815319022218, 1.039487625371533 ], [ 2.361675791504004, 0.772489180550112 ], [ 2.087661018432935, 0.0 ] ] ] } },
{ "type": "Feature", "properties": { "LocationID": "a144", "c_1": 0.0093029457175392086, "c_2": 0.96538212080691876, "c_3": 0.019376491253571208, "c_4": 0.0059384422219707599 }, "geometry": { "type": "Polygon", "coordinates": [ [ [ 1.95815319022218, 1.039487625371533 ], [ 1.756026618678889, 1.13462348504682 ], [ 1.413907947186726, 1.535695645335329 ], [ 1.514661341907902, 1.757643334357158 ], [ 2.575590400953485, 1.936507562709 ], [ 2.620292505043611, 1.762900469006389 ], [ 1.95815319022218, 1.039487625371533 ] ] ] } },
{ "type": "Feature", "properties": { "LocationID": "a145", "c_1": 0.0046507711074439597, "c_2": 0.99062671078665732, "c_3": 0.0043705462422314713, "c_4": 0.00035197186366726062 }, "geometry": { "type": "Polygon", "coordinates": [ [ [ 2.620292505043611, 1.762900469006389 ], [ 2.575590400953485, 1.936507562709 ], [ 2.772283012093007, 2.265523684187696 ], [ 2.973362189067321, 2.448599806854911 ], [ 3.109380347932869, 2.465539307849031 ], [ 3.622450816085054, 1.364050715295008 ], [ 3.080585685554772, 1.012054639446939 ], [ 2.620292505043611, 1.762900469006389 ] ] ] } },
{ "type": "Feature", "properties": { "LocationID": "a146", "c_1": 0.017012631610325849, "c_2": 0.095617188579184775, "c_3": 0.41862217042134825, "c_4": 0.46874800938914107 }, "geometry": { "type": "Polygon", "coordinates": [ [ [ 4.303247002643429, 6.835509275002401 ], [ 4.230885642934012, 6.718882101922286 ], [ 3.726196000533387, 6.600274084026296 ], [ 3.300724004454677, 7.173942212900125 ], [ 3.249891645989819, 7.862987336028974 ], [ 3.31700259413383, 7.978115711753984 ], [ 3.623039372354988, 7.911325169001097 ], [ 4.247491429225124, 7.595925503611321 ], [ 4.303247002643429, 6.835509275002401 ] ] ] } },
{ "type": "Feature", "properties": { "LocationID": "a147", "c_1": 0.034519977736971318, "c_2": 0.074480289374686579, "c_3": 0.3113722912418968, "c_4": 0.5364293777682656 }, "geometry": { "type": "Polygon", "coordinates": [ [ [ 4.754659496878055, 8.512236387499438 ], [ 4.402555443392853, 8.584135089671914 ], [ 3.865523343306548, 8.978253726384439 ], [ 4.139509582844949, 9.592501436369183 ], [ 4.914262141623768, 9.233393931842466 ], [ 4.754659496878055, 8.512236387499438 ] ] ] } },
{ "type": "Feature", "properties": { "LocationID": "a148", "c_1": 0.05517128409331528, "c_2": 0.095342162294022009, "c_3": 0.29251146867868233, "c_4": 0.55697508493398029 }, "geometry": { "type": "Polygon", "coordinates": [ [ [ 4.139509582844949, 9.592501436369183 ], [ 4.005123603938652, 10.0 ], [ 4.301460830891929, 10.0 ], [ 4.924686523330601, 9.822665039811964 ], [ 4.940481908848537, 9.247195469244334 ], [ 4.914262141623768, 9.233393931842466 ], [ 4.139509582844949, 9.592501436369183 ] ] ] } },
{ "type": "Feature", "properties": { "LocationID": "a149", "c_1": 0.016119001275959232, "c_2": 0.067267438788488121, "c_3": 0.91661355993555271, "c_4": 0.0 }, "geometry": { "type": "Polygon", "coordinates": [ [ [ 2.644410549836917, 9.575046095019305 ], [ 2.541779803266849, 9.525544731698867 ], [ 2.266902148330364, 10.0 ], [ 2.467298365938298, 10.0 ], [ 2.644410549836917, 9.575046095019305 ] ] ] } },
{ "type": "Feature", "properties": { "LocationID": "a150", "c_1": 0.01960569280340976, "c_2": 0.077028740948273972, "c_3": 0.90335218032194498, "c_4": 1.3385926371255172e-05 }, "geometry": { "type": "Polygon", "coordinates": [ [ [ 2.926865493340231, 9.506161483168798 ], [ 2.644410549836917, 9.575046095019305 ], [ 2.467298365938298, 10.0 ], [ 2.874693857765826, 10.0 ], [ 2.926865493340231, 9.506161483168798 ] ] ] } },
{ "type": "Feature", "properties": { "LocationID": "a151", "c_1": 0.010065221852055557, "c_2": 0.017920226450632876, "c_3": 0.97201455169731155, "c_4": 0.0 }, "geometry": { "type": "Polygon", "coordinates": [ [ [ 2.644410549836917, 9.575046095019305 ], [ 2.926865493340231, 9.506161483168798 ], [ 3.064835445289256, 9.304823148213611 ], [ 3.032143815683034, 8.653362595149728 ], [ 2.00774197883746, 8.760668794056752 ], [ 1.977803668105141, 8.779602566812606 ], [ 1.949854215681372, 8.818443415011345 ], [ 2.013178104014615, 9.068682174095454 ], [ 2.541779803266849, 9.525544731698867 ], [ 2.644410549836917, 9.575046095019305 ] ] ] } },
{ "type": "Feature", "properties": { "LocationID": "a152", "c_1": 0.015133621896704665, "c_2": 0.031062428004673865, "c_3": 0.95380395009862151, "c_4": 0.0 }, "geometry": { "type": "Polygon", "coordinates": [ [ [ 2.541779803266849, 9.525544731698867 ], [ 2.013178104014615, 9.068682174095454 ], [ 2.077022258101765, 10.0 ], [ 2.266902148330364, 10.0 ], [ 2.541779803266849, 9.525544731698867 ] ] ] } },
{ "type": "Feature", "properties": { "LocationID": "a153", "c_1": 0.028353909459714131, "c_2": 0.1377777870981696, "c_3": 0.033640130028667635, "c_4": 0.80022817341344865 }, "geometry": { "type": "Polygon", "coordinates": [ [ [ 6.802002164572139, 10.0 ], [ 7.461395129389255, 10.0 ], [ 7.495216420754855, 9.801454332701805 ], [ 7.194396545839664, 9.548596117668394 ], [ 7.049192958413899, 9.522393001236569 ], [ 6.832737757394902, 9.77517650088811 ], [ 6.796199840296747, 9.90646298387621 ], [ 6.802002164572139, 10.0 ] ] ] } },
{ "type": "Feature", "properties": { "LocationID": "a154", "c_1": 0.029183797652074156, "c_2": 0.31930238118513299, "c_3": 0.0398101050404603, "c_4": 0.61170371612233254 }, "geometry": { "type": "Polygon", "coordinates": [ [ [ 6.798884468564756, 7.662300599172116 ], [ 7.104422475751251, 8.25381531674396 ], [ 7.594468565316841, 7.866883461293773 ], [ 7.280062723412951, 7.474604433160868 ], [ 7.269417779512427, 7.469816210235899 ], [ 6.798884468564756, 7.662300599172116 ] ] ] } },
{ "type": "Feature", "properties": { "LocationID": "a155", "c_1": 0.012447302470374325, "c_2": 0.21523244247378256, "c_3": 0.021425726806883937, "c_4": 0.75089452824895919 }, "geometry": { "type": "Polygon", "coordinates": [ [ [ 7.040561455915445, 8.441090597887525 ], [ 7.304524959153065, 8.769085318059568 ], [ 7.626522800710183, 8.84238545172826 ], [ 8.257894890782033, 8.494956676684973 ], [ 7.980503874966415, 7.891257210520725 ], [ 7.594468565316841, 7.866883461293773 ], [ 7.104422475751251, 8.25381531674396 ], [ 7.040561455915445, 8.441090597887525 ] ] ] } },
{ "type": "Feature", "properties": { "LocationID": "a156", "c_1": 0.031217120666169901, "c_2": 0.68190675754232621, "c_3": 0.045458508242515384, "c_4": 0.24141761354898844 }, "geometry": { "type": "Polygon", "coordinates": [ [ [ 7.594468565316841, 7.866883461293773 ], [ 7.980503874966415, 7.891257210520725 ], [ 8.327085366943797, 7.130036407804771 ], [ 8.220626699690774, 6.968507018741692 ], [ 7.936479135338987, 6.983372564000502 ], [ 7.280062723412951, 7.474604433160868 ], [ 7.594468565316841, 7.866883461293773 ] ] ] } },
{ "type": "Feature", "properties": { "LocationID": "a157", "c_1": 0.0092287029586437721, "c_2": 0.061297820603910008, "c_3": 0.024902531484927295, "c_4": 0.904570944952519 }, "geometry": { "type": "Polygon", "coordinates": [ [ [ 6.50405233220645, 7.555402245380523 ], [ 6.333912704119723, 7.677100613600779 ], [ 6.533658134948175, 8.500036184468932 ], [ 7.040561455915445, 8.441090597887525 ], [ 7.104422475751251, 8.25381531674396 ], [ 6.798884468564756, 7.662300599172116 ], [ 6.50405233220645, 7.555402245380523 ] ] ] } },
{ "type": "Feature", "properties": { "LocationID": "a158", "c_1": 0.01818443337708462, "c_2": 0.26974782102983974, "c_3": 0.031597433049477541, "c_4": 0.68047031254359813 }, "geometry": { "type": "Polygon", "coordinates": [ [ [ 7.069311301497619, 6.868589930434627 ], [ 6.586945681959786, 6.913681950238191 ], [ 6.50405233220645, 7.555402245380523 ], [ 6.798884468564756, 7.662300599172116 ], [ 7.269417779512427, 7.469816210235899 ], [ 7.069311301497619, 6.868589930434627 ] ] ] } },
{ "type": "Feature", "properties": { "LocationID": "a159", "c_1": 0.038435381837568637, "c_2": 0.82792426135780905, "c_3": 0.044424192875852121, "c_4": 0.089216163928770242 }, "geometry": { "type": "Polygon", "coordinates": [ [ [ 7.280062723412951, 7.474604433160868 ], [ 7.936479135338987, 6.983372564000502 ], [ 7.262130942954243, 6.81528074425777 ], [ 7.079468536050177, 6.860759677151805 ], [ 7.069311301497619, 6.868589930434627 ], [ 7.269417779512427, 7.469816210235899 ], [ 7.280062723412951, 7.474604433160868 ] ] ] } },
{ "type": "Feature", "properties": { "LocationID": "a160", "c_1": 0.0059735210759576775, "c_2": 0.96981261301849964, "c_3": 0.02329352285583668, "c_4": 0.00092034304970600473 }, "geometry": { "type": "Polygon", "coordinates": [ [ [ 2.361675791504004, 0.772489180550112 ], [ 1.95815319022218, 1.039487625371533 ], [ 2.620292505043611, 1.762900469006389 ], [ 3.080585685554772, 1.012054639446939 ], [ 3.05966706326721, 0.982676543646392 ], [ 2.720053183350691, 0.799830427378554 ], [ 2.361675791504004, 0.772489180550112 ] ] ] } },
{ "type": "Feature", "properties": { "LocationID": "a161", "c_1": 0.0020752245356838203, "c_2": 0.04718542937201952, "c_3": 0.012409652271490421, "c_4": 0.93832969382080622 }, "geometry": { "type": "Polygon", "coordinates": [ [ [ 5.198468869154679, 5.951151713671862 ], [ 4.859489773047135, 5.7649563515829 ], [ 4.722738886092028, 5.830184286242963 ], [ 4.690343948291244, 5.865180742934256 ], [ 4.230885642934012, 6.718882101922286 ], [ 4.303247002643429, 6.835509275002401 ], [ 4.881566049377155, 6.918962881989348 ], [ 5.415173490443581, 6.65649596552402 ], [ 5.198468869154679, 5.951151713671862 ] ] ] } },
{ "type": "Feature", "properties": { "LocationID": "a162", "c_1": 0.00476910494421026, "c_2": 0.15577882591307632, "c_3": 0.012313850605990011, "c_4": 0.82713821853672342 }, "geometry": { "type": "Polygon", "coordinates": [ [ [ 5.70372559024356, 6.827869140599607 ], [ 5.935974537439808, 6.736637018725451 ], [ 5.94327931790315, 6.598218411070454 ], [ 5.68411594395314, 5.853877153844322 ], [ 5.655616169143236, 5.828112075864685 ], [ 5.198468869154679, 5.951151713671862 ], [ 5.415173490443581, 6.65649596552402 ], [ 5.70372559024356, 6.827869140599607 ] ] ] } },
{ "type": "Feature", "properties": { "LocationID": "a163", "c_1": 0.022321689561958603, "c_2": 0.14485727954947866, "c_3": 0.13298180413853566, "c_4": 0.69983922675002708 }, "geometry": { "type": "Polygon", "coordinates": [ [ [ 4.881566049377155, 6.918962881989348 ], [ 4.303247002643429, 6.835509275002401 ], [ 4.247491429225124, 7.595925503611321 ], [ 4.889660856528022, 8.001251211490722 ], [ 5.003503996518259, 7.210354598674762 ], [ 4.881566049377155, 6.918962881989348 ] ] ] } },
{ "type": "Feature", "properties": { "LocationID": "a164", "c_1": 0.020957020499468012, "c_2": 0.064753098006890233, "c_3": 0.31169165090337575, "c_4": 0.60259823059026596 }, "geometry": { "type": "Polygon", "coordinates": [ [ [ 4.889660856528022, 8.001251211490722 ], [ 4.247491429225124, 7.595925503611321 ], [ 3.623039372354988, 7.911325169001097 ], [ 4.402555443392853, 8.584135089671914 ], [ 4.754659496878055, 8.512236387499438 ], [ 4.980892350390328, 8.102611364862637 ], [ 4.889660856528022, 8.001251211490722 ] ] ] } },
{ "type": "Feature", "properties": { "LocationID": "a165", "c_1": 0.022254718935406499, "c_2": 0.057626304346253321, "c_3": 0.046169050934600997, "c_4": 0.8739499257837392 }, "geometry": { "type": "Polygon", "coordinates": [ [ [ 6.198274370507267, 9.104660040843159 ], [ 6.198869098904185, 9.024751751547718 ], [ 6.124948443875244, 8.841137318776022 ], [ 5.939130382574821, 8.768885058448708 ], [ 5.185808434923486, 9.295094178587961 ], [ 5.68090807298573, 10.0 ], [ 5.728130798362305, 10.0 ], [ 6.026996418508661, 9.626415766250577 ], [ 6.198274370507267, 9.104660040843159 ] ] ] } },
{ "type": "Feature", "properties": { "LocationID": "a166", "c_1": 0.036931042860653913, "c_2": 0.15429735111787229, "c_3": 0.042500277495445271, "c_4": 0.76627132852602842 }, "geometry": { "type": "Polygon", "coordinates": [ [ [ 6.832737757394902, 9.77517650088811 ], [ 7.049192958413899, 9.522393001236569 ], [ 7.003606347703345, 9.210850394803716 ], [ 6.198869098904185, 9.024751751547718 ], [ 6.198274370507267, 9.104660040843159 ], [ 6.832737757394902, 9.77517650088811 ] ] ] } },
{ "type": "Feature", "properties": { "LocationID": "a167", "c_1": 0.023363982810796803, "c_2": 0.13214005875968723, "c_3": 0.027722150809131263, "c_4": 0.81677380762038465 }, "geometry": { "type": "Polygon", "coordinates": [ [ [ 6.198869098904185, 9.024751751547718 ], [ 7.003606347703345, 9.210850394803716 ], [ 7.304524959153065, 8.769085318059568 ], [ 7.040561455915445, 8.441090597887525 ], [ 6.533658134948175, 8.500036184468932 ], [ 6.124948443875244, 8.841137318776022 ], [ 6.198869098904185, 9.024751751547718 ] ] ] } },
{ "type": "Feature", "properties": { "LocationID": "a168", "c_1": 0.03886075557314006, "c_2": 0.12523126728740189, "c_3": 0.050882776415813208, "c_4": 0.7850252007236449 }, "geometry": { "type": "Polygon", "coordinates": [ [ [ 6.796199840296747, 9.90646298387621 ], [ 6.832737757394902, 9.77517650088811 ], [ 6.198274370507267, 9.104660040843159 ], [ 6.026996418508661, 9.626415766250577 ], [ 6.796199840296747, 9.90646298387621 ] ] ] } },
{ "type": "Feature", "properties": { "LocationID": "a169", "c_1": 0.084258428747370176, "c_2": 0.054199619636873378, "c_3": 0.18441776525425851, "c_4": 0.67712418636149796 }, "geometry": { "type": "Polygon", "coordinates": [ [ [ 5.185808434923486, 9.295094178587961 ], [ 4.940481908848537, 9.247195469244334 ], [ 4.924686523330601, 9.822665039811964 ], [ 5.012700766921898, 10.0 ], [ 5.68090807298573, 10.0 ], [ 5.185808434923486, 9.295094178587961 ] ] ] } },
{ "type": "Feature", "properties": { "LocationID": "a170", "c_1": 0.066267075587931379, "c_2": 0.21324081864782574, "c_3": 0.08151393932887098, "c_4": 0.63897816643537197 }, "geometry": { "type": "Polygon", "coordinates": [ [ [ 6.796199840296747, 9.90646298387621 ], [ 6.026996418508661, 9.626415766250577 ], [ 5.728130798362305, 10.0 ], [ 6.802002164572139, 10.0 ], [ 6.796199840296747, 9.90646298387621 ] ] ] } },
{ "type": "Feature", "properties": { "LocationID": "a171", "c_1": 0.052173412675922466, "c_2": 0.78848503204980469, "c_3": 0.073025820001007949, "c_4": 0.086315735273264832 }, "geometry": { "type": "Polygon", "coordinates": [ [ [ 3.366761526414443, 0.501251058931599 ], [ 3.705822627106738, 0.177488339741018 ], [ 3.744684990020366, 0.0 ], [ 3.121631198930528, 0.0 ], [ 3.366761526414443, 0.501251058931599 ] ] ] } },
{ "type": "Feature", "properties": { "LocationID": "a172", "c_1": 0.016097739678360444, "c_2": 0.82316646982871522, "c_3": 0.089865877151231982, "c_4": 0.070869913341692417 }, "geometry": { "type": "Polygon", "coordinates": [ [ [ 2.720053183350691, 0.799830427378554 ], [ 3.05966706326721, 0.982676543646392 ], [ 3.366761526414443, 0.501251058931599 ], [ 3.121631198930528, 0.0 ], [ 2.90051257023364, 0.0 ], [ 2.720053183350691, 0.799830427378554 ] ] ] } },
{ "type": "Feature", "properties": { "LocationID": "a173", "c_1": 0.44868995880223062, "c_2": 0.40807710657273144, "c_3": 0.081146062134702532, "c_4": 0.062086872490335461 }, "geometry": { "type": "Polygon", "coordinates": [ [ [ 4.594126165488301, 0.143166528041052 ], [ 6.0036604153274, 0.531405132209532 ], [ 5.946847196113821, 0.0 ], [ 4.580975088135908, 0.0 ], [ 4.594126165488301, 0.143166528041052 ] ] ] } },
{ "type": "Feature", "properties": { "LocationID": "a174", "c_1": 0.10063275633537853, "c_2": 0.73777840017947671, "c_3": 0.073964337867955102, "c_4": 0.087624505617189652 }, "geometry": { "type": "Polygon", "coordinates": [ [ [ 4.27513215682753, 1.024865949211268 ], [ 4.312473052376888, 1.016997721512205 ], [ 4.594151520085886, 0.769831259028605 ], [ 4.594126165488301, 0.143166528041052 ], [ 4.580975088135908, 0.0 ], [ 3.744684990020366, 0.0 ], [ 3.705822627106738, 0.177488339741018 ], [ 4.27513215682753, 1.024865949211268 ] ] ] } },
{ "type": "Feature", "properties": { "LocationID": "a175", "c_1": 0.025572757081991887, "c_2": 0.84027319075530604, "c_3": 0.098576176855586783, "c_4": 0.035577875307115307 }, "geometry": { "type": "Polygon", "coordinates": [ [ [ 3.05966706326721, 0.982676543646392 ], [ 3.080585685554772, 1.012054639446939 ], [ 3.622450816085054, 1.364050715295008 ], [ 3.709848110130221, 1.3611306146687 ], [ 4.27513215682753, 1.024865949211268 ], [ 3.705822627106738, 0.177488339741018 ], [ 3.366761526414443, 0.501251058931599 ], [ 3.05966706326721, 0.982676543646392 ] ] ] } },
{ "type": "Feature", "properties": { "LocationID": "a176", "c_1": 0.0035474969444389023, "c_2": 0.019846240874459454, "c_3": 0.016078446609283738, "c_4": 0.96052781557181799 }, "geometry": { "type": "Polygon", "coordinates": [ [ [ 4.988183892673803, 8.102018746431252 ], [ 5.656690719327777, 8.380255252032185 ], [ 6.13684931796907, 7.685477548137044 ], [ 5.660435616350043, 7.34394338368748 ], [ 5.637566615088472, 7.359456301298979 ], [ 4.988183892673803, 8.102018746431252 ] ] ] } },
{ "type": "Feature", "properties": { "LocationID": "a177", "c_1": 0.012525442505274527, "c_2": 0.033678667089026545, "c_3": 0.043639315711525843, "c_4": 0.9101565746941731 }, "geometry": { "type": "Polygon", "coordinates": [ [ [ 4.980892350390328, 8.102611364862637 ], [ 4.754659496878055, 8.512236387499438 ], [ 4.914262141623768, 9.233393931842466 ], [ 4.940481908848537, 9.247195469244334 ], [ 5.185808434923486, 9.295094178587961 ], [ 5.939130382574821, 8.768885058448708 ], [ 5.656690719327777, 8.380255252032185 ], [ 4.988183892673803, 8.102018746431252 ], [ 4.980892350390328, 8.102611364862637 ] ] ] } },
{ "type": "Feature", "properties": { "LocationID": "a178", "c_1": 0.0030307059281382809, "c_2": 0.015764352708198575, "c_3": 0.014536170979804997, "c_4": 0.96666877038385823 }, "geometry": { "type": "Polygon", "coordinates": [ [ [ 5.656690719327777, 8.380255252032185 ], [ 5.939130382574821, 8.768885058448708 ], [ 6.124948443875244, 8.841137318776022 ], [ 6.533658134948175, 8.500036184468932 ], [ 6.333912704119723, 7.677100613600779 ], [ 6.13684931796907, 7.685477548137044 ], [ 5.656690719327777, 8.380255252032185 ] ] ] } },
{ "type": "Feature", "properties": { "LocationID": "a179", "c_1": 0.015607577080832106, "c_2": 0.078386109879539381, "c_3": 0.05567362874160206, "c_4": 0.85033268429802644 }, "geometry": { "type": "Polygon", "coordinates": [ [ [ 5.003503996518259, 7.210354598674762 ], [ 4.889660856528022, 8.001251211490722 ], [ 4.980892350390328, 8.102611364862637 ], [ 4.988183892673803, 8.102018746431252 ], [ 5.637566615088472, 7.359456301298979 ], [ 5.003503996518259, 7.210354598674762 ] ] ] } },
{ "type": "Feature", "properties": { "LocationID": "a180", "c_1": 0.0072955614473926428, "c_2": 0.07586292717984279, "c_3": 0.022979804007662516, "c_4": 0.89386170736510207 }, "geometry": { "type": "Polygon", "coordinates": [ [ [ 6.13684931796907, 7.685477548137044 ], [ 6.333912704119723, 7.677100613600779 ], [ 6.50405233220645, 7.555402245380523 ], [ 6.586945681959786, 6.913681950238191 ], [ 6.430523812266072, 6.762033287208002 ], [ 5.935974537439808, 6.736637018725451 ], [ 5.70372559024356, 6.827869140599607 ], [ 5.660435616350043, 7.34394338368748 ], [ 6.13684931796907, 7.685477548137044 ] ] ] } },
{ "type": "Feature", "properties": { "LocationID": "a181", "c_1": 0.017121139329812754, "c_2": 0.1657872450057041, "c_3": 0.046711298808925814, "c_4": 0.77038031685555741 }, "geometry": { "type": "Polygon", "coordinates": [ [ [ 5.660435616350043, 7.34394338368748 ], [ 5.70372559024356, 6.827869140599607 ], [ 5.415173490443581, 6.65649596552402 ], [ 4.881566049377155, 6.918962881989348 ], [ 5.003503996518259, 7.210354598674762 ], [ 5.637566615088472, 7.359456301298979 ], [ 5.660435616350043, 7.34394338368748 ] ] ] } },
{ "type": "Feature", "properties": { "LocationID": "a182", "c_1": 0.038877576527163789, "c_2": 0.52942289044348423, "c_3": 0.057514677643316109, "c_4": 0.37418485538603591 }, "geometry": { "type": "Polygon", "coordinates": [ [ [ 0.0, 1.097070241814357 ], [ 0.300411672926623, 1.111893758949529 ], [ 0.804170748667052, 0.403128932344033 ], [ 0.954804195135103, 0.459851006942038 ], [ 1.226936963784947, 0.0 ], [ 0.0, 0.0 ], [ 0.0, 1.097070241814357 ] ] ] } },
{ "type": "Feature", "properties": { "LocationID": "a183", "c_1": 0.019775852937514701, "c_2": 0.093100793375793939, "c_3": 0.01608452303339919, "c_4": 0.87103883065329224 }, "geometry": { "type": "Polygon", "coordinates": [ [ [ 0.0, 3.365286232259608 ], [ 0.081537858186401, 3.372663068451166 ], [ 0.512913101828804, 3.156820226370559 ], [ 0.548400881870887, 2.640088200358564 ], [ 0.22409706769219, 2.353209396110603 ], [ 0.0, 2.307674035901659 ], [ 0.0, 3.365286232259608 ] ] ] } },
{ "type": "Feature", "properties": { "LocationID": "a184", "c_1": 0.080467471289148051, "c_2": 0.2448163688981525, "c_3": 0.18034667565607662, "c_4": 0.49436948415662285 }, "geometry": { "type": "Polygon", "coordinates": [ [ [ 0.0, 4.931742745479749 ], [ 0.185260162758971, 4.876054134801139 ], [ 0.217372342635737, 4.155721071037983 ], [ 0.0, 4.1231771250668 ], [ 0.0, 4.931742745479749 ] ] ] } },
{ "type": "Feature", "properties": { "LocationID": "a185", "c_1": 0.032406859791849624, "c_2": 0.056732033288223231, "c_3": 0.89746503107550302, "c_4": 0.013396075844424104 }, "geometry": { "type": "Polygon", "coordinates": [ [ [ 0.0, 7.786407714275728 ], [ 0.366770686566344, 7.430368047099133 ], [ 0.0, 7.318847234516164 ], [ 0.0, 7.786407714275728 ] ] ] } },
{ "type": "Feature", "properties": { "LocationID": "a186", "c_1": 0.095655397524380251, "c_2": 0.011393269720918748, "c_3": 0.88892764526778001, "c_4": 0.0040236874869209781 }, "geometry": { "type": "Polygon", "coordinates": [ [ [ 0.0, 10.0 ], [ 0.38173999425722, 10.0 ], [ 0.986916477445685, 8.770317787734697 ], [ 0.448491937530382, 8.264575372706059 ], [ 0.0, 8.374084686173859 ], [ 0.0, 10.0 ] ] ] } },
{ "type": "Feature", "properties": { "LocationID": "a187", "c_1": 0.022069060299120185, "c_2": 0.015187904696684386, "c_3": 0.96273262638104418, "c_4": 1.0408623151255339e-05 }, "geometry": { "type": "Polygon", "coordinates": [ [ [ 2.077022258101765, 10.0 ], [ 2.013178104014615, 9.068682174095454 ], [ 1.949854215681372, 8.818443415011345 ], [ 1.802857269459966, 8.874156129279797 ], [ 0.898981176673427, 10.0 ], [ 2.077022258101765, 10.0 ] ] ] } },
{ "type": "Feature", "properties": { "LocationID": "a188", "c_1": 0.077484038372542779, "c_2": 0.089315820581172309, "c_3": 0.33127659695447409, "c_4": 0.50192354409181084 }, "geometry": { "type": "Polygon", "coordinates": [ [ [ 5.012700766921898, 10.0 ], [ 4.924686523330601, 9.822665039811964 ], [ 4.301460830891929, 10.0 ], [ 5.012700766921898, 10.0 ] ] ] } },
{ "type": "Feature", "properties": { "LocationID": "a189", "c_1": 0.023824453207522914, "c_2": 0.12543549218604216, "c_3": 0.035602113709886807, "c_4": 0.81513794089654823 }, "geometry": { "type": "Polygon", "coordinates": [ [ [ 7.849464935595114, 10.0 ], [ 7.607785758159347, 9.734360666696691 ], [ 7.495216420754855, 9.801454332701805 ], [ 7.461395129389255, 10.0 ], [ 7.849464935595114, 10.0 ] ] ] } },
{ "type": "Feature", "properties": { "LocationID": "a190", "c_1": 0.090294130457639579, "c_2": 0.63179567684746885, "c_3": 0.082986158783602104, "c_4": 0.1949240339112896 }, "geometry": { "type": "Polygon", "coordinates": [ [ [ 10.0, 10.0 ], [ 10.0, 9.544767559101595 ], [ 9.609377599773646, 10.0 ], [ 10.0, 10.0 ] ] ] } },
{ "type": "Feature", "properties": { "LocationID": "a191", "c_1": 0.021150495444046687, "c_2": 0.91301354789854428, "c_3": 0.065743078692894752, "c_4": 9.2877964514241369e-05 }, "geometry": { "type": "Polygon", "coordinates": [ [ [ 10.0, 7.38530381906824 ], [ 9.270644780554305, 7.671145010188154 ], [ 9.241792997748208, 7.922829308495132 ], [ 9.971516201743077, 8.496017299390136 ], [ 10.0, 8.503726059438595 ], [ 10.0, 7.38530381906824 ] ] ] } },
{ "type": "Feature", "properties": { "LocationID": "a192", "c_1": 0.094132995796574984, "c_2": 0.76784668020151714, "c_3": 0.08348057817391985, "c_4": 0.05453974582798804 }, "geometry": { "type": "Polygon", "coordinates": [ [ [ 10.0, 4.661411733372907 ], [ 9.152417360032032, 5.318489693336852 ], [ 10.0, 5.596017996630499 ], [ 10.0, 4.661411733372907 ] ] ] } },
{ "type": "Feature", "properties": { "LocationID": "a193", "c_1": 0.96893082925515561, "c_2": 3.1500724075549973e-05, "c_3": 0.024456528027810728, "c_4": 0.0065811419929581831 }, "geometry": { "type": "Polygon", "coordinates": [ [ [ 10.0, 0.0 ], [ 5.946847196113821, 0.0 ], [ 6.0036604153274, 0.531405132209532 ], [ 6.038014007953834, 0.744547504742962 ], [ 6.269530292981578, 0.80649358585831 ], [ 7.608772390476848, 0.086907758151728 ], [ 8.034667146783281, 0.862644115415195 ], [ 8.665529492552835, 0.640732235832982 ], [ 8.985005033008635, 0.753810588247369 ], [ 9.343701562663178, 1.208690064585798 ], [ 9.296969136953095, 1.282913431118569 ], [ 9.363744632451441, 1.578496971797938 ], [ 10.0, 2.542031786669062 ], [ 10.0, 0.0 ] ] ] } },
{ "type": "Feature", "properties": { "LocationID": "a194", "c_1": 0.010667180878503145, "c_2": 0.88688255261418547, "c_3": 0.088293282123248135, "c_4": 0.014156984384063265 }, "geometry": { "type": "Polygon", "coordinates": [ [ [ 2.087661018432935, 0.0 ], [ 2.361675791504004, 0.772489180550112 ], [ 2.720053183350691, 0.799830427378554 ], [ 2.90051257023364, 0.0 ], [ 2.087661018432935, 0.0 ] ] ] } }
]
}
